{"type":"FeatureCollection","features":[{"type":"Feature","properties":{"admin_code":"ZA-EC-NELSON_MANDELA_BAY","name":"Nelson Mandela Bay","name_local":"Nelson Mandela Bay"},"geometry":{"type":"Polygon","coordinates":[[[25.2243,-33.963],[25.2208,-33.9611],[25.2282,-33.9513],[25.2244,-33.9394],[25.2157,-33.9345],[25.2087,-33.9217],[25.1957,-33.9252],[25.1928,-33.9179],[25.2124,-33.8838],[25.2637,-33.8868],[25.2187,-33.8764],[25.2469,-33.8631],[25.2259,-33.852],[25.2261,-33.8484],[25.2616,-33.8021],[25.2733,-33.7734],[25.2997,-33.7708],[25.305,-33.762],[25.285,-33.7533],[25.3017,-33.7263],[25.2916,-33.7222],[25.2829,-33.711],[25.2682,-33.7057],[25.2662,-33.6994],[25.2532,-33.691],[25.2404,-33.6931],[25.2491,-33.6837],[25.2737,-33.6893],[25.2665,-33.6971],[25.3008,-33.7039],[25.3017,-33.7123],[25.2921,-33.7143],[25.3273,-33.7264],[25.3372,-33.7105],[25.3503,-33.716],[25.3521,-33.7031],[25.3306,-33.689],[25.3478,-33.6709],[25.3081,-33.6379],[25.3362,-33.6367],[25.3395,-33.6288],[25.3211,-33.6216],[25.3463,-33.5571],[25.4045,-33.5617],[25.4377,-33.5531],[25.5076,-33.5718],[25.4938,-33.6116],[25.5558,-33.6281],[25.5534,-33.6051],[25.558,-33.5962],[25.6317,-33.5916],[25.6271,-33.6089],[25.6681,-33.6144],[25.6793,-33.6284],[25.6835,-33.6252],[25.679,-33.6226],[25.6823,-33.6185],[25.6752,-33.6179],[25.6786,-33.6061],[25.6881,-33.6016],[25.6936,-33.6095],[25.6914,-33.6152],[25.7017,-33.6278],[25.7077,-33.6206],[25.7354,-33.6281],[25.7385,-33.6568],[25.7801,-33.6923],[25.7925,-33.6944],[25.7916,-33.6837],[25.8498,-33.6654],[25.8619,-33.6841],[25.8682,-33.6994],[25.849,-33.7225],[25.7894,-33.7433],[25.704,-33.7905],[25.6653,-33.8219],[25.631,-33.8642],[25.6329,-33.8694],[25.6134,-33.9189],[25.6125,-33.9483],[25.6244,-33.9561],[25.6393,-33.9551],[25.6409,-33.9586],[25.627,-33.9603],[25.6368,-33.9616],[25.6294,-33.9639],[25.6359,-33.9683],[25.6445,-33.9632],[25.6476,-33.9753],[25.672,-33.9836],[25.6871,-34.0003],[25.704,-34.0319],[25.6597,-34.0265],[25.6494,-34.0302],[25.645,-34.0383],[25.6281,-34.0494],[25.6085,-34.0451],[25.5811,-34.0508],[25.5702,-34.0456],[25.4681,-34.0294],[25.4402,-34.0354],[25.4078,-34.0358],[25.3817,-34.0229],[25.3513,-34.0156],[25.3055,-33.993],[25.2215,-33.9708],[25.2243,-33.963]]]}},{"type":"Feature","properties":{"admin_code":"ZA-EC-BUFFALO_CITY","name":"Buffalo City","name_local":"Buffalo City"},"geometry":{"type":"Polygon","coordinates":[[[27.4801,-33.272],[27.4699,-33.2849],[27.4581,-33.2814],[27.4555,-33.2641],[27.4416,-33.2573],[27.4359,-33.2401],[27.4133,-33.2343],[27.416,-33.2222],[27.4335,-33.2099],[27.4323,-33.1999],[27.4247,-33.193],[27.4058,-33.193],[27.3947,-33.1847],[27.3772,-33.1843],[27.3784,-33.1654],[27.3889,-33.162],[27.3909,-33.1561],[27.3875,-33.152],[27.3693,-33.1512],[27.3595,-33.1327],[27.3631,-33.1271],[27.374,-33.1273],[27.3698,-33.1222],[27.3778,-33.1113],[27.3951,-33.111],[27.4256,-33.0904],[27.4421,-33.0895],[27.4455,-33.072],[27.4387,-33.0678],[27.4374,-33.0587],[27.4474,-33.0489],[27.4836,-33.0307],[27.4788,-33.026],[27.4997,-33.0078],[27.5039,-32.9952],[27.4399,-32.9898],[27.4179,-33.0058],[27.4014,-32.9775],[27.3433,-32.9629],[27.318,-32.9713],[27.3256,-32.9917],[27.3199,-32.9984],[27.3248,-33.003],[27.3099,-33.0061],[27.3148,-33.0137],[27.2961,-33.0242],[27.2907,-33.0231],[27.2897,-33.0157],[27.2785,-33.0112],[27.2713,-32.998],[27.2749,-32.9953],[27.2402,-32.9892],[27.2441,-32.9856],[27.2422,-32.9764],[27.2292,-32.9677],[27.2404,-32.9651],[27.2399,-32.9553],[27.2558,-32.9434],[27.2589,-32.9318],[27.2826,-32.9283],[27.279,-32.9251],[27.2707,-32.9279],[27.2677,-32.9211],[27.2359,-32.9206],[27.2317,-32.896],[27.2221,-32.8985],[27.2182,-32.8862],[27.2256,-32.8853],[27.2216,-32.8852],[27.2204,-32.8786],[27.2304,-32.8625],[27.2308,-32.8506],[27.2162,-32.8549],[27.2041,-32.8493],[27.2038,-32.8444],[27.1576,-32.8385],[27.1588,-32.8319],[27.1773,-32.8174],[27.1695,-32.8092],[27.178,-32.8127],[27.1889,-32.7974],[27.2154,-32.7926],[27.219,-32.7835],[27.2127,-32.7654],[27.2344,-32.7599],[27.2407,-32.7536],[27.232,-32.7145],[27.2596,-32.6896],[27.2872,-32.6849],[27.2933,-32.6757],[27.3546,-32.6744],[27.3873,-32.6798],[27.3713,-32.6998],[27.3825,-32.7252],[27.4039,-32.7363],[27.3911,-32.7397],[27.3816,-32.7643],[27.3797,-32.7859],[27.3701,-32.8043],[27.3735,-32.822],[27.3858,-32.8255],[27.3945,-32.8184],[27.3932,-32.8137],[27.3862,-32.8139],[27.3854,-32.8014],[27.4161,-32.8007],[27.4213,-32.796],[27.4244,-32.8034],[27.4501,-32.8136],[27.4561,-32.7816],[27.467,-32.7722],[27.4751,-32.7727],[27.4767,-32.7611],[27.4899,-32.7595],[27.4933,-32.7436],[27.5153,-32.7159],[27.5538,-32.7252],[27.5192,-32.7466],[27.5364,-32.7926],[27.5577,-32.8017],[27.5706,-32.7966],[27.5869,-32.8131],[27.5925,-32.8076],[27.6076,-32.81],[27.6035,-32.8176],[27.6114,-32.8208],[27.6169,-32.8153],[27.6295,-32.8231],[27.6274,-32.8123],[27.6352,-32.8173],[27.6473,-32.8116],[27.6519,-32.8207],[27.6456,-32.8244],[27.6552,-32.828],[27.6519,-32.8397],[27.6565,-32.8413],[27.6566,-32.8376],[27.6653,-32.8363],[27.6613,-32.8322],[27.6671,-32.8284],[27.674,-32.8345],[27.6918,-32.8178],[27.7159,-32.8086],[27.7205,-32.7999],[27.7078,-32.7783],[27.7273,-32.7839],[27.7424,-32.7777],[27.763,-32.7783],[27.7793,-32.7663],[27.7818,-32.7578],[27.7873,-32.7598],[27.7831,-32.7487],[27.7894,-32.7535],[27.7921,-32.746],[27.8026,-32.7562],[27.8041,-32.7642],[27.8152,-32.7611],[27.8103,-32.781],[27.8327,-32.7819],[27.8231,-32.7976],[27.8276,-32.8155],[27.8471,-32.803],[27.8448,-32.794],[27.8524,-32.7927],[27.8566,-32.803],[27.8645,-32.7942],[27.8644,-32.7863],[27.8829,-32.7855],[27.8858,-32.7741],[27.8969,-32.7658],[27.8999,-32.7565],[27.9054,-32.7583],[27.9498,-32.74],[27.9472,-32.7521],[27.9544,-32.7508],[27.9588,-32.7555],[27.9698,-32.7878],[27.9811,-32.7874],[27.9872,-32.7939],[27.986,-32.7759],[27.9904,-32.775],[27.9906,-32.782],[27.9994,-32.7898],[27.979,-32.8123],[28.0068,-32.8171],[28.0116,-32.8257],[28.01,-32.8401],[27.9915,-32.8556],[28.0075,-32.8644],[28.0072,-32.8694],[28.0228,-32.8824],[28.0348,-32.8805],[28.0396,-32.8874],[28.0475,-32.8821],[28.0532,-32.8917],[28.0667,-32.8923],[28.0656,-32.9045],[28.0808,-32.9105],[28.0794,-32.9133],[28.0568,-32.9192],[28.0326,-32.9345],[28.0346,-32.9427],[28.0037,-32.9553],[27.986,-32.9698],[27.9608,-32.9788],[27.9492,-32.9907],[27.9521,-32.9978],[27.9233,-33.0107],[27.9165,-33.0267],[27.9255,-33.0284],[27.9042,-33.0422],[27.8881,-33.0452],[27.8304,-33.0747],[27.8244,-33.0863],[27.8056,-33.0892],[27.7833,-33.1022],[27.7625,-33.1052],[27.7285,-33.121],[27.7136,-33.1392],[27.7039,-33.1437],[27.7002,-33.1529],[27.6644,-33.1724],[27.6327,-33.2018],[27.615,-33.2077],[27.6103,-33.2173],[27.5823,-33.2254],[27.5748,-33.2359],[27.5295,-33.2555],[27.5168,-33.2691],[27.4918,-33.282],[27.4801,-33.272]]]}},{"type":"Feature","properties":{"admin_code":"ZA-EC-SARAH_BAARTMAN","name":"Sarah Baartman","name_local":"Sarah Baartman"},"geometry":{"type":"Polygon","coordinates":[[[25.9343,-32.4761],[25.93,-32.4946],[25.9398,-32.5387],[25.9593,-32.5521],[25.9766,-32.5459],[26.0266,-32.5466],[26.0283,-32.54],[26.0808,-32.5466],[26.0896,-32.5586],[26.0954,-32.5586],[26.0941,-32.5649],[26.1213,-32.5802],[26.1272,-32.5954],[26.1189,-32.5982],[26.1163,-32.6049],[26.0741,-32.6383],[26.0476,-32.6328],[26.0443,-32.6443],[26.0472,-32.6543],[26.0268,-32.6701],[26.064,-32.6856],[26.032,-32.764],[26.049,-32.7808],[26.066,-32.7869],[26.0951,-32.7643],[26.1094,-32.765],[26.1091,-32.7695],[26.1795,-32.7634],[26.2052,-32.7494],[26.2081,-32.7696],[26.2404,-32.793],[26.2457,-32.8152],[26.189,-32.8122],[26.1656,-32.8444],[26.1685,-32.8556],[26.1759,-32.855],[26.1804,-32.8446],[26.1867,-32.8583],[26.1832,-32.8693],[26.1933,-32.8665],[26.1992,-32.8502],[26.2103,-32.8633],[26.2257,-32.8577],[26.2194,-32.8782],[26.2361,-32.8712],[26.2426,-32.8816],[26.2608,-32.8908],[26.2629,-32.8797],[26.2748,-32.8806],[26.2851,-32.8992],[26.2749,-32.937],[26.299,-32.9321],[26.3586,-32.9345],[26.3627,-32.9635],[26.3881,-32.9734],[26.4419,-32.9447],[26.454,-32.9642],[26.4615,-32.9629],[26.463,-32.9522],[26.4682,-32.9512],[26.4722,-32.9725],[26.485,-32.9818],[26.4955,-32.9769],[26.497,-32.9493],[26.5123,-32.9425],[26.5184,-32.9468],[26.5236,-32.9618],[26.5158,-32.9859],[26.5207,-32.9923],[26.5421,-32.9789],[26.5642,-32.991],[26.5732,-32.9893],[26.5787,-32.9799],[26.5792,-32.9637],[26.5885,-32.9581],[26.5957,-32.9904],[26.583,-33.0097],[26.5857,-33.0167],[26.6062,-33.0104],[26.6156,-32.9979],[26.624,-32.9973],[26.6301,-33.0043],[26.6272,-33.0227],[26.641,-33.0321],[26.6365,-33.0488],[26.6524,-33.0482],[26.6618,-33.03],[26.667,-33.0297],[26.6906,-33.0564],[26.7143,-33.0404],[26.7237,-33.0529],[26.7365,-33.0556],[26.7506,-33.0298],[26.7785,-33.0352],[26.7843,-33.0266],[26.784,-32.9953],[26.7984,-32.9912],[26.8025,-33.0009],[26.7949,-33.0263],[26.7957,-33.0466],[26.7722,-33.0776],[26.7717,-33.0845],[26.7767,-33.0888],[26.7875,-33.0816],[26.813,-33.036],[26.8255,-33.0395],[26.8282,-33.0678],[26.8391,-33.0812],[26.8546,-33.0764],[26.8567,-33.0496],[26.8614,-33.0445],[26.8669,-33.046],[26.8751,-33.057],[26.8772,-33.076],[26.8586,-33.1006],[26.8527,-33.1261],[26.8436,-33.1317],[26.8346,-33.1214],[26.8244,-33.1239],[26.8204,-33.1297],[26.8321,-33.155],[26.8376,-33.1551],[26.8376,-33.1746],[26.8657,-33.1814],[26.8553,-33.1924],[26.84,-33.1948],[26.8425,-33.2042],[26.8571,-33.2077],[26.8726,-33.2032],[26.8728,-33.1931],[26.8794,-33.1898],[26.8803,-33.1762],[26.8765,-33.1719],[26.8817,-33.1699],[26.8962,-33.1713],[26.8906,-33.1763],[26.899,-33.1819],[26.8967,-33.1944],[26.9086,-33.2026],[26.9279,-33.195],[26.9211,-33.1914],[26.9257,-33.1866],[26.9215,-33.1689],[26.9243,-33.1652],[26.9443,-33.1655],[26.96,-33.1729],[26.953,-33.1785],[26.9571,-33.1918],[26.9792,-33.2208],[26.9625,-33.2281],[26.9591,-33.2352],[26.9669,-33.2381],[26.9867,-33.2334],[27.0088,-33.2521],[27.0039,-33.2635],[26.9814,-33.2538],[26.9726,-33.2568],[26.9691,-33.2645],[26.9693,-33.2678],[26.9891,-33.2721],[27.0033,-33.2951],[26.9985,-33.3155],[27.0026,-33.3202],[26.9986,-33.3307],[26.9836,-33.3427],[26.9853,-33.3562],[27.006,-33.3684],[27.0163,-33.3792],[27.0207,-33.3955],[27.0437,-33.4121],[27.0558,-33.4373],[27.0692,-33.4444],[27.0695,-33.4574],[27.0778,-33.4697],[27.1346,-33.4935],[27.1355,-33.5039],[27.1247,-33.5087],[27.1124,-33.5248],[27.0585,-33.5363],[27.0431,-33.546],[27.0428,-33.5543],[27.0154,-33.5619],[27.0084,-33.5706],[26.9705,-33.5731],[26.9372,-33.5815],[26.8667,-33.6263],[26.7423,-33.6529],[26.7046,-33.6719],[26.6969,-33.6819],[26.6837,-33.6832],[26.6666,-33.6966],[26.6481,-33.6998],[26.6259,-33.7191],[26.5941,-33.7228],[26.5585,-33.7483],[26.4848,-33.7656],[26.4684,-33.7734],[26.3802,-33.7594],[26.3241,-33.7679],[26.2943,-33.7635],[26.1883,-33.7262],[26.0788,-33.7068],[25.9568,-33.7085],[25.849,-33.7225],[25.8682,-33.6994],[25.8498,-33.6654],[25.7916,-33.6837],[25.7925,-33.6944],[25.7801,-33.6923],[25.7385,-33.6568],[25.7354,-33.6281],[25.7077,-33.6206],[25.7017,-33.6278],[25.6914,-33.6152],[25.6936,-33.6095],[25.6881,-33.6016],[25.6786,-33.6061],[25.6752,-33.6179],[25.6823,-33.6185],[25.679,-33.6226],[25.6835,-33.6252],[25.6793,-33.6284],[25.6681,-33.6144],[25.6271,-33.6089],[25.6317,-33.5916],[25.558,-33.5962],[25.5534,-33.6051],[25.5558,-33.6281],[25.4938,-33.6116],[25.5076,-33.5718],[25.4377,-33.5531],[25.4045,-33.5617],[25.3463,-33.5571],[25.3211,-33.6216],[25.3395,-33.6288],[25.3362,-33.6367],[25.3081,-33.6379],[25.3478,-33.6709],[25.3306,-33.689],[25.3521,-33.7031],[25.3503,-33.716],[25.3372,-33.7105],[25.3273,-33.7264],[25.2921,-33.7143],[25.3017,-33.7123],[25.3008,-33.7039],[25.2665,-33.6971],[25.2737,-33.6893],[25.2491,-33.6837],[25.2404,-33.6931],[25.2532,-33.691],[25.2662,-33.6994],[25.2682,-33.7057],[25.2829,-33.711],[25.2916,-33.7222],[25.3017,-33.7263],[25.285,-33.7533],[25.305,-33.762],[25.2997,-33.7708],[25.2733,-33.7734],[25.2616,-33.8021],[25.2261,-33.8484],[25.2259,-33.852],[25.2469,-33.8631],[25.2187,-33.8764],[25.2637,-33.8868],[25.2124,-33.8838],[25.1928,-33.9179],[25.1957,-33.9252],[25.2087,-33.9217],[25.2157,-33.9345],[25.2244,-33.9394],[25.2282,-33.9513],[25.2208,-33.9611],[25.2243,-33.963],[25.2215,-33.9708],[25.1541,-33.9628],[25.0779,-33.9647],[24.9995,-33.9771],[24.9416,-34.0022],[24.9281,-34.0155],[24.934,-34.0335],[24.9251,-34.0535],[24.9224,-34.0798],[24.9076,-34.0869],[24.8852,-34.111],[24.8429,-34.1417],[24.8323,-34.1679],[24.8714,-34.1967],[24.851,-34.1939],[24.8399,-34.1973],[24.8339,-34.2051],[24.8371,-34.2139],[24.7948,-34.1974],[24.769,-34.1985],[24.7336,-34.1862],[24.7144,-34.1937],[24.6464,-34.173],[24.6155,-34.1758],[24.6064,-34.1837],[24.6087,-34.1914],[24.5588,-34.176],[24.4913,-34.1676],[24.4735,-34.1611],[24.4275,-34.1273],[24.4017,-34.1172],[24.3819,-34.1031],[24.3103,-34.1018],[24.2929,-34.0928],[24.2154,-34.0731],[24.1938,-34.06],[24.1897,-34.0671],[24.1295,-34.058],[24.12,-34.0625],[23.903,-34.0269],[23.8923,-34.0329],[23.8465,-34.0271],[23.7643,-34.012],[23.7518,-34.0052],[23.6448,-33.9896],[23.6459,-33.9624],[23.6346,-33.9521],[23.637,-33.9347],[23.6447,-33.9307],[23.6374,-33.913],[23.6568,-33.9069],[23.6474,-33.8928],[23.6559,-33.8868],[23.683,-33.884],[23.6943,-33.868],[23.7033,-33.8641],[23.6203,-33.8432],[23.6081,-33.8329],[23.5619,-33.8289],[23.554,-33.7964],[23.5573,-33.7934],[23.5188,-33.7821],[23.5179,-33.7856],[23.488,-33.7915],[23.4891,-33.8075],[23.468,-33.8075],[23.395,-33.7926],[23.4301,-33.7618],[23.4399,-33.7174],[23.4754,-33.7177],[23.5413,-33.6995],[23.5417,-33.683],[23.5555,-33.673],[23.5565,-33.6515],[23.5859,-33.6727],[23.6288,-33.6693],[23.6704,-33.6726],[23.675,-33.6259],[23.6199,-33.5915],[23.6168,-33.5696],[23.5962,-33.5725],[23.604,-33.4964],[23.5142,-33.4627],[23.4956,-33.4434],[23.4676,-33.4481],[23.4233,-33.442],[23.3934,-33.4457],[23.3549,-33.4412],[23.3641,-33.4618],[23.318,-33.4065],[23.2971,-33.3886],[23.1348,-33.3876],[23.1129,-33.4008],[23.0664,-33.4003],[22.9348,-33.4291],[22.8303,-33.4191],[22.7744,-33.4197],[22.7845,-33.4155],[22.7357,-33.3948],[22.7393,-33.324],[22.7734,-33.3263],[22.7739,-33.309],[22.7903,-33.3073],[22.8402,-33.2202],[22.8772,-33.1869],[22.8923,-33.1416],[22.9553,-33.0731],[22.9578,-33.0451],[22.9341,-33.0217],[22.9352,-33.013],[22.9693,-32.9934],[22.9488,-32.95],[23.0037,-32.8983],[23.0074,-32.8728],[23.098,-32.8737],[23.1164,-32.858],[23.0893,-32.7992],[23.1493,-32.7667],[23.1875,-32.7674],[23.2011,-32.7854],[23.2504,-32.7886],[23.3052,-32.8095],[23.3786,-32.825],[23.3977,-32.7635],[23.3516,-32.7638],[23.3535,-32.7294],[23.3329,-32.7036],[23.2696,-32.6715],[23.3013,-32.6518],[23.3073,-32.6116],[23.2882,-32.5512],[23.2445,-32.5132],[23.2475,-32.4653],[23.2216,-32.425],[23.2721,-32.4007],[23.2872,-32.4042],[23.3073,-32.3959],[23.3331,-32.3511],[23.3493,-32.3644],[23.4099,-32.3892],[23.4247,-32.3562],[23.449,-32.3233],[23.5236,-32.3288],[23.5918,-32.3408],[23.6651,-32.3442],[23.6784,-32.3291],[23.6489,-32.298],[23.6705,-32.2377],[23.6924,-32.2335],[23.7082,-32.2192],[23.7471,-32.2007],[23.7662,-32.1787],[23.7979,-32.1941],[23.8511,-32.2425],[23.8923,-32.2549],[23.921,-32.2334],[23.9354,-32.2319],[23.9611,-32.2065],[23.9845,-32.1964],[24.0305,-32.1935],[24.0441,-32.1819],[24.038,-32.1581],[24.1001,-32.164],[24.1129,-32.1509],[24.1022,-32.1488],[24.1176,-32.1352],[24.1304,-32.132],[24.1355,-32.1231],[24.1354,-32.0979],[24.1097,-32.0843],[24.0979,-32.1108],[24.0979,-32.0852],[24.1029,-32.0699],[24.1126,-32.07],[24.1119,-32.0616],[24.1233,-32.0559],[24.1348,-32.0602],[24.1411,-32.0514],[24.1286,-32.0413],[24.1409,-32.0117],[24.1745,-32.0199],[24.1749,-32.0126],[24.1894,-32.0122],[24.1878,-32.0082],[24.1937,-32.0048],[24.183,-31.9959],[24.2224,-31.9556],[24.188,-31.9336],[24.1972,-31.9235],[24.1642,-31.9024],[24.1466,-31.8968],[24.1468,-31.9027],[24.1386,-31.9054],[24.1054,-31.9069],[24.1048,-31.8868],[24.1236,-31.8472],[24.1533,-31.8549],[24.1548,-31.8225],[24.1797,-31.8194],[24.1837,-31.8133],[24.1543,-31.7983],[24.1474,-31.7673],[24.1616,-31.7401],[24.226,-31.7474],[24.2683,-31.7667],[24.2688,-31.7559],[24.285,-31.7652],[24.3153,-31.7501],[24.3224,-31.7418],[24.3247,-31.7241],[24.3407,-31.7138],[24.4233,-31.7116],[24.4126,-31.6885],[24.4413,-31.7126],[24.4699,-31.7065],[24.5063,-31.7068],[24.5104,-31.7542],[24.5507,-31.7612],[24.5776,-31.7385],[24.5772,-31.7306],[24.6165,-31.7262],[24.6223,-31.7063],[24.6416,-31.6904],[24.6279,-31.7123],[24.636,-31.7185],[24.6559,-31.7162],[24.6421,-31.7282],[24.6764,-31.7335],[24.7044,-31.7443],[24.6975,-31.7586],[24.6994,-31.7663],[24.7335,-31.7873],[24.7407,-31.7792],[24.7533,-31.782],[24.7538,-31.7916],[24.7719,-31.7928],[24.7629,-31.8057],[24.8019,-31.785],[24.8386,-31.8146],[24.8483,-31.8175],[24.8556,-31.8349],[24.874,-31.8403],[24.8959,-31.8334],[24.9048,-31.8693],[24.9167,-31.8644],[24.9246,-31.8801],[24.9199,-31.8846],[24.9323,-31.8917],[24.9439,-31.9283],[24.9232,-31.9437],[24.9344,-31.9713],[24.9437,-31.9799],[24.9507,-32.0073],[24.938,-32.0533],[24.9479,-32.0718],[24.9549,-32.0697],[24.9671,-32.1075],[24.9511,-32.1227],[24.954,-32.1403],[24.9376,-32.158],[24.9383,-32.1736],[24.9246,-32.1675],[24.9155,-32.1721],[24.9095,-32.1891],[24.904,-32.2219],[24.9224,-32.2398],[24.9496,-32.2412],[24.9802,-32.2589],[25.0033,-32.2504],[25.0185,-32.2546],[25.0241,-32.2643],[25.046,-32.2666],[25.0551,-32.2801],[25.0781,-32.2735],[25.1283,-32.2911],[25.1676,-32.3287],[25.1861,-32.3238],[25.2135,-32.3367],[25.2145,-32.3468],[25.2328,-32.3386],[25.2786,-32.3456],[25.3096,-32.3133],[25.3634,-32.3067],[25.3583,-32.3235],[25.3602,-32.3408],[25.3829,-32.3467],[25.4077,-32.374],[25.4174,-32.3745],[25.3987,-32.413],[25.4203,-32.4234],[25.4287,-32.4187],[25.4946,-32.4127],[25.5127,-32.3984],[25.5341,-32.3945],[25.5481,-32.4104],[25.5744,-32.4578],[25.592,-32.4586],[25.6047,-32.4518],[25.6217,-32.4568],[25.6449,-32.4797],[25.6551,-32.5069],[25.6899,-32.4991],[25.699,-32.522],[25.7855,-32.5379],[25.7974,-32.4772],[25.834,-32.4905],[25.8584,-32.4919],[25.9343,-32.4761]]]}},{"type":"Feature","properties":{"admin_code":"ZA-EC-AMATHOLE","name":"Amathole","name_local":"Amathole"},"geometry":{"type":"Polygon","coordinates":[[[28.3649,-31.847],[28.3688,-31.8457],[28.3696,-31.835],[28.3851,-31.8374],[28.3861,-31.8436],[28.3787,-31.8532],[28.3824,-31.859],[28.4003,-31.8499],[28.4168,-31.8607],[28.4169,-31.8677],[28.4076,-31.8715],[28.4062,-31.8789],[28.4275,-31.8702],[28.426,-31.8884],[28.4424,-31.8971],[28.4403,-31.9086],[28.4445,-31.9179],[28.4606,-31.925],[28.4679,-31.912],[28.4746,-31.9095],[28.4784,-31.9169],[28.4676,-31.9248],[28.4718,-31.934],[28.494,-31.9349],[28.5041,-31.93],[28.5148,-31.9334],[28.5086,-31.954],[28.4806,-31.952],[28.4654,-31.97],[28.4733,-31.9745],[28.49,-31.9691],[28.5261,-31.9728],[28.5307,-31.9663],[28.5211,-31.9584],[28.5292,-31.9565],[28.5465,-31.9861],[28.5421,-31.9885],[28.5325,-31.9808],[28.5227,-31.9799],[28.5188,-31.9884],[28.5283,-31.9953],[28.5471,-31.9931],[28.558,-31.9793],[28.5795,-31.9988],[28.5882,-32.0005],[28.5911,-31.9895],[28.5789,-31.9718],[28.5874,-31.9676],[28.6126,-31.9852],[28.6105,-31.993],[28.6018,-31.9927],[28.6037,-31.9984],[28.6214,-31.9931],[28.6279,-31.9981],[28.6231,-32.0048],[28.6029,-32.0027],[28.5999,-32.012],[28.6139,-32.0196],[28.6313,-32.0182],[28.6437,-32.0244],[28.6785,-31.9982],[28.6713,-31.9949],[28.6621,-31.9986],[28.6577,-31.9937],[28.6777,-31.9793],[28.6629,-31.9787],[28.663,-31.9657],[28.6799,-31.9562],[28.6984,-31.9591],[28.7006,-31.9616],[28.6951,-31.9644],[28.6979,-31.9754],[28.6923,-31.9863],[28.7024,-31.9814],[28.7063,-31.9865],[28.6945,-31.9951],[28.7091,-31.9973],[28.7128,-32.0077],[28.734,-32.009],[28.7376,-32.0168],[28.7458,-32.0205],[28.7449,-32.0306],[28.7497,-32.0355],[28.7822,-32.046],[28.7901,-32.0434],[28.7881,-32.0355],[28.8015,-32.02],[28.7863,-32.0119],[28.8073,-32.015],[28.803,-32.0032],[28.8074,-31.9991],[28.8101,-32.0048],[28.8149,-32.0012],[28.8201,-32.006],[28.8246,-32.0002],[28.8284,-32.0108],[28.8302,-31.9973],[28.8408,-32.0015],[28.8395,-31.9975],[28.8281,-31.9953],[28.8335,-31.9931],[28.8337,-31.9865],[28.839,-31.9848],[28.8404,-31.9898],[28.8425,-31.9831],[28.8514,-31.9851],[28.8541,-31.9822],[28.8477,-31.9766],[28.8541,-31.9762],[28.8665,-31.9606],[28.8811,-31.9661],[28.8874,-31.9536],[28.9175,-31.9518],[28.9248,-31.944],[28.9413,-31.9525],[28.9423,-31.9601],[28.9507,-31.9605],[28.9496,-31.9651],[28.9559,-31.9648],[28.9595,-31.9795],[28.9638,-31.9784],[28.969,-31.9889],[28.9812,-31.9845],[29.0108,-32.0071],[29.0147,-32.0153],[29.0253,-32.0154],[29.0396,-32.0342],[29.0375,-32.0411],[29.0657,-32.0353],[29.0735,-32.043],[29.0677,-32.0488],[29.0842,-32.0459],[29.0855,-32.0521],[29.0941,-32.0534],[29.0868,-32.0667],[29.0889,-32.0803],[29.0778,-32.078],[29.0664,-32.0887],[29.0702,-32.0942],[29.0676,-32.0982],[29.0636,-32.0966],[29.0394,-32.1144],[29.0313,-32.1125],[29.0311,-32.1189],[29.021,-32.1208],[29.0078,-32.1383],[29.0113,-32.1404],[29.008,-32.1471],[28.9932,-32.1568],[28.9966,-32.1617],[28.9741,-32.1759],[28.9753,-32.1807],[28.9621,-32.1862],[28.9603,-32.1932],[28.9464,-32.2038],[28.9499,-32.2109],[28.943,-32.2187],[28.926,-32.2268],[28.9212,-32.2402],[28.8978,-32.2452],[28.897,-32.2571],[28.8825,-32.2731],[28.8849,-32.2804],[28.8651,-32.2876],[28.8554,-32.2984],[28.8317,-32.3055],[28.8237,-32.3179],[28.8159,-32.3203],[28.8156,-32.3292],[28.7849,-32.3427],[28.7726,-32.3606],[28.7512,-32.3743],[28.7444,-32.3964],[28.7252,-32.4011],[28.705,-32.4263],[28.6923,-32.4298],[28.685,-32.4364],[28.6856,-32.4414],[28.6594,-32.458],[28.6516,-32.4826],[28.6371,-32.4835],[28.6063,-32.4996],[28.6009,-32.5162],[28.5825,-32.5231],[28.5719,-32.5419],[28.5554,-32.552],[28.5516,-32.5726],[28.5276,-32.5816],[28.5228,-32.5933],[28.51,-32.6042],[28.4842,-32.6092],[28.4733,-32.6197],[28.4342,-32.6311],[28.417,-32.6566],[28.3745,-32.6904],[28.3736,-32.7049],[28.3643,-32.7095],[28.3439,-32.7079],[28.3176,-32.7246],[28.3079,-32.7255],[28.269,-32.7589],[28.1708,-32.7891],[28.1392,-32.8073],[28.117,-32.8311],[28.1213,-32.8518],[28.1092,-32.863],[28.0997,-32.8879],[28.0755,-32.9078],[28.0656,-32.9045],[28.0667,-32.8923],[28.0532,-32.8917],[28.0475,-32.8821],[28.0396,-32.8874],[28.0348,-32.8805],[28.0228,-32.8824],[28.0072,-32.8694],[28.0075,-32.8644],[27.9915,-32.8556],[28.01,-32.8401],[28.0116,-32.8257],[28.0068,-32.8171],[27.979,-32.8123],[27.9994,-32.7898],[27.9884,-32.7733],[27.9872,-32.7939],[27.9811,-32.7874],[27.9698,-32.7878],[27.9588,-32.7555],[27.9544,-32.7508],[27.9472,-32.7521],[27.9498,-32.74],[27.9054,-32.7583],[27.8999,-32.7565],[27.8969,-32.7658],[27.8858,-32.7741],[27.8829,-32.7855],[27.8644,-32.7863],[27.8645,-32.7942],[27.8566,-32.803],[27.8524,-32.7927],[27.8448,-32.794],[27.8471,-32.803],[27.8276,-32.8155],[27.8231,-32.7976],[27.8327,-32.7819],[27.8103,-32.781],[27.8152,-32.7611],[27.8041,-32.7642],[27.7946,-32.7461],[27.7894,-32.7535],[27.7831,-32.7487],[27.7873,-32.7598],[27.7818,-32.7578],[27.7793,-32.7663],[27.763,-32.7783],[27.7424,-32.7777],[27.7273,-32.7839],[27.7078,-32.7783],[27.7205,-32.7999],[27.7159,-32.8086],[27.6918,-32.8178],[27.674,-32.8345],[27.6671,-32.8284],[27.6613,-32.8322],[27.6653,-32.8363],[27.6566,-32.8376],[27.6565,-32.8413],[27.6519,-32.8397],[27.6552,-32.828],[27.6456,-32.8244],[27.6519,-32.8207],[27.6473,-32.8116],[27.6352,-32.8173],[27.6274,-32.8123],[27.6295,-32.8231],[27.6169,-32.8153],[27.6114,-32.8208],[27.6035,-32.8176],[27.6076,-32.81],[27.5925,-32.8076],[27.5869,-32.8131],[27.5706,-32.7966],[27.5577,-32.8017],[27.5364,-32.7926],[27.5192,-32.7466],[27.5538,-32.7252],[27.5153,-32.7159],[27.4933,-32.7436],[27.4899,-32.7595],[27.4767,-32.7611],[27.4751,-32.7727],[27.467,-32.7722],[27.4561,-32.7816],[27.4501,-32.8136],[27.4244,-32.8034],[27.4213,-32.796],[27.4161,-32.8007],[27.3854,-32.8014],[27.3862,-32.8139],[27.3932,-32.8137],[27.3945,-32.8184],[27.3858,-32.8255],[27.3735,-32.822],[27.3701,-32.8043],[27.3797,-32.7859],[27.3816,-32.7643],[27.3911,-32.7397],[27.4039,-32.7363],[27.3825,-32.7252],[27.3713,-32.6998],[27.3873,-32.6798],[27.3546,-32.6744],[27.2933,-32.6757],[27.2872,-32.6849],[27.2596,-32.6896],[27.2306,-32.7174],[27.2407,-32.7536],[27.2344,-32.7599],[27.2127,-32.7654],[27.219,-32.7835],[27.2154,-32.7926],[27.1889,-32.7974],[27.178,-32.8127],[27.1695,-32.8092],[27.1773,-32.8174],[27.1588,-32.8319],[27.1576,-32.8385],[27.2038,-32.8444],[27.2041,-32.8493],[27.2162,-32.8549],[27.2333,-32.8526],[27.2204,-32.8786],[27.2216,-32.8852],[27.2256,-32.8853],[27.2182,-32.8862],[27.2201,-32.8965],[27.2317,-32.896],[27.2359,-32.9206],[27.2677,-32.9211],[27.2707,-32.9279],[27.279,-32.9251],[27.2826,-32.9283],[27.2589,-32.9318],[27.2558,-32.9434],[27.2399,-32.9553],[27.2404,-32.9651],[27.2292,-32.9677],[27.2422,-32.9764],[27.2441,-32.9856],[27.2402,-32.9892],[27.2749,-32.9953],[27.2713,-32.998],[27.2747,-33.0045],[27.2785,-33.0112],[27.2897,-33.0157],[27.2907,-33.0231],[27.3114,-33.0182],[27.3148,-33.0137],[27.3099,-33.0061],[27.3248,-33.003],[27.3199,-32.9984],[27.3256,-32.9917],[27.318,-32.9713],[27.3433,-32.9629],[27.4014,-32.9775],[27.4179,-33.0058],[27.4399,-32.9898],[27.5039,-32.9952],[27.4997,-33.0078],[27.4788,-33.026],[27.4836,-33.0307],[27.4474,-33.0489],[27.4374,-33.0587],[27.4387,-33.0678],[27.4455,-33.072],[27.4421,-33.0895],[27.4256,-33.0904],[27.3951,-33.111],[27.3778,-33.1113],[27.3698,-33.1222],[27.374,-33.1273],[27.3631,-33.1271],[27.3595,-33.1327],[27.3693,-33.1512],[27.3875,-33.152],[27.3909,-33.1561],[27.3889,-33.162],[27.3784,-33.1654],[27.3772,-33.1843],[27.3947,-33.1847],[27.4058,-33.193],[27.4247,-33.193],[27.4323,-33.1999],[27.4335,-33.2099],[27.416,-33.2222],[27.4133,-33.2343],[27.4359,-33.2401],[27.4416,-33.2573],[27.4555,-33.2641],[27.4581,-33.2814],[27.4699,-33.2849],[27.4801,-33.272],[27.4918,-33.282],[27.4819,-33.2898],[27.4802,-33.2987],[27.4359,-33.3171],[27.4128,-33.3398],[27.3554,-33.3639],[27.3387,-33.379],[27.325,-33.3829],[27.2663,-33.4217],[27.2379,-33.4349],[27.2159,-33.4597],[27.1866,-33.4655],[27.1534,-33.4803],[27.1433,-33.4872],[27.1425,-33.4953],[27.1356,-33.4963],[27.0778,-33.4697],[27.0695,-33.4574],[27.0692,-33.4444],[27.0558,-33.4373],[27.0437,-33.4121],[27.0207,-33.3955],[27.0163,-33.3792],[27.006,-33.3684],[26.9853,-33.3562],[26.9836,-33.3427],[26.9986,-33.3307],[27.0026,-33.3202],[26.9985,-33.3155],[27.0033,-33.2951],[26.9891,-33.2721],[26.9693,-33.2678],[26.9691,-33.2645],[26.9726,-33.2568],[26.9814,-33.2538],[27.0039,-33.2635],[27.0088,-33.2521],[26.9867,-33.2334],[26.9669,-33.2381],[26.9591,-33.2352],[26.9625,-33.2281],[26.9792,-33.2208],[26.9571,-33.1918],[26.953,-33.1785],[26.96,-33.1729],[26.9443,-33.1655],[26.9243,-33.1652],[26.9215,-33.1689],[26.9257,-33.1866],[26.9211,-33.1914],[26.9279,-33.195],[26.9086,-33.2026],[26.8967,-33.1944],[26.899,-33.1819],[26.8906,-33.1763],[26.8962,-33.1713],[26.8817,-33.1699],[26.8765,-33.1719],[26.8803,-33.1762],[26.8794,-33.1898],[26.8728,-33.1931],[26.8726,-33.2032],[26.8571,-33.2077],[26.8425,-33.2042],[26.84,-33.1948],[26.8553,-33.1924],[26.8657,-33.1814],[26.8376,-33.1746],[26.8376,-33.1551],[26.8321,-33.155],[26.8204,-33.1297],[26.8244,-33.1239],[26.8346,-33.1214],[26.8436,-33.1317],[26.8527,-33.1261],[26.8586,-33.1006],[26.8772,-33.076],[26.8751,-33.057],[26.8669,-33.046],[26.8614,-33.0445],[26.8567,-33.0496],[26.8546,-33.0764],[26.8391,-33.0812],[26.8282,-33.0678],[26.8255,-33.0395],[26.813,-33.036],[26.7875,-33.0816],[26.7767,-33.0888],[26.7717,-33.0845],[26.7722,-33.0776],[26.7957,-33.0466],[26.7949,-33.0263],[26.8025,-33.0009],[26.7984,-32.9912],[26.784,-32.9953],[26.7843,-33.0266],[26.7785,-33.0352],[26.7506,-33.0298],[26.7365,-33.0556],[26.7237,-33.0529],[26.7143,-33.0404],[26.6906,-33.0564],[26.667,-33.0297],[26.6618,-33.03],[26.6524,-33.0482],[26.6365,-33.0488],[26.641,-33.0321],[26.6272,-33.0227],[26.6301,-33.0043],[26.624,-32.9973],[26.6156,-32.9979],[26.6062,-33.0104],[26.5857,-33.0167],[26.583,-33.0097],[26.5957,-32.9904],[26.5885,-32.9581],[26.5792,-32.9637],[26.5787,-32.9799],[26.5732,-32.9893],[26.5642,-32.991],[26.5421,-32.9789],[26.5207,-32.9923],[26.5158,-32.9859],[26.5236,-32.9618],[26.5184,-32.9468],[26.5123,-32.9425],[26.497,-32.9493],[26.4955,-32.9769],[26.485,-32.9818],[26.4722,-32.9725],[26.4682,-32.9512],[26.463,-32.9522],[26.4615,-32.9629],[26.454,-32.9642],[26.4419,-32.9447],[26.3881,-32.9734],[26.3627,-32.9635],[26.3586,-32.9345],[26.299,-32.9321],[26.2749,-32.937],[26.2851,-32.8992],[26.2748,-32.8806],[26.2629,-32.8797],[26.2608,-32.8908],[26.2426,-32.8816],[26.2361,-32.8712],[26.2194,-32.8782],[26.2257,-32.8577],[26.2103,-32.8633],[26.1992,-32.8502],[26.1933,-32.8665],[26.1832,-32.8693],[26.1867,-32.8583],[26.1804,-32.8446],[26.1759,-32.855],[26.1685,-32.8556],[26.1656,-32.8444],[26.189,-32.8122],[26.2457,-32.8152],[26.2404,-32.793],[26.2081,-32.7696],[26.2052,-32.7494],[26.1795,-32.7634],[26.1091,-32.7695],[26.1094,-32.765],[26.0951,-32.7643],[26.066,-32.7869],[26.049,-32.7808],[26.032,-32.764],[26.064,-32.6856],[26.0268,-32.6701],[26.0472,-32.6543],[26.0443,-32.6443],[26.0476,-32.6328],[26.0741,-32.6383],[26.1163,-32.6049],[26.1189,-32.5982],[26.1272,-32.5954],[26.1213,-32.5802],[26.0941,-32.5649],[26.0954,-32.5586],[26.0896,-32.5586],[26.0808,-32.5466],[26.0283,-32.54],[26.0266,-32.5466],[25.9766,-32.5459],[25.9593,-32.5521],[25.9398,-32.5387],[25.93,-32.4946],[25.9343,-32.4761],[25.8873,-32.4868],[25.9078,-32.4573],[25.8994,-32.4329],[25.9392,-32.4061],[25.9405,-32.3833],[25.9492,-32.3766],[25.9511,-32.364],[25.9712,-32.3548],[25.9962,-32.3545],[26.0326,-32.3266],[26.0475,-32.3229],[26.052,-32.3123],[26.0816,-32.3179],[26.1194,-32.2984],[26.1305,-32.2822],[26.1297,-32.275],[26.1413,-32.2717],[26.1913,-32.2852],[26.1893,-32.2897],[26.2025,-32.3313],[26.1865,-32.3688],[26.2351,-32.354],[26.3096,-32.376],[26.3467,-32.3678],[26.3709,-32.357],[26.4045,-32.3639],[26.4253,-32.3541],[26.4582,-32.3608],[26.4741,-32.3571],[26.498,-32.3595],[26.5156,-32.3546],[26.5337,-32.3602],[26.5392,-32.386],[26.5668,-32.4019],[26.5804,-32.3871],[26.5877,-32.3965],[26.6011,-32.3973],[26.6082,-32.4043],[26.6624,-32.4279],[26.6719,-32.4155],[26.7047,-32.4181],[26.7351,-32.3908],[26.729,-32.3632],[26.7209,-32.3596],[26.7118,-32.34],[26.7363,-32.3274],[26.743,-32.337],[26.7717,-32.3383],[26.7761,-32.3332],[26.7936,-32.34],[26.8073,-32.3335],[26.8114,-32.3361],[26.8139,-32.3306],[26.8306,-32.3237],[26.812,-32.3091],[26.8122,-32.2958],[26.8299,-32.2886],[26.8327,-32.2715],[26.8511,-32.2665],[26.8498,-32.2617],[26.8437,-32.2633],[26.8432,-32.2482],[26.8511,-32.2469],[26.8566,-32.2595],[26.8694,-32.2696],[26.893,-32.2716],[26.9002,-32.2514],[26.9251,-32.2388],[26.9595,-32.2052],[26.9654,-32.1916],[26.9795,-32.2064],[27.0109,-32.2225],[27.0493,-32.2197],[27.0513,-32.2354],[27.0916,-32.2209],[27.1244,-32.2287],[27.1199,-32.2389],[27.1607,-32.2385],[27.1643,-32.2308],[27.1806,-32.2331],[27.1844,-32.2528],[27.1984,-32.2494],[27.2059,-32.2661],[27.2436,-32.2819],[27.2742,-32.2698],[27.2925,-32.2893],[27.3025,-32.2885],[27.3042,-32.2953],[27.3197,-32.3006],[27.3242,-32.3154],[27.3331,-32.3125],[27.3365,-32.3206],[27.3478,-32.3117],[27.3706,-32.3401],[27.3662,-32.351],[27.3869,-32.3588],[27.411,-32.3549],[27.4138,-32.3384],[27.4316,-32.3563],[27.4411,-32.3588],[27.4519,-32.3486],[27.4413,-32.3344],[27.4609,-32.3343],[27.4747,-32.3263],[27.4921,-32.3066],[27.4855,-32.2793],[27.4925,-32.2648],[27.4858,-32.2526],[27.5079,-32.2307],[27.5142,-32.2376],[27.5274,-32.2348],[27.5206,-32.203],[27.5423,-32.1974],[27.562,-32.2078],[27.5634,-32.1936],[27.5716,-32.1902],[27.6007,-32.2135],[27.5936,-32.2383],[27.5991,-32.25],[27.631,-32.2503],[27.6344,-32.237],[27.6413,-32.2374],[27.648,-32.2615],[27.6452,-32.2828],[27.6617,-32.2793],[27.6834,-32.2659],[27.6865,-32.2747],[27.6742,-32.2888],[27.6734,-32.2984],[27.6846,-32.3046],[27.6922,-32.2988],[27.6961,-32.2667],[27.7025,-32.2653],[27.7167,-32.2794],[27.7015,-32.2913],[27.7073,-32.3016],[27.7053,-32.3242],[27.7086,-32.3286],[27.7234,-32.3315],[27.7364,-32.3266],[27.7415,-32.3225],[27.7418,-32.3125],[27.7471,-32.3103],[27.7588,-32.332],[27.7692,-32.3283],[27.7679,-32.3189],[27.7826,-32.3124],[27.7753,-32.306],[27.7649,-32.3085],[27.7682,-32.2992],[27.7642,-32.2796],[27.7865,-32.2731],[27.7695,-32.2706],[27.7643,-32.2656],[27.7648,-32.259],[27.7803,-32.2537],[27.7859,-32.2463],[27.7589,-32.2227],[27.7589,-32.2123],[27.7789,-32.2157],[27.7848,-32.225],[27.7966,-32.2272],[27.7877,-32.2169],[27.7944,-32.2102],[27.7947,-32.2003],[27.8128,-32.183],[27.8005,-32.1634],[27.8185,-32.1635],[27.829,-32.1506],[27.8255,-32.1401],[27.8165,-32.1472],[27.7924,-32.1329],[27.7788,-32.1334],[27.7848,-32.1214],[27.7747,-32.1051],[27.7923,-32.1012],[27.788,-32.0949],[27.7923,-32.0894],[27.7824,-32.082],[27.8093,-32.0794],[27.8153,-32.0894],[27.8331,-32.0932],[27.8413,-32.1114],[27.8289,-32.1182],[27.8544,-32.1308],[27.8876,-32.1277],[27.8957,-32.1231],[27.8638,-32.0772],[27.8809,-32.072],[27.8869,-32.0584],[27.8765,-32.0564],[27.8835,-32.05],[27.8891,-32.0498],[27.908,-32.0661],[27.9502,-32.0819],[27.9665,-32.0627],[27.9997,-32.0405],[28.0108,-32.0357],[28.0188,-32.0432],[28.0464,-32.0408],[28.0659,-32.0162],[28.1251,-31.9969],[28.1414,-31.9826],[28.1789,-31.9675],[28.1792,-31.9586],[28.1695,-31.9534],[28.1699,-31.948],[28.1851,-31.9564],[28.1832,-31.9662],[28.1922,-31.9606],[28.1943,-31.9677],[28.2089,-31.9457],[28.2096,-31.9283],[28.2202,-31.9133],[28.2173,-31.9094],[28.2221,-31.896],[28.2362,-31.8694],[28.2268,-31.8672],[28.2249,-31.8589],[28.2294,-31.8553],[28.2404,-31.8614],[28.2356,-31.8559],[28.2395,-31.8539],[28.235,-31.8372],[28.2489,-31.8077],[28.2489,-31.7965],[28.2707,-31.7871],[28.2662,-31.8012],[28.2793,-31.8006],[28.2808,-31.8176],[28.2852,-31.8067],[28.2909,-31.8075],[28.2951,-31.8196],[28.3072,-31.8313],[28.3019,-31.8403],[28.3107,-31.8481],[28.3165,-31.8403],[28.3276,-31.8377],[28.3274,-31.8282],[28.352,-31.8286],[28.3649,-31.847]]]}},{"type":"Feature","properties":{"admin_code":"ZA-EC-CHRIS_HANI","name":"Chris Hani","name_local":"Chris Hani"},"geometry":{"type":"Polygon","coordinates":[[[28.3274,-31.8282],[28.3276,-31.8377],[28.3165,-31.8403],[28.3107,-31.8481],[28.3019,-31.8403],[28.3072,-31.8313],[28.2951,-31.8196],[28.2909,-31.8075],[28.2852,-31.8067],[28.2808,-31.8176],[28.2793,-31.8006],[28.2662,-31.8012],[28.2707,-31.7871],[28.2489,-31.7965],[28.2489,-31.8077],[28.235,-31.8372],[28.2395,-31.8539],[28.2356,-31.8559],[28.2404,-31.8614],[28.2294,-31.8553],[28.2249,-31.8589],[28.2268,-31.8672],[28.2362,-31.8694],[28.2221,-31.896],[28.2173,-31.9094],[28.2202,-31.9133],[28.2096,-31.9283],[28.2089,-31.9457],[28.1943,-31.9677],[28.1922,-31.9606],[28.1832,-31.9662],[28.1851,-31.9564],[28.1699,-31.948],[28.1695,-31.9534],[28.1792,-31.9586],[28.1789,-31.9675],[28.1414,-31.9826],[28.1251,-31.9969],[28.0659,-32.0162],[28.0464,-32.0408],[28.0188,-32.0432],[28.0108,-32.0357],[27.9997,-32.0405],[27.9665,-32.0627],[27.9502,-32.0819],[27.908,-32.0661],[27.8891,-32.0498],[27.8835,-32.05],[27.8765,-32.0564],[27.8869,-32.0584],[27.8809,-32.072],[27.8638,-32.0772],[27.8957,-32.1231],[27.8876,-32.1277],[27.8544,-32.1308],[27.8289,-32.1182],[27.8413,-32.1114],[27.8331,-32.0932],[27.8153,-32.0894],[27.8093,-32.0794],[27.7824,-32.082],[27.7923,-32.0894],[27.788,-32.0949],[27.7923,-32.1012],[27.7747,-32.1051],[27.7848,-32.1214],[27.7788,-32.1334],[27.7924,-32.1329],[27.8165,-32.1472],[27.8255,-32.1401],[27.829,-32.1506],[27.8185,-32.1635],[27.8005,-32.1634],[27.8128,-32.183],[27.7947,-32.2003],[27.7944,-32.2102],[27.7877,-32.2169],[27.7966,-32.2272],[27.7848,-32.225],[27.7789,-32.2157],[27.7589,-32.2123],[27.7589,-32.2227],[27.7859,-32.2463],[27.7803,-32.2537],[27.7648,-32.259],[27.7643,-32.2656],[27.7695,-32.2706],[27.7865,-32.2731],[27.7642,-32.2796],[27.7682,-32.2992],[27.7649,-32.3085],[27.7753,-32.306],[27.7826,-32.3124],[27.7679,-32.3189],[27.7692,-32.3283],[27.7588,-32.332],[27.7471,-32.3103],[27.7418,-32.3125],[27.7415,-32.3225],[27.7364,-32.3266],[27.7234,-32.3315],[27.7086,-32.3286],[27.7053,-32.3242],[27.7073,-32.3016],[27.7015,-32.2913],[27.7167,-32.2794],[27.7025,-32.2653],[27.6961,-32.2667],[27.6922,-32.2988],[27.6846,-32.3046],[27.6734,-32.2984],[27.6742,-32.2888],[27.6865,-32.2747],[27.6834,-32.2659],[27.6617,-32.2793],[27.6452,-32.2828],[27.648,-32.2615],[27.6413,-32.2374],[27.6344,-32.237],[27.631,-32.2503],[27.5991,-32.25],[27.5936,-32.2383],[27.6007,-32.2135],[27.5716,-32.1902],[27.5634,-32.1936],[27.562,-32.2078],[27.5423,-32.1974],[27.5206,-32.203],[27.5274,-32.2348],[27.5142,-32.2376],[27.5079,-32.2307],[27.4858,-32.2526],[27.4925,-32.2648],[27.4855,-32.2793],[27.4921,-32.3066],[27.4747,-32.3263],[27.4609,-32.3343],[27.4413,-32.3344],[27.4519,-32.3486],[27.4411,-32.3588],[27.4316,-32.3563],[27.4138,-32.3384],[27.411,-32.3549],[27.3869,-32.3588],[27.3662,-32.351],[27.3706,-32.3401],[27.3478,-32.3117],[27.3365,-32.3206],[27.3331,-32.3125],[27.3242,-32.3154],[27.3197,-32.3006],[27.3042,-32.2953],[27.3025,-32.2885],[27.2925,-32.2893],[27.2742,-32.2698],[27.2436,-32.2819],[27.2059,-32.2661],[27.1984,-32.2494],[27.1844,-32.2528],[27.1806,-32.2331],[27.1643,-32.2308],[27.1607,-32.2385],[27.1199,-32.2389],[27.1244,-32.2287],[27.0916,-32.2209],[27.0513,-32.2354],[27.0493,-32.2197],[27.0109,-32.2225],[26.9795,-32.2064],[26.9654,-32.1916],[26.9595,-32.2052],[26.9251,-32.2388],[26.9002,-32.2514],[26.893,-32.2716],[26.8694,-32.2696],[26.8566,-32.2595],[26.8511,-32.2469],[26.8432,-32.2482],[26.8437,-32.2633],[26.8498,-32.2617],[26.8511,-32.2665],[26.8327,-32.2715],[26.8299,-32.2886],[26.8122,-32.2958],[26.812,-32.3091],[26.8306,-32.3237],[26.8139,-32.3306],[26.8114,-32.3361],[26.8073,-32.3335],[26.7936,-32.34],[26.7761,-32.3332],[26.7717,-32.3383],[26.743,-32.337],[26.7363,-32.3274],[26.7118,-32.34],[26.7209,-32.3596],[26.729,-32.3632],[26.7351,-32.3908],[26.7323,-32.3971],[26.7047,-32.4181],[26.6719,-32.4155],[26.6624,-32.4279],[26.6082,-32.4043],[26.6011,-32.3973],[26.5877,-32.3965],[26.5804,-32.3871],[26.5668,-32.4019],[26.5392,-32.386],[26.5337,-32.3602],[26.5156,-32.3546],[26.498,-32.3595],[26.4741,-32.3571],[26.4582,-32.3608],[26.4253,-32.3541],[26.4045,-32.3639],[26.3709,-32.357],[26.3467,-32.3678],[26.3096,-32.376],[26.2351,-32.354],[26.1865,-32.3688],[26.2025,-32.3313],[26.1893,-32.2897],[26.1913,-32.2852],[26.1413,-32.2717],[26.1297,-32.275],[26.1305,-32.2822],[26.1194,-32.2984],[26.0816,-32.3179],[26.052,-32.3123],[26.0475,-32.3229],[26.0326,-32.3266],[25.9962,-32.3545],[25.9712,-32.3548],[25.9511,-32.364],[25.9492,-32.3766],[25.9405,-32.3833],[25.9392,-32.4061],[25.8994,-32.4329],[25.9078,-32.4573],[25.8873,-32.4868],[25.8584,-32.4919],[25.834,-32.4905],[25.7974,-32.4772],[25.7855,-32.5379],[25.699,-32.522],[25.6899,-32.4991],[25.6551,-32.5069],[25.6449,-32.4797],[25.6217,-32.4568],[25.6047,-32.4518],[25.592,-32.4586],[25.5744,-32.4578],[25.5481,-32.4104],[25.5341,-32.3945],[25.5127,-32.3984],[25.4946,-32.4127],[25.4287,-32.4187],[25.4203,-32.4234],[25.3987,-32.413],[25.4174,-32.3745],[25.4077,-32.374],[25.3829,-32.3467],[25.3602,-32.3408],[25.3583,-32.3235],[25.3634,-32.3067],[25.3096,-32.3133],[25.2786,-32.3456],[25.2328,-32.3386],[25.2145,-32.3468],[25.2135,-32.3367],[25.1861,-32.3238],[25.1676,-32.3287],[25.1283,-32.2911],[25.0781,-32.2735],[25.0551,-32.2801],[25.046,-32.2666],[25.0241,-32.2643],[25.0185,-32.2546],[25.0033,-32.2504],[24.9802,-32.2589],[24.9496,-32.2412],[24.9224,-32.2398],[24.904,-32.2219],[24.9095,-32.1891],[24.9155,-32.1721],[24.9246,-32.1675],[24.9383,-32.1736],[24.9376,-32.158],[24.954,-32.1403],[24.9511,-32.1227],[24.9671,-32.1075],[24.9549,-32.0697],[24.9479,-32.0718],[24.938,-32.0533],[24.9507,-32.0073],[24.9437,-31.9799],[24.9344,-31.9713],[24.9232,-31.9437],[24.9439,-31.9283],[24.9323,-31.8917],[24.9199,-31.8846],[24.9246,-31.8801],[24.9167,-31.8644],[24.9048,-31.8693],[24.8959,-31.8334],[24.874,-31.8403],[24.8556,-31.8349],[24.8483,-31.8175],[24.8386,-31.8146],[24.8019,-31.785],[24.7629,-31.8057],[24.7719,-31.7928],[24.7538,-31.7916],[24.7533,-31.782],[24.7407,-31.7792],[24.7335,-31.7873],[24.7276,-31.7842],[24.7189,-31.7751],[24.6994,-31.7663],[24.6975,-31.7586],[24.7044,-31.7443],[24.6764,-31.7335],[24.6421,-31.7282],[24.6559,-31.7162],[24.636,-31.7185],[24.6279,-31.7123],[24.6416,-31.6904],[24.6223,-31.7063],[24.6165,-31.7262],[24.5772,-31.7306],[24.5776,-31.7385],[24.5507,-31.7612],[24.5104,-31.7542],[24.5063,-31.7068],[24.5141,-31.705],[24.523,-31.6037],[24.5039,-31.5684],[24.5246,-31.5454],[24.533,-31.5098],[24.5194,-31.4979],[24.5589,-31.4818],[24.5672,-31.4186],[24.5961,-31.3992],[24.665,-31.3837],[24.7048,-31.4006],[24.7106,-31.4095],[24.7243,-31.3999],[24.7887,-31.3895],[24.8255,-31.3565],[24.8629,-31.3736],[24.853,-31.3282],[24.8988,-31.3137],[24.9003,-31.3167],[24.9234,-31.3135],[24.9336,-31.3204],[24.942,-31.3151],[24.9487,-31.2984],[24.9605,-31.2855],[25.0056,-31.2631],[25.0585,-31.2694],[25.0735,-31.2533],[25.0844,-31.2623],[25.1008,-31.2595],[25.1307,-31.2394],[25.1527,-31.2431],[25.1552,-31.2312],[25.1705,-31.2392],[25.1771,-31.2346],[25.1791,-31.2222],[25.1924,-31.2134],[25.2048,-31.2151],[25.2096,-31.2047],[25.2044,-31.2017],[25.211,-31.1921],[25.2197,-31.1904],[25.2693,-31.2144],[25.2682,-31.2208],[25.2849,-31.2234],[25.2906,-31.2135],[25.3544,-31.236],[25.3988,-31.211],[25.4398,-31.2307],[25.4326,-31.2361],[25.4484,-31.2562],[25.4646,-31.2565],[25.4749,-31.2492],[25.4708,-31.245],[25.4794,-31.2373],[25.4972,-31.2346],[25.4941,-31.2431],[25.5207,-31.2682],[25.5575,-31.278],[25.5155,-31.3168],[25.4974,-31.3203],[25.4744,-31.3133],[25.4436,-31.3343],[25.4635,-31.352],[25.5121,-31.346],[25.5645,-31.3585],[25.583,-31.3449],[25.5917,-31.4189],[25.582,-31.4409],[25.5893,-31.4853],[25.617,-31.4739],[25.6347,-31.48],[25.6327,-31.4741],[25.6484,-31.4649],[25.6513,-31.4488],[25.6657,-31.461],[25.6917,-31.4581],[25.7061,-31.4751],[25.7234,-31.4731],[25.7332,-31.4551],[25.7687,-31.4441],[25.8139,-31.4622],[25.8124,-31.4671],[25.8152,-31.4628],[25.823,-31.4659],[25.8566,-31.4537],[25.9205,-31.4722],[25.9231,-31.4675],[25.966,-31.4768],[25.9913,-31.4354],[25.9877,-31.4237],[26.0015,-31.4104],[26.0055,-31.3819],[25.9992,-31.3349],[26.0142,-31.3267],[26.0332,-31.3322],[26.1218,-31.2937],[26.1346,-31.2515],[26.1615,-31.2663],[26.2034,-31.2772],[26.237,-31.2243],[26.2989,-31.2168],[26.2975,-31.2332],[26.3361,-31.2494],[26.3479,-31.2164],[26.3582,-31.2223],[26.362,-31.2163],[26.3563,-31.2096],[26.3586,-31.1965],[26.368,-31.192],[26.371,-31.1837],[26.3793,-31.1883],[26.4263,-31.1847],[26.4127,-31.2066],[26.4271,-31.223],[26.532,-31.2078],[26.5287,-31.2263],[26.5538,-31.2326],[26.558,-31.2385],[26.5773,-31.2197],[26.6287,-31.2294],[26.6892,-31.1917],[26.6894,-31.1971],[26.7039,-31.2122],[26.7087,-31.2771],[26.6667,-31.3214],[26.6714,-31.3534],[26.6637,-31.3726],[26.6127,-31.372],[26.6296,-31.4056],[26.6333,-31.4552],[26.6798,-31.4386],[26.6991,-31.4517],[26.7302,-31.4462],[26.7432,-31.4173],[26.8052,-31.4331],[26.8469,-31.4359],[26.8558,-31.4121],[26.8845,-31.3981],[26.8823,-31.378],[26.9346,-31.344],[26.9612,-31.3611],[26.9778,-31.3408],[27.0171,-31.361],[27.0475,-31.3445],[27.0676,-31.3614],[27.0635,-31.3726],[27.0866,-31.3975],[27.0996,-31.3939],[27.1168,-31.421],[27.1308,-31.4266],[27.1752,-31.3678],[27.276,-31.3398],[27.2814,-31.3807],[27.2962,-31.375],[27.2908,-31.3562],[27.2979,-31.3553],[27.3038,-31.3463],[27.3225,-31.3792],[27.334,-31.3823],[27.3363,-31.3754],[27.3446,-31.3803],[27.3626,-31.4223],[27.3859,-31.4155],[27.4085,-31.4185],[27.443,-31.3774],[27.4567,-31.301],[27.4339,-31.2795],[27.4513,-31.2572],[27.4907,-31.2526],[27.526,-31.2271],[27.5515,-31.2303],[27.5696,-31.2091],[27.6052,-31.212],[27.6241,-31.224],[27.6803,-31.2279],[27.7101,-31.2168],[27.7063,-31.2301],[27.7365,-31.235],[27.7483,-31.221],[27.7529,-31.2213],[27.76,-31.2036],[27.7858,-31.203],[27.8081,-31.2148],[27.815,-31.2076],[27.8718,-31.2033],[27.9038,-31.2272],[27.9061,-31.2482],[27.9313,-31.234],[27.9886,-31.2404],[27.9965,-31.2563],[28.0164,-31.2589],[28.0384,-31.2812],[28.0506,-31.2873],[28.0644,-31.3089],[28.0808,-31.3238],[28.1014,-31.314],[28.1111,-31.2926],[28.1212,-31.3001],[28.1466,-31.3004],[28.1428,-31.3124],[28.1668,-31.3103],[28.173,-31.3041],[28.1976,-31.3159],[28.2162,-31.3128],[28.2295,-31.3301],[28.2538,-31.334],[28.2514,-31.3565],[28.281,-31.3901],[28.2938,-31.4167],[28.3222,-31.4285],[28.3312,-31.4475],[28.3529,-31.4614],[28.3656,-31.4639],[28.3813,-31.48],[28.3759,-31.4801],[28.3634,-31.5022],[28.3733,-31.5239],[28.3692,-31.538],[28.3742,-31.5377],[28.3811,-31.558],[28.3633,-31.5777],[28.3543,-31.5732],[28.3394,-31.5786],[28.3339,-31.5871],[28.3215,-31.5899],[28.309,-31.6246],[28.3228,-31.6354],[28.3135,-31.6404],[28.317,-31.6445],[28.3129,-31.6502],[28.302,-31.652],[28.3103,-31.6572],[28.3206,-31.6559],[28.3195,-31.6622],[28.31,-31.6638],[28.3134,-31.6716],[28.3045,-31.6757],[28.3112,-31.6882],[28.3295,-31.6946],[28.3291,-31.707],[28.344,-31.7155],[28.3352,-31.73],[28.3453,-31.7353],[28.3452,-31.7433],[28.3581,-31.7466],[28.3413,-31.7504],[28.3378,-31.7555],[28.3501,-31.7652],[28.3474,-31.7788],[28.3529,-31.7838],[28.3358,-31.7894],[28.3266,-31.7843],[28.3239,-31.7908],[28.3511,-31.8105],[28.3394,-31.819],[28.352,-31.8286],[28.3274,-31.8282]]]}},{"type":"Feature","properties":{"admin_code":"ZA-EC-JOE_GQABI","name":"Joe Gqabi","name_local":"Joe Gqabi"},"geometry":{"type":"Polygon","coordinates":[[[28.2988,-30.3735],[28.3434,-30.3965],[28.3856,-30.4059],[28.3943,-30.4025],[28.4153,-30.4188],[28.4368,-30.4192],[28.4462,-30.4276],[28.4808,-30.4223],[28.5003,-30.4346],[28.508,-30.4467],[28.5108,-30.4601],[28.5062,-30.4694],[28.5272,-30.4665],[28.5331,-30.4701],[28.5402,-30.4516],[28.5751,-30.4369],[28.5878,-30.454],[28.601,-30.4574],[28.6071,-30.4661],[28.6139,-30.4619],[28.616,-30.4722],[28.6243,-30.4709],[28.6285,-30.4775],[28.62,-30.4859],[28.6085,-30.4902],[28.6243,-30.4763],[28.6085,-30.4774],[28.588,-30.4873],[28.5964,-30.4928],[28.5698,-30.4963],[28.5648,-30.5104],[28.5759,-30.516],[28.5733,-30.5224],[28.5607,-30.5183],[28.5494,-30.541],[28.5441,-30.541],[28.547,-30.5487],[28.5358,-30.5515],[28.5249,-30.5482],[28.5136,-30.5672],[28.5406,-30.589],[28.5425,-30.6021],[28.5524,-30.6188],[28.5607,-30.6214],[28.5558,-30.629],[28.5602,-30.6413],[28.556,-30.652],[28.5665,-30.6601],[28.542,-30.6649],[28.5546,-30.6818],[28.5499,-30.6924],[28.5631,-30.7014],[28.5601,-30.7088],[28.5902,-30.7117],[28.6025,-30.7285],[28.5975,-30.7343],[28.6067,-30.737],[28.6126,-30.7484],[28.6077,-30.7551],[28.6274,-30.7549],[28.641,-30.768],[28.6411,-30.7729],[28.6246,-30.7795],[28.6243,-30.7854],[28.6044,-30.8051],[28.6262,-30.8054],[28.6309,-30.8106],[28.6206,-30.8158],[28.6381,-30.8291],[28.6443,-30.8408],[28.6292,-30.8476],[28.6371,-30.8568],[28.6346,-30.8645],[28.648,-30.8804],[28.6522,-30.914],[28.6624,-30.9263],[28.6386,-30.9209],[28.5817,-30.9305],[28.5771,-30.9349],[28.5801,-30.9397],[28.5755,-30.9518],[28.5873,-30.9668],[28.5747,-30.9959],[28.5534,-30.9922],[28.5502,-30.9952],[28.5486,-31.01],[28.5604,-31.0158],[28.5499,-31.0204],[28.5417,-31.036],[28.5253,-31.0488],[28.538,-31.0552],[28.5205,-31.0486],[28.5053,-31.0494],[28.4937,-31.0314],[28.4907,-31.0399],[28.496,-31.0578],[28.5187,-31.07],[28.5204,-31.0774],[28.5129,-31.084],[28.5211,-31.0863],[28.5233,-31.1021],[28.514,-31.1088],[28.5184,-31.1125],[28.5361,-31.1065],[28.5357,-31.0937],[28.5396,-31.0904],[28.5518,-31.0904],[28.5601,-31.0846],[28.5612,-31.1046],[28.5782,-31.1058],[28.5804,-31.1029],[28.5738,-31.1008],[28.5762,-31.0981],[28.5921,-31.1066],[28.6016,-31.0882],[28.6116,-31.0968],[28.6065,-31.0998],[28.6083,-31.1028],[28.6236,-31.0975],[28.6356,-31.1045],[28.6421,-31.0994],[28.6545,-31.106],[28.6536,-31.1139],[28.6706,-31.12],[28.6773,-31.1146],[28.6952,-31.1205],[28.6981,-31.1281],[28.6929,-31.1334],[28.6755,-31.135],[28.6711,-31.1632],[28.6661,-31.1667],[28.6681,-31.1698],[28.6769,-31.1681],[28.6776,-31.1633],[28.6872,-31.165],[28.6823,-31.1793],[28.6934,-31.1966],[28.6787,-31.1997],[28.6708,-31.1845],[28.6535,-31.1945],[28.6552,-31.2013],[28.6467,-31.209],[28.6302,-31.2211],[28.6222,-31.2211],[28.6275,-31.2274],[28.6204,-31.2369],[28.6128,-31.2291],[28.6095,-31.2373],[28.5978,-31.2394],[28.5831,-31.2319],[28.5826,-31.2409],[28.5729,-31.2417],[28.569,-31.2342],[28.5552,-31.2318],[28.5601,-31.2389],[28.546,-31.236],[28.5401,-31.2455],[28.5318,-31.2433],[28.5293,-31.2488],[28.5141,-31.2437],[28.5107,-31.2504],[28.4955,-31.2508],[28.4862,-31.2659],[28.479,-31.2673],[28.4804,-31.2714],[28.4739,-31.2699],[28.4653,-31.2804],[28.466,-31.2988],[28.4519,-31.3035],[28.4597,-31.3167],[28.4704,-31.3236],[28.4951,-31.3263],[28.4993,-31.3326],[28.4991,-31.3485],[28.4839,-31.3743],[28.4651,-31.3811],[28.4625,-31.3874],[28.444,-31.3865],[28.4446,-31.3974],[28.4291,-31.4028],[28.4255,-31.4212],[28.4071,-31.428],[28.3986,-31.4679],[28.3896,-31.4777],[28.3813,-31.48],[28.3656,-31.4639],[28.3529,-31.4614],[28.3312,-31.4475],[28.3222,-31.4285],[28.2938,-31.4167],[28.281,-31.3901],[28.2514,-31.3565],[28.2538,-31.334],[28.2295,-31.3301],[28.2162,-31.3128],[28.1976,-31.3159],[28.173,-31.3041],[28.1668,-31.3103],[28.1428,-31.3124],[28.1466,-31.3004],[28.1212,-31.3001],[28.1111,-31.2926],[28.1014,-31.314],[28.0808,-31.3238],[28.0644,-31.3089],[28.0506,-31.2873],[28.0384,-31.2812],[28.0164,-31.2589],[27.9965,-31.2563],[27.9886,-31.2404],[27.9313,-31.234],[27.9061,-31.2482],[27.9038,-31.2272],[27.8718,-31.2033],[27.815,-31.2076],[27.8081,-31.2148],[27.7858,-31.203],[27.76,-31.2036],[27.7529,-31.2213],[27.7483,-31.221],[27.7365,-31.235],[27.7063,-31.2301],[27.7101,-31.2168],[27.6803,-31.2279],[27.6241,-31.224],[27.6052,-31.212],[27.5696,-31.2091],[27.5515,-31.2303],[27.526,-31.2271],[27.4907,-31.2526],[27.4513,-31.2572],[27.4339,-31.2795],[27.4567,-31.301],[27.443,-31.3774],[27.4085,-31.4185],[27.3859,-31.4155],[27.3626,-31.4223],[27.3446,-31.3803],[27.3363,-31.3754],[27.334,-31.3823],[27.3225,-31.3792],[27.3038,-31.3463],[27.2979,-31.3553],[27.2908,-31.3562],[27.2962,-31.375],[27.2814,-31.3807],[27.276,-31.3398],[27.1752,-31.3678],[27.1308,-31.4266],[27.1168,-31.421],[27.0996,-31.3939],[27.0866,-31.3975],[27.0635,-31.3726],[27.0676,-31.3614],[27.0475,-31.3445],[27.0171,-31.361],[26.9778,-31.3408],[26.9612,-31.3611],[26.9346,-31.344],[26.8823,-31.378],[26.8845,-31.3981],[26.8558,-31.4121],[26.8469,-31.4359],[26.8052,-31.4331],[26.7432,-31.4173],[26.7302,-31.4462],[26.6991,-31.4517],[26.6798,-31.4386],[26.6333,-31.4552],[26.6296,-31.4056],[26.6127,-31.372],[26.6637,-31.3726],[26.6714,-31.3534],[26.6667,-31.3214],[26.7087,-31.2771],[26.7039,-31.2122],[26.6894,-31.1971],[26.6892,-31.1917],[26.6287,-31.2294],[26.5773,-31.2197],[26.558,-31.2385],[26.5538,-31.2326],[26.5287,-31.2263],[26.532,-31.2078],[26.4271,-31.223],[26.4127,-31.2066],[26.4263,-31.1847],[26.3793,-31.1883],[26.371,-31.1837],[26.368,-31.192],[26.3586,-31.1965],[26.3563,-31.2096],[26.362,-31.2163],[26.3582,-31.2223],[26.3479,-31.2164],[26.3361,-31.2494],[26.2975,-31.2332],[26.2989,-31.2168],[26.237,-31.2243],[26.2034,-31.2772],[26.1615,-31.2663],[26.1346,-31.2515],[26.1218,-31.2937],[26.0332,-31.3322],[26.0142,-31.3267],[25.9992,-31.3349],[26.0055,-31.3819],[26.0015,-31.4104],[25.9877,-31.4237],[25.9913,-31.4354],[25.966,-31.4768],[25.9231,-31.4675],[25.9205,-31.4722],[25.8566,-31.4537],[25.823,-31.4659],[25.8152,-31.4628],[25.8124,-31.4671],[25.8139,-31.4622],[25.7687,-31.4441],[25.7332,-31.4551],[25.7234,-31.4731],[25.7061,-31.4751],[25.6917,-31.4581],[25.6657,-31.461],[25.6513,-31.4488],[25.6484,-31.4649],[25.6327,-31.4741],[25.6347,-31.48],[25.617,-31.4739],[25.5893,-31.4853],[25.582,-31.4409],[25.5917,-31.4189],[25.583,-31.3449],[25.5645,-31.3585],[25.5121,-31.346],[25.4635,-31.352],[25.4436,-31.3343],[25.4744,-31.3133],[25.4974,-31.3203],[25.5155,-31.3168],[25.5575,-31.278],[25.5207,-31.2682],[25.4941,-31.2431],[25.4972,-31.2346],[25.4794,-31.2373],[25.4708,-31.245],[25.4749,-31.2492],[25.4646,-31.2565],[25.4484,-31.2562],[25.4326,-31.2361],[25.4398,-31.2307],[25.3988,-31.211],[25.3862,-31.2178],[25.3778,-31.1989],[25.3846,-31.151],[25.3982,-31.1307],[25.4156,-31.1344],[25.4464,-31.1002],[25.4543,-31.0793],[25.4388,-31.0615],[25.4532,-31.0542],[25.4638,-31.0547],[25.4868,-31.0369],[25.5016,-31.0074],[25.4848,-31.0063],[25.475,-30.9839],[25.5109,-30.9557],[25.5046,-30.933],[25.514,-30.9215],[25.5178,-30.9015],[25.4713,-30.8698],[25.4852,-30.8498],[25.5216,-30.8332],[25.5493,-30.791],[25.5249,-30.7964],[25.505,-30.7836],[25.4864,-30.7845],[25.4802,-30.7789],[25.4799,-30.7598],[25.4739,-30.7437],[25.4764,-30.7282],[25.4739,-30.7231],[25.4623,-30.7221],[25.4665,-30.7098],[25.4602,-30.6833],[25.4719,-30.6729],[25.4713,-30.6667],[25.4585,-30.6574],[25.4565,-30.637],[25.4671,-30.6242],[25.4682,-30.6326],[25.4746,-30.635],[25.5256,-30.6139],[25.5623,-30.6163],[25.5901,-30.5911],[25.5967,-30.5904],[25.6248,-30.6243],[25.6094,-30.6498],[25.6137,-30.656],[25.6417,-30.6577],[25.6755,-30.6401],[25.6853,-30.6471],[25.6797,-30.6662],[25.6932,-30.6761],[25.7166,-30.6825],[25.7498,-30.6825],[25.7642,-30.6885],[25.7769,-30.6816],[25.7808,-30.649],[25.793,-30.6371],[25.8467,-30.6336],[25.8606,-30.6129],[25.891,-30.6103],[25.892,-30.5968],[25.8718,-30.5622],[25.8856,-30.5438],[25.9032,-30.5432],[25.9238,-30.5643],[25.9268,-30.5713],[25.923,-30.5813],[25.931,-30.585],[25.9413,-30.5796],[25.9438,-30.5569],[25.977,-30.5382],[26.0295,-30.5321],[26.052,-30.5227],[26.0696,-30.5235],[26.0974,-30.5165],[26.1084,-30.5214],[26.1182,-30.5354],[26.1421,-30.5402],[26.1494,-30.5359],[26.1487,-30.5175],[26.1435,-30.5104],[26.1319,-30.5074],[26.1301,-30.5001],[26.1455,-30.4853],[26.1626,-30.4835],[26.1941,-30.5038],[26.1938,-30.528],[26.1973,-30.5316],[26.2186,-30.5316],[26.2631,-30.543],[26.2653,-30.5663],[26.2805,-30.5781],[26.2768,-30.5855],[26.2802,-30.5896],[26.291,-30.5918],[26.3164,-30.5825],[26.356,-30.595],[26.3719,-30.5818],[26.3897,-30.5815],[26.4016,-30.5716],[26.4179,-30.5663],[26.4491,-30.5693],[26.4894,-30.5938],[26.4807,-30.6213],[26.4834,-30.6296],[26.5042,-30.6318],[26.5579,-30.6641],[26.5755,-30.6667],[26.629,-30.6617],[26.6365,-30.6728],[26.6249,-30.6832],[26.6295,-30.6939],[26.6535,-30.6901],[26.6753,-30.6675],[26.6857,-30.686],[26.7031,-30.6869],[26.7257,-30.6664],[26.7516,-30.6662],[26.7761,-30.6484],[26.8053,-30.6394],[26.8141,-30.6427],[26.8388,-30.6694],[26.8443,-30.6826],[26.8636,-30.6841],[26.8761,-30.6781],[26.8787,-30.6596],[26.9031,-30.6689],[26.9346,-30.6651],[26.9488,-30.6586],[26.9493,-30.6529],[26.9293,-30.6245],[26.9479,-30.6076],[27.0005,-30.5946],[27.0138,-30.6064],[27.0337,-30.6007],[27.0426,-30.5876],[27.0415,-30.5815],[27.0265,-30.5786],[27.0178,-30.5613],[27.0004,-30.5534],[26.9981,-30.5487],[27.0057,-30.5373],[27.0427,-30.537],[27.0853,-30.5281],[27.0913,-30.5477],[27.1061,-30.5583],[27.1213,-30.5409],[27.138,-30.5322],[27.1272,-30.5153],[27.1305,-30.5101],[27.1697,-30.5123],[27.1864,-30.5246],[27.206,-30.5074],[27.2128,-30.487],[27.219,-30.4923],[27.2197,-30.5086],[27.2297,-30.5096],[27.2331,-30.4848],[27.2395,-30.4806],[27.2456,-30.4818],[27.2511,-30.5025],[27.2665,-30.5063],[27.2833,-30.5031],[27.2985,-30.5116],[27.2984,-30.4946],[27.3284,-30.4834],[27.3148,-30.469],[27.296,-30.4616],[27.2935,-30.4552],[27.3006,-30.4437],[27.311,-30.4411],[27.3396,-30.4506],[27.3687,-30.437],[27.3615,-30.4253],[27.3407,-30.431],[27.3242,-30.4232],[27.3236,-30.4177],[27.3346,-30.4121],[27.3389,-30.3983],[27.3769,-30.4088],[27.3832,-30.4013],[27.4035,-30.3924],[27.3967,-30.3611],[27.3834,-30.3583],[27.3787,-30.3745],[27.3721,-30.3746],[27.3629,-30.3552],[27.3664,-30.3387],[27.3534,-30.3359],[27.3489,-30.3324],[27.3511,-30.329],[27.3627,-30.3237],[27.3774,-30.3271],[27.3827,-30.3367],[27.3924,-30.3398],[27.4203,-30.3241],[27.4382,-30.3232],[27.4536,-30.3136],[27.4646,-30.314],[27.4758,-30.323],[27.4744,-30.355],[27.4883,-30.3629],[27.4894,-30.3734],[27.5021,-30.3718],[27.5007,-30.3781],[27.5069,-30.3876],[27.5334,-30.3841],[27.5388,-30.3931],[27.5531,-30.4012],[27.5714,-30.4286],[27.5644,-30.4345],[27.5673,-30.4448],[27.5874,-30.4499],[27.6037,-30.448],[27.5976,-30.4573],[27.6038,-30.4585],[27.615,-30.4777],[27.6151,-30.4882],[27.6071,-30.4919],[27.6097,-30.4956],[27.6199,-30.4937],[27.6246,-30.507],[27.6459,-30.5197],[27.6573,-30.5192],[27.6726,-30.5354],[27.6904,-30.5408],[27.6973,-30.553],[27.6943,-30.5587],[27.7164,-30.5686],[27.7419,-30.6039],[27.7955,-30.6191],[27.8304,-30.6137],[27.8812,-30.6137],[27.8896,-30.6052],[27.8985,-30.6072],[27.9155,-30.6013],[27.9224,-30.6092],[27.9202,-30.622],[27.933,-30.6275],[27.9405,-30.6441],[27.9775,-30.655],[27.9917,-30.6509],[28.0037,-30.659],[28.0846,-30.654],[28.1136,-30.6756],[28.1238,-30.6592],[28.1163,-30.6348],[28.1188,-30.6227],[28.1106,-30.6087],[28.1132,-30.5999],[28.1512,-30.584],[28.1536,-30.5758],[28.1604,-30.5725],[28.1635,-30.5567],[28.157,-30.544],[28.1684,-30.528],[28.1771,-30.5253],[28.1723,-30.5088],[28.1808,-30.5012],[28.1797,-30.4913],[28.1549,-30.4712],[28.1564,-30.4655],[28.1861,-30.4352],[28.1977,-30.433],[28.2063,-30.4372],[28.2154,-30.4306],[28.2283,-30.4305],[28.2392,-30.4131],[28.257,-30.4186],[28.2531,-30.4045],[28.2586,-30.4023],[28.2688,-30.3737],[28.2988,-30.3735]]]}},{"type":"Feature","properties":{"admin_code":"ZA-EC-OR_TAMBO","name":"OR Tambo","name_local":"OR Tambo"},"geometry":{"type":"Polygon","coordinates":[[[28.6483,-30.7767],[28.6538,-30.7919],[28.6619,-30.7908],[28.6609,-30.7945],[28.6494,-30.7955],[28.6586,-30.8009],[28.6509,-30.8056],[28.6653,-30.8119],[28.6669,-30.8184],[28.6861,-30.8169],[28.6856,-30.824],[28.6768,-30.8305],[28.68,-30.8356],[28.6897,-30.8376],[28.6929,-30.8296],[28.7293,-30.8432],[28.7264,-30.8537],[28.7373,-30.8565],[28.7408,-30.8699],[28.7487,-30.8625],[28.7575,-30.8651],[28.7616,-30.8804],[28.7583,-30.8898],[28.7649,-30.8891],[28.7689,-30.8805],[28.7767,-30.8838],[28.7885,-30.8811],[28.8022,-30.8927],[28.7904,-30.8955],[28.7918,-30.904],[28.8022,-30.9059],[28.8018,-30.9121],[28.8127,-30.9137],[28.8104,-30.9203],[28.8207,-30.9255],[28.8128,-30.938],[28.8135,-30.9452],[28.8072,-30.9494],[28.8088,-30.9542],[28.823,-30.9545],[28.8315,-30.9647],[28.8278,-30.9485],[28.835,-30.9469],[28.8348,-30.9422],[28.867,-30.9499],[28.8635,-30.9622],[28.8688,-30.9644],[28.8676,-30.968],[28.8504,-30.9647],[28.8483,-30.9697],[28.8611,-30.9903],[28.8691,-30.9903],[28.8744,-31.0031],[28.8702,-31.0126],[28.8879,-31.0368],[28.8722,-31.0337],[28.8754,-31.0493],[28.8611,-31.0415],[28.8514,-31.0533],[28.8694,-31.0531],[28.9057,-31.0777],[28.9196,-31.0657],[28.9083,-31.0576],[28.9193,-31.0538],[28.9255,-31.0537],[28.932,-31.0667],[28.9301,-31.0728],[28.9344,-31.072],[28.9418,-31.0602],[28.9328,-31.0533],[28.9472,-31.0434],[28.9512,-31.0546],[28.9595,-31.0592],[28.9521,-31.071],[28.9561,-31.0729],[28.963,-31.0621],[28.9772,-31.06],[28.9826,-31.054],[28.9776,-31.0413],[28.984,-31.0369],[28.9789,-31.025],[28.9957,-31.0273],[29.0029,-31.0185],[29.0144,-31.02],[29.0133,-31.0062],[29.0182,-31.0024],[29.0419,-31.0093],[29.0453,-31.0204],[29.0648,-31.0376],[29.0617,-31.0431],[29.0691,-31.0527],[29.0945,-31.067],[29.1034,-31.0802],[29.1216,-31.0829],[29.1323,-31.0914],[29.1353,-31.1203],[29.1424,-31.139],[29.1351,-31.1526],[29.1488,-31.1551],[29.1694,-31.1676],[29.1999,-31.1659],[29.2074,-31.1722],[29.2039,-31.1842],[29.1883,-31.1904],[29.1876,-31.2034],[29.2044,-31.1886],[29.1938,-31.2164],[29.1797,-31.2078],[29.1764,-31.2273],[29.169,-31.2282],[29.1728,-31.2347],[29.1699,-31.2588],[29.1901,-31.2639],[29.1906,-31.2753],[29.2047,-31.2959],[29.2264,-31.2983],[29.2352,-31.2864],[29.2219,-31.2808],[29.2361,-31.2653],[29.2389,-31.2498],[29.2511,-31.2343],[29.2514,-31.2213],[29.2417,-31.2095],[29.2458,-31.195],[29.2537,-31.194],[29.2661,-31.2166],[29.281,-31.2171],[29.2836,-31.2114],[29.2794,-31.2003],[29.2873,-31.1826],[29.3006,-31.1856],[29.3138,-31.1775],[29.3222,-31.1598],[29.3301,-31.1585],[29.3413,-31.1673],[29.355,-31.1541],[29.3742,-31.1466],[29.3728,-31.1407],[29.3527,-31.1342],[29.3533,-31.1259],[29.3654,-31.1241],[29.3702,-31.1282],[29.3778,-31.1199],[29.3851,-31.1194],[29.3796,-31.1105],[29.3944,-31.1107],[29.4089,-31.0904],[29.4158,-31.0922],[29.4126,-31.1009],[29.4222,-31.0955],[29.429,-31.1061],[29.4367,-31.1037],[29.4333,-31.089],[29.4365,-31.0791],[29.4102,-31.0763],[29.4073,-31.0848],[29.3997,-31.0827],[29.433,-31.0506],[29.4236,-31.0414],[29.4272,-31.0195],[29.4155,-31.0205],[29.4055,-31.0036],[29.4156,-30.9983],[29.4141,-30.9891],[29.4328,-30.9826],[29.4312,-30.9743],[29.4367,-30.9677],[29.4468,-30.9633],[29.4526,-30.9664],[29.4587,-30.9599],[29.4635,-30.9493],[29.4547,-30.9301],[29.4615,-30.9179],[29.471,-30.9134],[29.4781,-30.9194],[29.4841,-30.916],[29.4831,-30.9267],[29.4895,-30.9294],[29.4945,-30.9206],[29.5088,-30.9316],[29.5289,-30.9268],[29.5192,-30.9341],[29.5266,-30.938],[29.5325,-30.9331],[29.5383,-30.9431],[29.5538,-30.946],[29.5586,-30.9568],[29.578,-30.9621],[29.5983,-30.9795],[29.6097,-30.983],[29.6065,-30.9906],[29.5744,-30.9942],[29.5829,-31.0038],[29.5857,-31.0184],[29.5918,-31.0184],[29.5925,-31.025],[29.5848,-31.0284],[29.5841,-31.0379],[29.6192,-31.0458],[29.6246,-31.0616],[29.6377,-31.059],[29.6504,-31.0643],[29.6534,-31.0607],[29.6778,-31.0597],[29.688,-31.0728],[29.6914,-31.0876],[29.6994,-31.0842],[29.6958,-31.0803],[29.6995,-31.0759],[29.7083,-31.0834],[29.726,-31.0869],[29.7411,-31.1066],[29.7348,-31.1119],[29.7377,-31.1287],[29.7434,-31.1232],[29.7454,-31.1295],[29.7616,-31.1295],[29.7658,-31.1336],[29.7697,-31.1297],[29.7623,-31.1266],[29.7615,-31.1194],[29.7741,-31.121],[29.7813,-31.1295],[29.7827,-31.1202],[29.7859,-31.1181],[29.7914,-31.1236],[29.7971,-31.1157],[29.8001,-31.119],[29.7972,-31.1303],[29.8033,-31.1308],[29.8046,-31.1431],[29.8142,-31.1322],[29.8186,-31.1368],[29.8269,-31.1292],[29.8293,-31.1357],[29.8441,-31.1316],[29.8452,-31.1427],[29.8366,-31.1483],[29.8627,-31.1479],[29.8603,-31.1533],[29.8703,-31.1576],[29.8661,-31.1645],[29.8746,-31.1628],[29.8824,-31.1672],[29.8871,-31.1627],[29.892,-31.1739],[29.9047,-31.1796],[29.913,-31.1694],[29.9123,-31.178],[29.9401,-31.1803],[29.9359,-31.186],[29.942,-31.1884],[29.9512,-31.1859],[29.9538,-31.1926],[29.9487,-31.1972],[29.9636,-31.2106],[29.9736,-31.2091],[30.004,-31.224],[30.0119,-31.2336],[30.0202,-31.2314],[30.0395,-31.2419],[30.0476,-31.2476],[30.0452,-31.2577],[30.0106,-31.2872],[30.0135,-31.291],[29.9955,-31.3086],[29.9653,-31.3208],[29.9685,-31.3278],[29.958,-31.345],[29.9419,-31.3549],[29.9386,-31.3626],[29.9052,-31.3815],[29.9051,-31.3935],[29.8747,-31.4072],[29.8686,-31.4217],[29.8595,-31.4291],[29.8337,-31.4435],[29.7833,-31.4435],[29.7763,-31.4482],[29.77,-31.4451],[29.765,-31.4528],[29.7356,-31.4664],[29.7343,-31.4791],[29.7204,-31.4832],[29.7218,-31.4956],[29.7153,-31.4985],[29.6951,-31.5265],[29.6858,-31.5278],[29.6846,-31.5352],[29.6731,-31.5469],[29.6655,-31.5519],[29.6622,-31.5483],[29.6365,-31.5638],[29.6258,-31.5849],[29.6076,-31.5931],[29.5971,-31.6038],[29.5491,-31.628],[29.5536,-31.6358],[29.5448,-31.6426],[29.5062,-31.6558],[29.4929,-31.6708],[29.4731,-31.6776],[29.4593,-31.6763],[29.4223,-31.6917],[29.4246,-31.6961],[29.4035,-31.7191],[29.4067,-31.7266],[29.403,-31.734],[29.3567,-31.7585],[29.3565,-31.7838],[29.345,-31.7942],[29.3477,-31.8037],[29.3196,-31.8109],[29.2916,-31.8352],[29.2728,-31.8588],[29.2626,-31.8638],[29.2618,-31.8812],[29.2424,-31.8942],[29.2417,-31.9042],[29.2342,-31.9081],[29.2244,-31.9257],[29.2145,-31.9311],[29.2168,-31.9395],[29.213,-31.945],[29.1818,-31.9519],[29.1672,-31.9718],[29.1533,-31.9803],[29.1532,-31.9872],[29.1358,-31.9959],[29.1371,-32.0032],[29.132,-32.0053],[29.1302,-32.0191],[29.1241,-32.0277],[29.1113,-32.0326],[29.1155,-32.0367],[29.1067,-32.0404],[29.1071,-32.0452],[29.0934,-32.0593],[29.0941,-32.0534],[29.0855,-32.0521],[29.0842,-32.0459],[29.0677,-32.0488],[29.0735,-32.043],[29.0657,-32.0353],[29.0375,-32.0411],[29.0396,-32.0342],[29.0253,-32.0154],[29.0147,-32.0153],[29.0108,-32.0071],[28.9812,-31.9845],[28.969,-31.9889],[28.9638,-31.9784],[28.9595,-31.9795],[28.9559,-31.9648],[28.9496,-31.9651],[28.9507,-31.9605],[28.9423,-31.9601],[28.9413,-31.9525],[28.9248,-31.944],[28.9175,-31.9518],[28.8874,-31.9536],[28.8811,-31.9661],[28.8665,-31.9606],[28.8541,-31.9762],[28.8477,-31.9766],[28.8541,-31.9822],[28.8514,-31.9851],[28.8425,-31.9831],[28.8404,-31.9898],[28.839,-31.9848],[28.8337,-31.9865],[28.8335,-31.9931],[28.8281,-31.9953],[28.8395,-31.9975],[28.8408,-32.0015],[28.8302,-31.9973],[28.8284,-32.0108],[28.8246,-32.0002],[28.8201,-32.006],[28.8149,-32.0012],[28.8101,-32.0048],[28.8074,-31.9991],[28.803,-32.0032],[28.8073,-32.015],[28.7863,-32.0119],[28.8015,-32.02],[28.7881,-32.0355],[28.7901,-32.0434],[28.7822,-32.046],[28.7497,-32.0355],[28.7449,-32.0306],[28.7458,-32.0205],[28.7376,-32.0168],[28.734,-32.009],[28.7128,-32.0077],[28.7091,-31.9973],[28.6945,-31.9951],[28.7063,-31.9865],[28.7024,-31.9814],[28.6923,-31.9863],[28.6979,-31.9754],[28.6951,-31.9644],[28.7006,-31.9616],[28.6984,-31.9591],[28.6799,-31.9562],[28.663,-31.9657],[28.6629,-31.9787],[28.6777,-31.9793],[28.6577,-31.9937],[28.6621,-31.9986],[28.6713,-31.9949],[28.6785,-31.9982],[28.6437,-32.0244],[28.6313,-32.0182],[28.6139,-32.0196],[28.5999,-32.012],[28.6029,-32.0027],[28.6231,-32.0048],[28.6279,-31.9981],[28.6214,-31.9931],[28.6037,-31.9984],[28.6018,-31.9927],[28.6105,-31.993],[28.6126,-31.9852],[28.5874,-31.9676],[28.5789,-31.9718],[28.5911,-31.9895],[28.5882,-32.0005],[28.5795,-31.9988],[28.558,-31.9793],[28.5471,-31.9931],[28.5283,-31.9953],[28.5188,-31.9884],[28.5227,-31.9799],[28.5325,-31.9808],[28.5421,-31.9885],[28.5465,-31.9861],[28.5292,-31.9565],[28.5211,-31.9584],[28.5307,-31.9663],[28.5261,-31.9728],[28.49,-31.9691],[28.4733,-31.9745],[28.4654,-31.97],[28.4806,-31.952],[28.5086,-31.954],[28.5148,-31.9334],[28.5041,-31.93],[28.494,-31.9349],[28.4718,-31.934],[28.4676,-31.9248],[28.4784,-31.9169],[28.4746,-31.9095],[28.4679,-31.912],[28.4606,-31.925],[28.4445,-31.9179],[28.4403,-31.9086],[28.4424,-31.8971],[28.426,-31.8884],[28.4275,-31.8702],[28.4062,-31.8789],[28.4076,-31.8715],[28.4169,-31.8677],[28.4168,-31.8607],[28.4003,-31.8499],[28.3824,-31.859],[28.3787,-31.8532],[28.3861,-31.8436],[28.3851,-31.8374],[28.3696,-31.835],[28.3688,-31.8457],[28.3649,-31.847],[28.3504,-31.8244],[28.3394,-31.819],[28.3511,-31.8105],[28.3239,-31.7908],[28.3266,-31.7843],[28.3358,-31.7894],[28.3529,-31.7838],[28.3474,-31.7788],[28.3501,-31.7652],[28.3378,-31.7555],[28.3413,-31.7504],[28.3581,-31.7466],[28.3452,-31.7433],[28.3453,-31.7353],[28.3352,-31.73],[28.344,-31.7155],[28.3291,-31.707],[28.3295,-31.6946],[28.3112,-31.6882],[28.3045,-31.6757],[28.3134,-31.6716],[28.31,-31.6638],[28.3195,-31.6622],[28.3206,-31.6559],[28.3103,-31.6572],[28.302,-31.652],[28.3129,-31.6502],[28.317,-31.6445],[28.3135,-31.6404],[28.3228,-31.6354],[28.309,-31.6246],[28.3215,-31.5899],[28.3339,-31.5871],[28.3394,-31.5786],[28.3543,-31.5732],[28.3633,-31.5777],[28.3811,-31.558],[28.3742,-31.5377],[28.3692,-31.538],[28.3733,-31.5239],[28.3634,-31.5022],[28.3759,-31.4801],[28.3896,-31.4777],[28.3986,-31.4679],[28.4071,-31.428],[28.4255,-31.4212],[28.4291,-31.4028],[28.4446,-31.3974],[28.444,-31.3865],[28.4625,-31.3874],[28.4651,-31.3811],[28.4839,-31.3743],[28.4991,-31.3485],[28.4993,-31.3326],[28.4951,-31.3263],[28.4704,-31.3236],[28.4597,-31.3167],[28.4519,-31.3035],[28.466,-31.2988],[28.4653,-31.2804],[28.4739,-31.2699],[28.4804,-31.2714],[28.479,-31.2673],[28.4862,-31.2659],[28.4955,-31.2508],[28.5107,-31.2504],[28.5141,-31.2437],[28.5293,-31.2488],[28.5318,-31.2433],[28.5401,-31.2455],[28.546,-31.236],[28.5601,-31.2389],[28.5552,-31.2318],[28.569,-31.2342],[28.5729,-31.2417],[28.5826,-31.2409],[28.5831,-31.2319],[28.5978,-31.2394],[28.6095,-31.2373],[28.6128,-31.2291],[28.6204,-31.2369],[28.6275,-31.2274],[28.6222,-31.2211],[28.6302,-31.2211],[28.6467,-31.209],[28.6552,-31.2013],[28.6535,-31.1945],[28.6708,-31.1845],[28.6787,-31.1997],[28.6934,-31.1966],[28.6823,-31.1793],[28.6872,-31.165],[28.6776,-31.1633],[28.6769,-31.1681],[28.6681,-31.1698],[28.6661,-31.1667],[28.6711,-31.1632],[28.6755,-31.135],[28.6929,-31.1334],[28.6981,-31.1281],[28.6952,-31.1205],[28.6773,-31.1146],[28.6706,-31.12],[28.6536,-31.1139],[28.6545,-31.106],[28.6421,-31.0994],[28.6356,-31.1045],[28.6236,-31.0975],[28.6083,-31.1028],[28.6065,-31.0998],[28.6116,-31.0968],[28.6016,-31.0882],[28.5921,-31.1066],[28.5762,-31.0981],[28.5738,-31.1008],[28.5804,-31.1029],[28.5782,-31.1058],[28.5612,-31.1046],[28.5601,-31.0846],[28.5518,-31.0904],[28.5396,-31.0904],[28.5357,-31.0937],[28.5361,-31.1065],[28.5184,-31.1125],[28.514,-31.1088],[28.5233,-31.1021],[28.5211,-31.0863],[28.5129,-31.084],[28.5204,-31.0774],[28.5187,-31.07],[28.496,-31.0578],[28.4907,-31.0399],[28.4937,-31.0314],[28.5053,-31.0494],[28.5205,-31.0486],[28.538,-31.0552],[28.5253,-31.0488],[28.5417,-31.036],[28.5499,-31.0204],[28.5604,-31.0158],[28.5486,-31.01],[28.5502,-30.9952],[28.5534,-30.9922],[28.5747,-30.9959],[28.5873,-30.9668],[28.5755,-30.9518],[28.5801,-30.9397],[28.5771,-30.9349],[28.5817,-30.9305],[28.6386,-30.9209],[28.6624,-30.9263],[28.6522,-30.914],[28.648,-30.8804],[28.6346,-30.8645],[28.6371,-30.8568],[28.6292,-30.8476],[28.6443,-30.8408],[28.6381,-30.8291],[28.6206,-30.8158],[28.6309,-30.8106],[28.6262,-30.8054],[28.6044,-30.8051],[28.6243,-30.7854],[28.6246,-30.7795],[28.6411,-30.7729],[28.6483,-30.7767]]]}},{"type":"Feature","properties":{"admin_code":"ZA-EC-ALFRED_NZO","name":"Alfred Nzo","name_local":"Alfred Nzo"},"geometry":{"type":"Polygon","coordinates":[[[29.5807,-30.6542],[29.5929,-30.6646],[29.5995,-30.6895],[29.6349,-30.6839],[29.6515,-30.6858],[29.6737,-30.6692],[29.6868,-30.6795],[29.6834,-30.6854],[29.6936,-30.6874],[29.7008,-30.7053],[29.7336,-30.7074],[29.7296,-30.7159],[29.7406,-30.7187],[29.7403,-30.7233],[29.7497,-30.7195],[29.7525,-30.707],[29.7591,-30.7192],[29.7707,-30.7185],[29.7722,-30.7054],[29.7861,-30.71],[29.779,-30.7012],[29.7805,-30.6954],[29.8003,-30.7089],[29.8108,-30.6985],[29.8154,-30.704],[29.8041,-30.7149],[29.8068,-30.7281],[29.8142,-30.7315],[29.8252,-30.7206],[29.8246,-30.7345],[29.8337,-30.7381],[29.8299,-30.7439],[29.8421,-30.7439],[29.8477,-30.7365],[29.8518,-30.7488],[29.8496,-30.7608],[29.8716,-30.7548],[29.882,-30.7621],[29.8925,-30.7588],[29.8965,-30.7675],[29.886,-30.7726],[29.8869,-30.7847],[29.8969,-30.7742],[29.9149,-30.7712],[29.9063,-30.792],[29.908,-30.7982],[29.9219,-30.7896],[29.9293,-30.792],[29.9295,-30.7807],[29.9223,-30.7687],[29.9492,-30.7708],[29.9552,-30.7897],[29.9406,-30.7921],[29.9323,-30.8072],[29.9658,-30.8082],[29.9724,-30.8023],[29.974,-30.8066],[29.9673,-30.8108],[29.9678,-30.8251],[29.9581,-30.823],[29.9648,-30.8323],[29.9748,-30.8381],[30.0003,-30.8375],[30.0015,-30.8279],[30.0077,-30.8257],[30.0119,-30.8321],[30.0069,-30.8422],[30.0218,-30.8392],[30.0221,-30.8568],[30.0254,-30.8488],[30.039,-30.8446],[30.0622,-30.8481],[30.0742,-30.8564],[30.0732,-30.8658],[30.0946,-30.8622],[30.0932,-30.878],[30.0704,-30.8713],[30.0757,-30.8822],[30.1195,-30.888],[30.1136,-30.9005],[30.1269,-30.9058],[30.1201,-30.9101],[30.1323,-30.9091],[30.1464,-30.9224],[30.1428,-30.927],[30.1465,-30.9339],[30.1378,-30.9406],[30.141,-30.951],[30.1347,-30.9562],[30.1345,-30.9638],[30.1564,-30.9759],[30.152,-30.9853],[30.1413,-30.9873],[30.1409,-30.9967],[30.1469,-31.0026],[30.1354,-31.009],[30.1408,-31.0228],[30.1493,-31.0156],[30.1556,-31.0224],[30.17,-31.0254],[30.1633,-31.0498],[30.1759,-31.0655],[30.1883,-31.0691],[30.1939,-31.0813],[30.1742,-31.1056],[30.1722,-31.1163],[30.1585,-31.1273],[30.1552,-31.1393],[30.1235,-31.1625],[30.1268,-31.1665],[30.1196,-31.178],[30.0977,-31.1876],[30.1024,-31.1921],[30.0705,-31.2207],[30.0693,-31.2371],[30.0476,-31.2476],[30.0202,-31.2314],[30.0119,-31.2336],[29.9946,-31.2188],[29.9736,-31.2091],[29.9636,-31.2106],[29.9487,-31.1972],[29.9538,-31.1926],[29.9512,-31.1859],[29.9359,-31.186],[29.9401,-31.1803],[29.9123,-31.178],[29.913,-31.1694],[29.9047,-31.1796],[29.892,-31.1739],[29.8871,-31.1627],[29.8824,-31.1672],[29.8746,-31.1628],[29.8661,-31.1645],[29.8703,-31.1576],[29.8603,-31.1533],[29.8627,-31.1479],[29.8366,-31.1483],[29.8452,-31.1427],[29.8441,-31.1316],[29.8293,-31.1357],[29.8269,-31.1292],[29.8186,-31.1368],[29.8142,-31.1322],[29.8046,-31.1431],[29.8033,-31.1308],[29.7972,-31.1303],[29.8001,-31.119],[29.7971,-31.1157],[29.7914,-31.1236],[29.7859,-31.1181],[29.7827,-31.1202],[29.7813,-31.1295],[29.7741,-31.121],[29.7615,-31.1194],[29.7623,-31.1266],[29.7697,-31.1297],[29.7658,-31.1336],[29.7616,-31.1295],[29.7454,-31.1295],[29.7434,-31.1232],[29.7377,-31.1287],[29.7348,-31.1119],[29.7411,-31.1066],[29.726,-31.0869],[29.7083,-31.0834],[29.6995,-31.0759],[29.6958,-31.0803],[29.6994,-31.0842],[29.6914,-31.0876],[29.688,-31.0728],[29.6778,-31.0597],[29.6534,-31.0607],[29.6504,-31.0643],[29.6377,-31.059],[29.6246,-31.0616],[29.6192,-31.0458],[29.5841,-31.0379],[29.5848,-31.0284],[29.5925,-31.025],[29.5918,-31.0184],[29.5857,-31.0184],[29.5829,-31.0038],[29.5744,-30.9942],[29.6065,-30.9906],[29.6097,-30.983],[29.5983,-30.9795],[29.578,-30.9621],[29.5586,-30.9568],[29.5538,-30.946],[29.5383,-30.9431],[29.5325,-30.9331],[29.5266,-30.938],[29.5192,-30.9341],[29.5289,-30.9268],[29.5088,-30.9316],[29.4945,-30.9206],[29.4895,-30.9294],[29.4831,-30.9267],[29.4841,-30.916],[29.4781,-30.9194],[29.471,-30.9134],[29.4615,-30.9179],[29.4547,-30.9301],[29.4635,-30.9493],[29.4587,-30.9599],[29.4526,-30.9664],[29.4468,-30.9633],[29.4367,-30.9677],[29.4312,-30.9743],[29.4328,-30.9826],[29.4141,-30.9891],[29.4156,-30.9983],[29.4055,-31.0036],[29.4155,-31.0205],[29.4272,-31.0195],[29.4236,-31.0414],[29.433,-31.0506],[29.3997,-31.0827],[29.4073,-31.0848],[29.4102,-31.0763],[29.4365,-31.0791],[29.4333,-31.089],[29.4367,-31.1037],[29.429,-31.1061],[29.4222,-31.0955],[29.4126,-31.1009],[29.4158,-31.0922],[29.4089,-31.0904],[29.3944,-31.1107],[29.3796,-31.1105],[29.3851,-31.1194],[29.3778,-31.1199],[29.3702,-31.1282],[29.3654,-31.1241],[29.3533,-31.1259],[29.3527,-31.1342],[29.3728,-31.1407],[29.3742,-31.1466],[29.355,-31.1541],[29.3413,-31.1673],[29.3301,-31.1585],[29.3222,-31.1598],[29.3138,-31.1775],[29.3006,-31.1856],[29.2873,-31.1826],[29.2794,-31.2003],[29.2836,-31.2114],[29.281,-31.2171],[29.2661,-31.2166],[29.2537,-31.194],[29.2458,-31.195],[29.2417,-31.2095],[29.2514,-31.2213],[29.2511,-31.2343],[29.2389,-31.2498],[29.2361,-31.2653],[29.2219,-31.2808],[29.2352,-31.2864],[29.2264,-31.2983],[29.2047,-31.2959],[29.1906,-31.2753],[29.1901,-31.2639],[29.1699,-31.2588],[29.1728,-31.2347],[29.169,-31.2282],[29.1764,-31.2273],[29.1797,-31.2078],[29.1938,-31.2164],[29.2044,-31.1886],[29.1876,-31.2034],[29.1883,-31.1904],[29.2039,-31.1842],[29.2074,-31.1722],[29.1999,-31.1659],[29.1694,-31.1676],[29.1488,-31.1551],[29.1351,-31.1526],[29.1424,-31.139],[29.1353,-31.1203],[29.1323,-31.0914],[29.1216,-31.0829],[29.1034,-31.0802],[29.0945,-31.067],[29.0691,-31.0527],[29.0617,-31.0431],[29.0648,-31.0376],[29.0453,-31.0204],[29.0419,-31.0093],[29.0182,-31.0024],[29.0133,-31.0062],[29.0144,-31.02],[29.0029,-31.0185],[28.9957,-31.0273],[28.9789,-31.025],[28.984,-31.0369],[28.9776,-31.0413],[28.9826,-31.054],[28.9772,-31.06],[28.963,-31.0621],[28.9561,-31.0729],[28.9521,-31.071],[28.9595,-31.0592],[28.9512,-31.0546],[28.9472,-31.0434],[28.9328,-31.0533],[28.9418,-31.0602],[28.9344,-31.072],[28.9301,-31.0728],[28.932,-31.0667],[28.9255,-31.0537],[28.9193,-31.0538],[28.9083,-31.0576],[28.9196,-31.0657],[28.9057,-31.0777],[28.8694,-31.0531],[28.8514,-31.0533],[28.8611,-31.0415],[28.8754,-31.0493],[28.8722,-31.0337],[28.8879,-31.0368],[28.8702,-31.0126],[28.8744,-31.0031],[28.8691,-30.9903],[28.8611,-30.9903],[28.8483,-30.9697],[28.8504,-30.9647],[28.8676,-30.968],[28.8688,-30.9644],[28.8635,-30.9622],[28.867,-30.9499],[28.8348,-30.9422],[28.835,-30.9469],[28.8278,-30.9485],[28.8315,-30.9647],[28.823,-30.9545],[28.8088,-30.9542],[28.8072,-30.9494],[28.8135,-30.9452],[28.8128,-30.938],[28.8207,-30.9255],[28.8104,-30.9203],[28.8127,-30.9137],[28.8018,-30.9121],[28.8022,-30.9059],[28.7918,-30.904],[28.7904,-30.8955],[28.8022,-30.8927],[28.7935,-30.8835],[28.7689,-30.8805],[28.7649,-30.8891],[28.7583,-30.8898],[28.7616,-30.8804],[28.7575,-30.8651],[28.7487,-30.8625],[28.7408,-30.8699],[28.7373,-30.8565],[28.7264,-30.8537],[28.7293,-30.8432],[28.6929,-30.8296],[28.6897,-30.8376],[28.68,-30.8356],[28.6768,-30.8305],[28.6856,-30.824],[28.6861,-30.8169],[28.6669,-30.8184],[28.6653,-30.8119],[28.6509,-30.8056],[28.6586,-30.8009],[28.6494,-30.7955],[28.6609,-30.7945],[28.6619,-30.7908],[28.6538,-30.7919],[28.6483,-30.7767],[28.6274,-30.7549],[28.6077,-30.7551],[28.6126,-30.7484],[28.6067,-30.737],[28.5975,-30.7343],[28.6025,-30.7285],[28.5902,-30.7117],[28.5601,-30.7088],[28.5631,-30.7014],[28.5499,-30.6924],[28.5546,-30.6818],[28.542,-30.6649],[28.5665,-30.6601],[28.556,-30.652],[28.5602,-30.6413],[28.5558,-30.629],[28.5607,-30.6214],[28.5524,-30.6188],[28.5425,-30.6021],[28.5406,-30.589],[28.5136,-30.5672],[28.5249,-30.5482],[28.5358,-30.5515],[28.547,-30.5487],[28.5441,-30.541],[28.5494,-30.541],[28.5607,-30.5183],[28.5733,-30.5224],[28.5759,-30.516],[28.5648,-30.5104],[28.5698,-30.4963],[28.5964,-30.4928],[28.588,-30.4873],[28.6232,-30.4754],[28.6235,-30.4798],[28.6085,-30.4902],[28.62,-30.4859],[28.6285,-30.4775],[28.6274,-30.4726],[28.616,-30.4722],[28.6139,-30.4619],[28.6071,-30.4661],[28.601,-30.4574],[28.5878,-30.454],[28.5751,-30.4369],[28.5402,-30.4516],[28.5331,-30.4701],[28.5272,-30.4665],[28.5062,-30.4694],[28.5108,-30.4601],[28.508,-30.4467],[28.5003,-30.4346],[28.4808,-30.4223],[28.4462,-30.4276],[28.4368,-30.4192],[28.4153,-30.4188],[28.3943,-30.4025],[28.3856,-30.4059],[28.3434,-30.3965],[28.2988,-30.3735],[28.2688,-30.3737],[28.2699,-30.3534],[28.2522,-30.3395],[28.2565,-30.3244],[28.2329,-30.315],[28.2282,-30.3085],[28.2154,-30.3068],[28.2069,-30.2907],[28.2359,-30.266],[28.2364,-30.2599],[28.2597,-30.2565],[28.264,-30.2521],[28.274,-30.2562],[28.3032,-30.2562],[28.3107,-30.2508],[28.3135,-30.2407],[28.3252,-30.2371],[28.3304,-30.2297],[28.3331,-30.2339],[28.3458,-30.2321],[28.3451,-30.2128],[28.3651,-30.1686],[28.3817,-30.1694],[28.3902,-30.1628],[28.3998,-30.1437],[28.4515,-30.1578],[28.4725,-30.1556],[28.4813,-30.1488],[28.4998,-30.151],[28.5314,-30.1329],[28.5349,-30.1257],[28.5506,-30.1206],[28.6186,-30.1355],[28.6384,-30.1315],[28.6676,-30.1407],[28.6903,-30.1241],[28.7016,-30.1265],[28.7289,-30.113],[28.7396,-30.1158],[28.7498,-30.1065],[28.7912,-30.1094],[28.795,-30.1008],[28.8313,-30.0976],[28.8553,-30.0901],[28.8595,-30.0873],[28.8575,-30.0776],[28.8693,-30.0779],[28.8789,-30.0698],[28.9031,-30.0659],[28.9217,-30.0531],[28.9363,-30.0492],[28.941,-30.0364],[28.9578,-30.0391],[28.9648,-30.0331],[28.9856,-30.0312],[28.9973,-30.0117],[29.0147,-30.0018],[29.0449,-30.013],[29.0678,-30.044],[29.0901,-30.0567],[29.1073,-30.0785],[29.1119,-30.0972],[29.1212,-30.0988],[29.1196,-30.1054],[29.1145,-30.1023],[29.1123,-30.1056],[29.12,-30.1106],[29.1153,-30.1144],[29.1194,-30.1222],[29.1153,-30.1328],[29.1163,-30.1421],[29.1215,-30.1435],[29.1206,-30.1512],[29.1104,-30.1538],[29.1204,-30.1604],[29.1139,-30.1621],[29.1131,-30.1682],[29.1025,-30.1771],[29.1132,-30.1904],[29.1221,-30.192],[29.1108,-30.1969],[29.1124,-30.2096],[29.1197,-30.2059],[29.1323,-30.2149],[29.1224,-30.222],[29.1302,-30.2266],[29.126,-30.2387],[29.136,-30.2612],[29.1518,-30.2567],[29.1518,-30.2647],[29.1627,-30.2636],[29.156,-30.2685],[29.1632,-30.2738],[29.1558,-30.2775],[29.2275,-30.2974],[29.2334,-30.3063],[29.2547,-30.3048],[29.2315,-30.2691],[29.2368,-30.2669],[29.2622,-30.2784],[29.3019,-30.3201],[29.2919,-30.3456],[29.2988,-30.3532],[29.305,-30.3799],[29.2771,-30.3762],[29.2824,-30.3957],[29.2382,-30.4049],[29.2276,-30.4103],[29.2273,-30.4263],[29.2185,-30.4212],[29.1968,-30.4344],[29.1984,-30.4623],[29.1773,-30.5157],[29.1504,-30.5104],[29.1402,-30.5338],[29.1466,-30.5316],[29.1528,-30.5546],[29.1577,-30.5538],[29.1614,-30.547],[29.1578,-30.5451],[29.1653,-30.5435],[29.1651,-30.538],[29.1738,-30.5517],[29.1153,-30.5796],[29.146,-30.5952],[29.1353,-30.6051],[29.1681,-30.6131],[29.173,-30.6243],[29.1853,-30.6185],[29.1778,-30.6287],[29.1829,-30.6413],[29.1979,-30.6344],[29.1952,-30.6245],[29.2046,-30.6202],[29.2613,-30.6212],[29.2773,-30.6373],[29.3225,-30.6445],[29.3456,-30.6717],[29.3728,-30.649],[29.3855,-30.6501],[29.4013,-30.6394],[29.443,-30.639],[29.4686,-30.6242],[29.5124,-30.6182],[29.5243,-30.6412],[29.5807,-30.6542]]]}}]}