{"type":"FeatureCollection","features":[{"type":"Feature","properties":{"admin_code":"ZA-EC","name":"Eastern Cape","name_local":"Oos-Kaap"},"geometry":{"type":"Polygon","coordinates":[[[30.069,-31.237],[29.965,-31.321],[29.905,-31.393],[29.834,-31.443],[29.77,-31.445],[29.738,-31.464],[29.695,-31.526],[29.626,-31.585],[29.494,-31.671],[29.422,-31.692],[29.403,-31.734],[29.357,-31.759],[29.348,-31.804],[29.301,-31.826],[29.213,-31.945],[29.182,-31.952],[29.136,-31.996],[29.089,-32.08],[29.021,-32.121],[28.943,-32.219],[28.898,-32.245],[28.885,-32.28],[28.785,-32.343],[28.744,-32.396],[28.659,-32.458],[28.651,-32.483],[28.606,-32.5],[28.552,-32.573],[28.434,-32.631],[28.374,-32.705],[28.139,-32.807],[28.081,-32.912],[27.961,-32.979],[27.923,-33.012],[27.926,-33.028],[27.729,-33.121],[27.603,-33.222],[27.528,-33.256],[27.216,-33.46],[27.156,-33.479],[27.112,-33.525],[27.059,-33.536],[27.009,-33.57],[26.937,-33.581],[26.867,-33.626],[26.742,-33.653],[26.559,-33.748],[26.468,-33.773],[26.38,-33.759],[26.324,-33.768],[26.135,-33.714],[26.031,-33.705],[25.905,-33.713],[25.789,-33.743],[25.665,-33.822],[25.631,-33.864],[25.613,-33.919],[25.613,-33.948],[25.672,-33.984],[25.704,-34.032],[25.66,-34.027],[25.628,-34.049],[25.581,-34.051],[25.468,-34.029],[25.408,-34.036],[25.203,-33.967],[25.017,-33.973],[24.928,-34.015],[24.922,-34.08],[24.843,-34.142],[24.832,-34.168],[24.871,-34.197],[24.84,-34.197],[24.837,-34.214],[24.646,-34.173],[24.615,-34.176],[24.609,-34.191],[24.491,-34.168],[24.382,-34.103],[24.31,-34.102],[24.194,-34.06],[24.12,-34.062],[23.645,-33.99],[23.637,-33.913],[23.657,-33.907],[23.647,-33.893],[23.703,-33.864],[23.562,-33.829],[23.557,-33.793],[23.519,-33.782],[23.488,-33.791],[23.489,-33.808],[23.395,-33.793],[23.43,-33.762],[23.44,-33.717],[23.541,-33.7],[23.557,-33.652],[23.586,-33.673],[23.67,-33.673],[23.675,-33.626],[23.62,-33.591],[23.617,-33.57],[23.596,-33.573],[23.604,-33.496],[23.496,-33.443],[23.355,-33.441],[23.364,-33.462],[23.297,-33.389],[23.135,-33.388],[22.935,-33.429],[22.774,-33.42],[22.784,-33.416],[22.736,-33.395],[22.739,-33.324],[22.773,-33.326],[22.774,-33.309],[22.79,-33.307],[22.84,-33.22],[22.877,-33.187],[22.892,-33.142],[22.955,-33.073],[22.958,-33.045],[22.934,-33.022],[22.969,-32.993],[22.949,-32.95],[23.004,-32.898],[23.007,-32.873],[23.098,-32.874],[23.116,-32.858],[23.089,-32.799],[23.149,-32.767],[23.187,-32.767],[23.201,-32.785],[23.379,-32.825],[23.398,-32.763],[23.352,-32.764],[23.354,-32.729],[23.333,-32.704],[23.27,-32.671],[23.301,-32.652],[23.307,-32.612],[23.288,-32.551],[23.244,-32.513],[23.248,-32.465],[23.222,-32.425],[23.307,-32.396],[23.333,-32.351],[23.41,-32.389],[23.449,-32.323],[23.665,-32.344],[23.678,-32.329],[23.649,-32.298],[23.67,-32.238],[23.766,-32.179],[23.851,-32.243],[23.892,-32.255],[23.961,-32.207],[24.031,-32.193],[24.044,-32.182],[24.038,-32.158],[24.1,-32.164],[24.136,-32.123],[24.135,-32.098],[24.11,-32.084],[24.098,-32.111],[24.103,-32.07],[24.141,-32.051],[24.129,-32.041],[24.141,-32.012],[24.189,-32.012],[24.183,-31.996],[24.222,-31.956],[24.164,-31.902],[24.105,-31.907],[24.124,-31.847],[24.153,-31.855],[24.155,-31.822],[24.184,-31.813],[24.154,-31.798],[24.147,-31.767],[24.162,-31.74],[24.285,-31.765],[24.341,-31.714],[24.423,-31.712],[24.413,-31.689],[24.441,-31.713],[24.514,-31.705],[24.523,-31.604],[24.504,-31.568],[24.533,-31.51],[24.519,-31.498],[24.559,-31.482],[24.567,-31.419],[24.596,-31.399],[24.665,-31.384],[24.711,-31.41],[24.789,-31.389],[24.825,-31.357],[24.863,-31.374],[24.853,-31.328],[24.899,-31.314],[24.934,-31.32],[24.96,-31.286],[25.006,-31.263],[25.058,-31.269],[25.073,-31.253],[25.084,-31.262],[25.153,-31.243],[25.155,-31.231],[25.17,-31.239],[25.205,-31.215],[25.211,-31.192],[25.268,-31.221],[25.291,-31.213],[25.354,-31.236],[25.386,-31.218],[25.385,-31.151],[25.446,-31.1],[25.454,-31.079],[25.439,-31.061],[25.487,-31.037],[25.502,-31.007],[25.485,-31.006],[25.475,-30.984],[25.511,-30.956],[25.518,-30.902],[25.471,-30.87],[25.549,-30.791],[25.48,-30.779],[25.476,-30.728],[25.462,-30.722],[25.467,-30.624],[25.475,-30.635],[25.526,-30.614],[25.562,-30.616],[25.597,-30.59],[25.625,-30.624],[25.614,-30.656],[25.675,-30.64],[25.693,-30.676],[25.764,-30.689],[25.793,-30.637],[25.847,-30.634],[25.861,-30.613],[25.891,-30.61],[25.872,-30.562],[25.886,-30.544],[25.903,-30.543],[25.931,-30.585],[25.944,-30.557],[25.977,-30.538],[26.097,-30.516],[26.142,-30.54],[26.149,-30.517],[26.13,-30.5],[26.163,-30.483],[26.194,-30.504],[26.197,-30.532],[26.263,-30.543],[26.28,-30.59],[26.356,-30.595],[26.418,-30.566],[26.449,-30.569],[26.489,-30.594],[26.483,-30.63],[26.558,-30.664],[26.629,-30.662],[26.629,-30.694],[26.675,-30.668],[26.703,-30.687],[26.805,-30.639],[26.844,-30.683],[26.864,-30.684],[26.879,-30.66],[26.949,-30.659],[26.929,-30.625],[26.948,-30.608],[27.034,-30.601],[27.042,-30.581],[27.0,-30.553],[27.006,-30.537],[27.085,-30.528],[27.106,-30.558],[27.138,-30.532],[27.13,-30.51],[27.186,-30.525],[27.213,-30.487],[27.23,-30.51],[27.239,-30.481],[27.251,-30.503],[27.298,-30.512],[27.298,-30.495],[27.328,-30.483],[27.296,-30.462],[27.301,-30.444],[27.34,-30.451],[27.369,-30.437],[27.324,-30.423],[27.339,-30.398],[27.377,-30.409],[27.404,-30.392],[27.397,-30.361],[27.372,-30.375],[27.351,-30.329],[27.392,-30.34],[27.454,-30.314],[27.476,-30.323],[27.489,-30.373],[27.553,-30.401],[27.567,-30.445],[27.604,-30.448],[27.61,-30.496],[27.69,-30.541],[27.742,-30.604],[27.795,-30.619],[27.915,-30.601],[27.941,-30.644],[28.004,-30.659],[28.085,-30.654],[28.114,-30.676],[28.124,-30.659],[28.113,-30.6],[28.151,-30.584],[28.157,-30.544],[28.177,-30.525],[28.18,-30.491],[28.156,-30.466],[28.186,-30.435],[28.258,-30.417],[28.27,-30.353],[28.253,-30.342],[28.257,-30.324],[28.207,-30.291],[28.236,-30.26],[28.303,-30.256],[28.346,-30.232],[28.365,-30.169],[28.383,-30.169],[28.4,-30.144],[28.473,-30.156],[28.551,-30.121],[28.668,-30.141],[28.75,-30.106],[28.855,-30.09],[28.941,-30.036],[28.986,-30.031],[29.015,-30.002],[29.045,-30.013],[29.121,-30.099],[29.11,-30.154],[29.12,-30.16],[29.103,-30.177],[29.122,-30.192],[29.112,-30.21],[29.132,-30.215],[29.122,-30.222],[29.136,-30.261],[29.255,-30.305],[29.237,-30.267],[29.302,-30.32],[29.292,-30.346],[29.305,-30.38],[29.277,-30.376],[29.282,-30.396],[29.197,-30.434],[29.177,-30.516],[29.15,-30.51],[29.14,-30.534],[29.153,-30.555],[29.165,-30.538],[29.174,-30.552],[29.115,-30.58],[29.146,-30.595],[29.135,-30.605],[29.185,-30.619],[29.183,-30.641],[29.205,-30.62],[29.261,-30.621],[29.322,-30.644],[29.346,-30.672],[29.401,-30.639],[29.512,-30.618],[29.524,-30.641],[29.588,-30.659],[29.6,-30.69],[29.652,-30.686],[29.674,-30.669],[29.701,-30.705],[29.734,-30.707],[29.741,-30.723],[29.753,-30.707],[29.759,-30.719],[29.786,-30.71],[29.781,-30.695],[29.8,-30.709],[29.813,-30.699],[29.808,-30.73],[29.825,-30.721],[29.83,-30.744],[29.848,-30.736],[29.852,-30.762],[29.893,-30.759],[29.887,-30.785],[29.915,-30.771],[29.908,-30.798],[29.929,-30.792],[29.922,-30.769],[29.949,-30.771],[29.955,-30.79],[29.932,-30.807],[29.972,-30.802],[29.965,-30.832],[30.0,-30.838],[30.008,-30.826],[30.022,-30.857],[30.039,-30.845],[30.095,-30.862],[30.093,-30.878],[30.07,-30.875],[30.119,-30.888],[30.12,-30.91],[30.146,-30.922],[30.134,-30.964],[30.156,-30.976],[30.135,-31.009],[30.141,-31.023],[30.17,-31.025],[30.163,-31.05],[30.194,-31.081],[30.069,-31.237]]]}},{"type":"Feature","properties":{"admin_code":"ZA-FS","name":"Free State","name_local":"Vrystaat"},"geometry":{"type":"Polygon","coordinates":[[[27.349,-30.332],[27.366,-30.339],[27.372,-30.375],[27.397,-30.361],[27.404,-30.392],[27.377,-30.409],[27.339,-30.398],[27.324,-30.423],[27.369,-30.437],[27.34,-30.451],[27.301,-30.444],[27.296,-30.462],[27.328,-30.483],[27.298,-30.495],[27.298,-30.512],[27.251,-30.503],[27.239,-30.481],[27.23,-30.51],[27.213,-30.487],[27.186,-30.525],[27.13,-30.51],[27.138,-30.532],[27.106,-30.558],[27.085,-30.528],[27.006,-30.537],[27.0,-30.553],[27.042,-30.581],[27.034,-30.601],[26.948,-30.608],[26.929,-30.625],[26.949,-30.659],[26.879,-30.66],[26.864,-30.684],[26.844,-30.683],[26.805,-30.639],[26.703,-30.687],[26.675,-30.668],[26.629,-30.694],[26.629,-30.662],[26.558,-30.664],[26.483,-30.63],[26.489,-30.594],[26.449,-30.569],[26.418,-30.566],[26.356,-30.595],[26.28,-30.59],[26.263,-30.543],[26.197,-30.532],[26.194,-30.504],[26.163,-30.483],[26.13,-30.5],[26.149,-30.517],[26.142,-30.54],[26.097,-30.516],[25.977,-30.538],[25.944,-30.557],[25.931,-30.585],[25.903,-30.543],[25.886,-30.544],[25.872,-30.562],[25.891,-30.61],[25.861,-30.613],[25.847,-30.634],[25.793,-30.637],[25.771,-30.686],[25.701,-30.68],[25.68,-30.666],[25.675,-30.64],[25.642,-30.658],[25.61,-30.653],[25.625,-30.624],[25.597,-30.59],[25.562,-30.616],[25.526,-30.614],[25.475,-30.635],[25.418,-30.578],[25.334,-30.558],[25.305,-30.577],[25.235,-30.5],[25.19,-30.498],[25.096,-30.373],[25.064,-30.357],[25.038,-30.362],[25.047,-30.316],[25.034,-30.286],[24.986,-30.29],[24.947,-30.252],[24.954,-30.226],[24.925,-30.201],[24.9,-30.207],[24.871,-30.135],[24.838,-30.118],[24.838,-30.095],[24.798,-30.052],[24.808,-30.023],[24.794,-29.999],[24.674,-29.976],[24.665,-29.902],[24.608,-29.911],[24.547,-29.845],[24.51,-29.841],[24.487,-29.813],[24.439,-29.815],[24.41,-29.789],[24.349,-29.703],[24.347,-29.656],[24.902,-28.648],[24.828,-28.627],[24.868,-28.517],[24.847,-28.504],[24.887,-28.465],[24.938,-28.325],[24.89,-28.31],[24.87,-28.27],[24.905,-28.275],[24.927,-28.247],[24.965,-28.251],[25.028,-28.073],[25.074,-28.066],[25.107,-28.012],[25.091,-27.984],[25.131,-27.951],[25.134,-27.925],[25.161,-27.927],[25.198,-27.889],[25.25,-27.869],[25.258,-27.855],[25.238,-27.834],[25.269,-27.801],[25.34,-27.793],[25.395,-27.729],[25.469,-27.711],[25.481,-27.693],[25.556,-27.687],[25.591,-27.655],[25.665,-27.694],[25.679,-27.63],[25.827,-27.567],[25.858,-27.624],[25.891,-27.626],[25.896,-27.61],[25.924,-27.603],[25.947,-27.633],[25.982,-27.627],[26.005,-27.653],[26.003,-27.707],[26.026,-27.735],[26.066,-27.719],[26.095,-27.69],[26.055,-27.669],[26.086,-27.648],[26.075,-27.62],[26.084,-27.595],[26.113,-27.593],[26.134,-27.558],[26.154,-27.564],[26.17,-27.536],[26.229,-27.512],[26.22,-27.474],[26.242,-27.431],[26.296,-27.416],[26.324,-27.433],[26.346,-27.385],[26.423,-27.407],[26.452,-27.386],[26.511,-27.395],[26.446,-27.35],[26.475,-27.308],[26.493,-27.319],[26.497,-27.268],[26.438,-27.21],[26.42,-27.168],[26.429,-27.15],[26.473,-27.154],[26.529,-27.091],[26.584,-27.108],[26.594,-27.079],[26.582,-27.053],[26.619,-27.003],[26.669,-26.995],[26.689,-27.018],[26.715,-26.974],[26.805,-26.932],[26.811,-26.951],[26.831,-26.949],[26.863,-26.919],[26.908,-26.945],[26.92,-26.973],[26.92,-26.906],[26.94,-26.871],[26.956,-26.9],[27.028,-26.936],[27.113,-26.926],[27.143,-26.942],[27.176,-26.925],[27.174,-26.968],[27.208,-26.98],[27.218,-26.946],[27.306,-26.853],[27.333,-26.854],[27.371,-26.904],[27.414,-26.926],[27.476,-26.883],[27.487,-26.849],[27.511,-26.838],[27.509,-26.786],[27.582,-26.774],[27.57,-26.747],[27.63,-26.732],[27.633,-26.772],[27.728,-26.761],[27.77,-26.799],[27.768,-26.765],[27.782,-26.751],[27.88,-26.746],[27.893,-26.711],[27.969,-26.669],[28.0,-26.696],[27.993,-26.735],[28.028,-26.78],[28.015,-26.794],[28.115,-26.844],[28.119,-26.889],[28.17,-26.889],[28.154,-26.851],[28.172,-26.846],[28.186,-26.892],[28.226,-26.924],[28.24,-26.916],[28.227,-26.897],[28.235,-26.881],[28.263,-26.915],[28.282,-26.906],[28.302,-26.941],[28.33,-26.924],[28.325,-26.949],[28.389,-26.931],[28.429,-26.989],[28.418,-27.013],[28.451,-26.981],[28.437,-26.965],[28.468,-26.983],[28.478,-26.95],[28.51,-26.987],[28.504,-27.008],[28.55,-27.041],[28.534,-27.067],[28.609,-27.021],[28.608,-27.008],[28.644,-27.02],[28.653,-26.995],[28.605,-26.993],[28.646,-26.953],[28.683,-26.975],[28.711,-26.969],[28.736,-27.002],[28.771,-27.003],[28.795,-27.029],[28.805,-27.012],[28.814,-27.043],[28.858,-27.025],[28.889,-27.059],[28.9,-27.048],[28.885,-27.025],[28.894,-27.013],[28.954,-27.012],[28.97,-26.992],[29.031,-27.029],[29.05,-27.006],[29.074,-27.063],[29.056,-27.081],[29.104,-27.13],[29.117,-27.172],[29.159,-27.143],[29.224,-27.145],[29.246,-27.192],[29.26,-27.181],[29.268,-27.198],[29.286,-27.19],[29.309,-27.216],[29.335,-27.207],[29.331,-27.263],[29.343,-27.248],[29.391,-27.243],[29.428,-27.254],[29.464,-27.288],[29.469,-27.325],[29.486,-27.327],[29.483,-27.36],[29.503,-27.358],[29.527,-27.394],[29.552,-27.399],[29.546,-27.431],[29.601,-27.47],[29.619,-27.506],[29.701,-27.494],[29.699,-27.451],[29.721,-27.433],[29.759,-27.443],[29.708,-27.462],[29.703,-27.472],[29.732,-27.488],[29.709,-27.514],[29.758,-27.527],[29.785,-27.597],[29.735,-27.607],[29.671,-27.651],[29.67,-27.67],[29.709,-27.698],[29.703,-27.767],[29.711,-27.796],[29.731,-27.808],[29.697,-27.824],[29.69,-27.896],[29.654,-27.923],[29.68,-27.957],[29.651,-27.967],[29.617,-28.047],[29.655,-28.09],[29.663,-28.142],[29.663,-28.177],[29.626,-28.186],[29.61,-28.215],[29.624,-28.225],[29.62,-28.241],[29.483,-28.272],[29.438,-28.321],[29.414,-28.376],[29.373,-28.372],[29.29,-28.438],[29.249,-28.425],[29.191,-28.494],[29.216,-28.519],[29.196,-28.545],[29.171,-28.53],[29.135,-28.566],[29.096,-28.545],[28.974,-28.575],[28.943,-28.651],[28.897,-28.691],[28.892,-28.745],[28.874,-28.771],[28.858,-28.756],[28.808,-28.772],[28.806,-28.71],[28.705,-28.671],[28.704,-28.618],[28.651,-28.571],[28.591,-28.608],[28.524,-28.601],[28.507,-28.618],[28.472,-28.605],[28.402,-28.624],[28.403,-28.644],[28.366,-28.665],[28.372,-28.684],[28.35,-28.703],[28.305,-28.692],[28.281,-28.715],[28.234,-28.695],[28.196,-28.711],[28.183,-28.694],[28.158,-28.731],[28.119,-28.742],[28.075,-28.815],[28.051,-28.818],[28.055,-28.841],[28.024,-28.859],[28.029,-28.879],[27.996,-28.872],[27.991,-28.883],[27.938,-28.848],[27.919,-28.86],[27.92,-28.877],[27.893,-28.879],[27.888,-28.917],[27.83,-28.904],[27.816,-28.921],[27.754,-28.897],[27.762,-28.938],[27.723,-28.949],[27.723,-28.976],[27.707,-28.982],[27.714,-29.01],[27.685,-29.004],[27.673,-29.044],[27.641,-29.046],[27.675,-29.077],[27.641,-29.082],[27.646,-29.118],[27.601,-29.137],[27.614,-29.164],[27.581,-29.166],[27.575,-29.185],[27.515,-29.224],[27.548,-29.246],[27.541,-29.26],[27.495,-29.284],[27.489,-29.302],[27.455,-29.298],[27.472,-29.32],[27.436,-29.334],[27.432,-29.373],[27.407,-29.364],[27.424,-29.404],[27.396,-29.411],[27.357,-29.453],[27.361,-29.486],[27.329,-29.481],[27.306,-29.497],[27.306,-29.533],[27.277,-29.526],[27.244,-29.555],[27.222,-29.545],[27.203,-29.569],[27.154,-29.561],[27.085,-29.615],[27.066,-29.597],[27.057,-29.637],[27.034,-29.613],[27.018,-29.617],[27.028,-29.639],[27.013,-29.661],[27.097,-29.73],[27.219,-30.01],[27.269,-30.026],[27.268,-30.043],[27.297,-30.056],[27.327,-30.148],[27.407,-30.145],[27.381,-30.177],[27.386,-30.193],[27.368,-30.192],[27.367,-30.274],[27.389,-30.283],[27.38,-30.3],[27.395,-30.308],[27.349,-30.332]]]}},{"type":"Feature","properties":{"admin_code":"ZA-GP","name":"Gauteng","name_local":"Gauteng"},"geometry":{"type":"Polygon","coordinates":[[[28.228,-26.892],[28.24,-26.916],[28.226,-26.924],[28.186,-26.892],[28.179,-26.853],[28.16,-26.845],[28.17,-26.889],[28.119,-26.889],[28.115,-26.844],[28.015,-26.794],[28.028,-26.78],[28.007,-26.769],[27.992,-26.728],[28.0,-26.696],[27.973,-26.669],[27.893,-26.711],[27.88,-26.746],[27.782,-26.751],[27.768,-26.765],[27.77,-26.799],[27.728,-26.761],[27.633,-26.772],[27.633,-26.734],[27.581,-26.731],[27.602,-26.723],[27.603,-26.692],[27.574,-26.716],[27.569,-26.647],[27.455,-26.63],[27.426,-26.649],[27.378,-26.611],[27.366,-26.574],[27.339,-26.572],[27.344,-26.613],[27.242,-26.636],[27.228,-26.571],[27.183,-26.575],[27.156,-26.524],[27.231,-26.505],[27.225,-26.444],[27.188,-26.378],[27.33,-26.282],[27.291,-26.145],[27.358,-26.155],[27.362,-26.116],[27.419,-26.117],[27.434,-26.023],[27.45,-26.016],[27.457,-25.982],[27.462,-25.868],[27.547,-25.851],[27.644,-25.796],[27.647,-25.841],[27.664,-25.84],[27.685,-25.875],[27.743,-25.85],[27.745,-25.895],[27.831,-25.86],[27.859,-25.819],[27.892,-25.823],[27.883,-25.862],[27.898,-25.86],[27.901,-25.841],[27.94,-25.837],[27.926,-25.824],[27.96,-25.816],[27.949,-25.76],[27.979,-25.751],[27.948,-25.695],[27.952,-25.654],[27.981,-25.633],[27.958,-25.593],[27.981,-25.543],[28.05,-25.56],[28.052,-25.536],[27.992,-25.518],[28.008,-25.484],[28.036,-25.471],[27.992,-25.425],[27.97,-25.439],[27.946,-25.407],[27.971,-25.363],[28.0,-25.359],[28.045,-25.402],[28.108,-25.367],[28.111,-25.379],[28.177,-25.366],[28.177,-25.329],[28.201,-25.324],[28.228,-25.354],[28.298,-25.339],[28.298,-25.31],[28.379,-25.292],[28.383,-25.321],[28.504,-25.309],[28.501,-25.265],[28.513,-25.256],[28.595,-25.249],[28.633,-25.28],[28.659,-25.235],[28.671,-25.248],[28.68,-25.22],[28.655,-25.214],[28.616,-25.152],[28.745,-25.11],[28.785,-25.229],[28.764,-25.221],[28.732,-25.269],[28.74,-25.289],[28.696,-25.294],[28.623,-25.334],[28.639,-25.394],[28.62,-25.411],[28.629,-25.459],[28.615,-25.468],[28.632,-25.488],[28.627,-25.531],[28.673,-25.665],[28.709,-25.683],[28.724,-25.632],[28.766,-25.647],[28.757,-25.706],[28.847,-25.682],[28.81,-25.659],[28.812,-25.643],[28.836,-25.637],[28.842,-25.654],[28.869,-25.658],[28.872,-25.642],[28.858,-25.635],[28.843,-25.566],[28.809,-25.573],[28.797,-25.542],[28.852,-25.502],[28.874,-25.527],[28.858,-25.569],[28.91,-25.524],[28.915,-25.558],[28.947,-25.6],[29.008,-25.574],[28.987,-25.54],[29.019,-25.528],[29.014,-25.513],[29.059,-25.527],[29.08,-25.495],[29.098,-25.538],[29.034,-25.563],[29.04,-25.618],[29.064,-25.621],[29.065,-25.642],[28.969,-25.673],[28.951,-25.728],[28.981,-25.743],[28.938,-25.823],[28.95,-25.837],[28.938,-25.889],[28.887,-25.871],[28.885,-25.974],[28.867,-26.007],[28.774,-26.014],[28.762,-25.983],[28.711,-25.991],[28.632,-25.971],[28.591,-26.002],[28.579,-26.06],[28.539,-26.048],[28.503,-26.064],[28.516,-26.081],[28.491,-26.126],[28.534,-26.172],[28.531,-26.225],[28.622,-26.248],[28.627,-26.292],[28.71,-26.341],[28.805,-26.307],[28.818,-26.346],[28.838,-26.341],[28.861,-26.399],[28.79,-26.426],[28.766,-26.471],[28.764,-26.518],[28.642,-26.508],[28.638,-26.547],[28.585,-26.539],[28.587,-26.52],[28.528,-26.502],[28.528,-26.591],[28.505,-26.59],[28.508,-26.604],[28.486,-26.61],[28.49,-26.635],[28.4,-26.655],[28.383,-26.718],[28.394,-26.717],[28.407,-26.762],[28.319,-26.793],[28.325,-26.841],[28.31,-26.879],[28.284,-26.877],[28.284,-26.864],[28.243,-26.874],[28.228,-26.892]]]}},{"type":"Feature","properties":{"admin_code":"ZA-KZN","name":"KwaZulu-Natal","name_local":"KwaZulu-Natal"},"geometry":{"type":"Polygon","coordinates":[[[30.163,-31.05],[30.17,-31.025],[30.141,-31.023],[30.135,-31.009],[30.156,-30.976],[30.134,-30.964],[30.146,-30.922],[30.12,-30.91],[30.119,-30.888],[30.07,-30.875],[30.093,-30.878],[30.095,-30.862],[30.039,-30.845],[30.022,-30.857],[30.008,-30.826],[30.0,-30.838],[29.965,-30.832],[29.972,-30.802],[29.932,-30.807],[29.955,-30.79],[29.949,-30.771],[29.922,-30.769],[29.929,-30.792],[29.908,-30.798],[29.915,-30.771],[29.887,-30.785],[29.893,-30.759],[29.852,-30.762],[29.848,-30.736],[29.83,-30.744],[29.825,-30.721],[29.808,-30.73],[29.813,-30.699],[29.8,-30.709],[29.781,-30.695],[29.786,-30.71],[29.759,-30.719],[29.753,-30.707],[29.741,-30.723],[29.734,-30.707],[29.701,-30.705],[29.674,-30.669],[29.652,-30.686],[29.6,-30.69],[29.588,-30.659],[29.524,-30.641],[29.512,-30.618],[29.401,-30.639],[29.346,-30.672],[29.322,-30.644],[29.261,-30.621],[29.205,-30.62],[29.183,-30.641],[29.185,-30.619],[29.135,-30.605],[29.146,-30.595],[29.115,-30.58],[29.174,-30.552],[29.165,-30.538],[29.153,-30.555],[29.14,-30.534],[29.15,-30.51],[29.177,-30.516],[29.197,-30.434],[29.282,-30.396],[29.277,-30.376],[29.305,-30.38],[29.292,-30.346],[29.302,-30.32],[29.237,-30.267],[29.255,-30.305],[29.136,-30.261],[29.122,-30.222],[29.132,-30.215],[29.112,-30.21],[29.122,-30.192],[29.103,-30.177],[29.12,-30.16],[29.11,-30.154],[29.121,-30.099],[29.045,-30.013],[29.015,-30.002],[29.084,-29.953],[29.104,-29.967],[29.109,-29.937],[29.17,-29.916],[29.163,-29.884],[29.101,-29.847],[29.132,-29.826],[29.124,-29.767],[29.152,-29.734],[29.16,-29.683],[29.235,-29.64],[29.282,-29.643],[29.285,-29.584],[29.325,-29.57],[29.306,-29.554],[29.313,-29.537],[29.293,-29.517],[29.307,-29.51],[29.293,-29.49],[29.403,-29.444],[29.456,-29.336],[29.408,-29.212],[29.345,-29.187],[29.356,-29.128],[29.312,-29.079],[29.255,-29.09],[29.212,-29.046],[29.215,-29.026],[29.124,-28.98],[29.127,-28.964],[29.074,-28.938],[29.078,-28.918],[29.041,-28.915],[29.019,-28.882],[28.991,-28.914],[28.973,-28.907],[28.962,-28.869],[28.94,-28.862],[28.953,-28.853],[28.948,-28.829],[28.922,-28.813],[28.949,-28.804],[28.932,-28.792],[28.944,-28.783],[28.906,-28.759],[28.874,-28.772],[28.899,-28.687],[28.943,-28.651],[28.974,-28.575],[29.096,-28.545],[29.135,-28.566],[29.171,-28.53],[29.196,-28.545],[29.216,-28.519],[29.191,-28.494],[29.249,-28.425],[29.29,-28.438],[29.373,-28.372],[29.414,-28.376],[29.438,-28.321],[29.483,-28.272],[29.62,-28.241],[29.624,-28.225],[29.61,-28.215],[29.626,-28.186],[29.663,-28.177],[29.663,-28.142],[29.655,-28.09],[29.617,-28.047],[29.651,-27.967],[29.68,-27.957],[29.654,-27.923],[29.69,-27.896],[29.697,-27.824],[29.731,-27.808],[29.711,-27.796],[29.703,-27.767],[29.709,-27.698],[29.67,-27.67],[29.671,-27.651],[29.735,-27.607],[29.785,-27.597],[29.758,-27.527],[29.712,-27.518],[29.711,-27.499],[29.732,-27.488],[29.703,-27.472],[29.759,-27.443],[29.796,-27.458],[29.84,-27.379],[29.899,-27.386],[29.917,-27.354],[30.016,-27.398],[30.068,-27.366],[30.143,-27.413],[30.198,-27.355],[30.235,-27.381],[30.28,-27.369],[30.282,-27.314],[30.328,-27.3],[30.367,-27.312],[30.368,-27.267],[30.426,-27.27],[30.426,-27.315],[30.448,-27.328],[30.497,-27.312],[30.587,-27.323],[30.661,-27.288],[30.718,-27.284],[30.771,-27.326],[30.789,-27.313],[30.828,-27.343],[30.822,-27.354],[30.858,-27.343],[30.866,-27.313],[30.922,-27.305],[30.942,-27.368],[31.008,-27.349],[31.021,-27.361],[31.099,-27.33],[31.166,-27.369],[31.274,-27.243],[31.494,-27.315],[31.978,-27.318],[31.975,-27.116],[32.011,-26.81],[32.054,-26.818],[32.1,-26.805],[32.12,-26.839],[32.182,-26.863],[32.22,-26.833],[32.331,-26.864],[32.891,-26.858],[32.945,-26.872],[32.896,-27.121],[32.733,-27.511],[32.735,-27.551],[32.656,-27.832],[32.615,-28.142],[32.483,-28.388],[32.471,-28.485],[32.415,-28.476],[32.359,-28.579],[32.013,-28.877],[31.758,-28.97],[31.34,-29.383],[31.186,-29.572],[31.06,-29.771],[31.037,-29.834],[31.047,-29.865],[31.064,-29.865],[31.06,-29.88],[30.885,-30.058],[30.736,-30.339],[30.547,-30.627],[30.226,-31.06],[30.194,-31.081],[30.163,-31.05]]]}},{"type":"Feature","properties":{"admin_code":"ZA-LP","name":"Limpopo","name_local":"Limpopo"},"geometry":{"type":"Polygon","coordinates":[[[28.616,-25.152],[28.655,-25.214],[28.68,-25.22],[28.671,-25.248],[28.659,-25.235],[28.633,-25.28],[28.604,-25.252],[28.564,-25.249],[28.501,-25.265],[28.504,-25.309],[28.383,-25.321],[28.379,-25.292],[28.298,-25.31],[28.246,-25.213],[28.211,-25.198],[28.136,-25.206],[28.129,-25.146],[28.094,-25.148],[28.084,-25.1],[28.154,-25.087],[28.174,-25.12],[28.215,-25.128],[28.26,-25.05],[28.125,-25.005],[28.12,-24.979],[28.037,-24.985],[27.984,-24.958],[27.955,-24.97],[27.946,-25.001],[27.789,-24.967],[27.687,-24.994],[27.629,-24.974],[27.597,-24.985],[27.594,-25.029],[27.543,-25.098],[27.482,-25.067],[27.337,-25.088],[27.314,-25.042],[27.272,-25.037],[27.224,-25.067],[27.232,-25.036],[27.203,-25.033],[27.226,-24.964],[27.183,-24.949],[27.154,-24.979],[27.101,-24.9],[27.041,-24.887],[27.026,-24.719],[26.976,-24.721],[26.981,-24.776],[26.943,-24.776],[26.78,-24.838],[26.751,-24.883],[26.705,-24.857],[26.699,-24.867],[26.622,-24.81],[26.566,-24.82],[26.458,-24.809],[26.459,-24.79],[26.426,-24.771],[26.428,-24.658],[26.409,-24.646],[26.471,-24.589],[26.51,-24.488],[26.56,-24.454],[26.587,-24.411],[26.659,-24.385],[26.676,-24.344],[26.733,-24.304],[26.786,-24.307],[26.866,-24.251],[26.859,-24.223],[26.883,-24.19],[26.864,-24.179],[26.879,-24.16],[26.86,-24.107],[26.885,-24.089],[26.915,-23.971],[26.932,-23.955],[26.928,-23.922],[26.955,-23.874],[26.932,-23.851],[26.959,-23.83],[26.949,-23.814],[26.971,-23.703],[27.002,-23.689],[27.003,-23.644],[27.026,-23.644],[27.038,-23.683],[27.071,-23.671],[27.081,-23.643],[27.059,-23.613],[27.1,-23.603],[27.117,-23.562],[27.155,-23.569],[27.135,-23.524],[27.201,-23.534],[27.211,-23.526],[27.192,-23.498],[27.226,-23.485],[27.233,-23.496],[27.259,-23.472],[27.303,-23.463],[27.33,-23.403],[27.353,-23.398],[27.35,-23.426],[27.374,-23.427],[27.377,-23.399],[27.408,-23.389],[27.401,-23.413],[27.422,-23.427],[27.442,-23.385],[27.529,-23.385],[27.567,-23.341],[27.573,-23.265],[27.601,-23.247],[27.602,-23.216],[27.649,-23.226],[27.689,-23.196],[27.714,-23.229],[27.742,-23.23],[27.785,-23.171],[27.766,-23.134],[27.81,-23.134],[27.814,-23.106],[27.882,-23.09],[27.936,-23.052],[27.935,-22.963],[28.037,-22.913],[28.051,-22.885],[28.041,-22.833],[28.151,-22.77],[28.159,-22.72],[28.183,-22.689],[28.247,-22.656],[28.278,-22.615],[28.311,-22.606],[28.341,-22.575],[28.479,-22.571],[28.523,-22.587],[28.564,-22.561],[28.641,-22.558],[28.737,-22.505],[28.831,-22.488],[28.83,-22.465],[28.856,-22.451],[28.923,-22.457],[28.971,-22.377],[28.966,-22.308],[29.037,-22.216],[29.151,-22.216],[29.218,-22.178],[29.258,-22.193],[29.321,-22.187],[29.335,-22.205],[29.464,-22.166],[29.528,-22.178],[29.539,-22.153],[29.58,-22.141],[29.61,-22.156],[29.657,-22.125],[29.673,-22.139],[29.774,-22.141],[29.885,-22.195],[29.926,-22.19],[29.97,-22.224],[30.018,-22.229],[30.026,-22.254],[30.058,-22.257],[30.126,-22.311],[30.231,-22.296],[30.29,-22.356],[30.382,-22.351],[30.489,-22.316],[30.553,-22.332],[30.595,-22.32],[30.632,-22.336],[30.663,-22.311],[30.709,-22.317],[30.835,-22.292],[30.93,-22.301],[30.981,-22.328],[31.0,-22.316],[31.088,-22.349],[31.163,-22.329],[31.213,-22.369],[31.269,-22.368],[31.309,-22.422],[31.564,-23.198],[31.551,-23.41],[31.561,-23.482],[31.691,-23.629],[31.697,-23.722],[31.769,-23.888],[31.881,-23.955],[31.884,-23.985],[31.825,-23.986],[31.813,-23.999],[31.77,-23.983],[31.735,-24.011],[31.736,-24.046],[31.702,-24.06],[31.68,-24.057],[31.659,-24.014],[31.621,-24.023],[31.598,-24.056],[31.568,-24.033],[31.529,-24.057],[31.448,-24.02],[31.431,-24.052],[31.399,-24.068],[31.379,-24.052],[31.321,-24.083],[31.293,-24.074],[31.257,-24.101],[31.235,-24.058],[31.193,-24.031],[31.147,-24.07],[31.072,-24.083],[31.063,-24.091],[31.121,-24.09],[31.115,-24.119],[31.096,-24.117],[31.107,-24.146],[31.05,-24.187],[31.056,-24.322],[31.2,-24.305],[31.242,-24.365],[31.16,-24.376],[31.16,-24.437],[31.203,-24.426],[31.254,-24.499],[31.226,-24.556],[30.959,-24.582],[30.954,-24.521],[30.872,-24.539],[30.759,-24.46],[30.73,-24.498],[30.73,-24.609],[30.702,-24.586],[30.679,-24.624],[30.72,-24.705],[30.679,-24.736],[30.637,-24.734],[30.634,-24.758],[30.664,-24.775],[30.656,-24.812],[30.635,-24.853],[30.619,-24.844],[30.608,-24.872],[30.58,-24.887],[30.581,-24.917],[30.563,-24.896],[30.496,-24.915],[30.494,-24.953],[30.452,-24.912],[30.425,-24.855],[30.39,-24.849],[30.396,-24.871],[30.354,-24.849],[30.353,-24.883],[30.311,-24.873],[30.308,-24.885],[30.297,-24.868],[30.192,-24.855],[30.172,-24.989],[30.199,-25.036],[30.149,-25.032],[30.144,-25.124],[30.091,-25.126],[30.09,-25.108],[30.03,-25.064],[30.03,-25.085],[29.979,-25.092],[30.005,-25.144],[30.006,-25.34],[29.888,-25.339],[29.888,-25.364],[29.84,-25.386],[29.82,-25.359],[29.793,-25.362],[29.77,-25.402],[29.674,-25.372],[29.613,-25.401],[29.523,-25.405],[29.519,-25.423],[29.35,-25.405],[29.342,-25.373],[29.264,-25.375],[29.243,-25.404],[29.207,-25.415],[29.196,-25.37],[29.131,-25.39],[29.164,-25.354],[29.167,-25.303],[29.096,-25.321],[29.09,-25.289],[29.038,-25.276],[29.032,-25.251],[29.043,-25.141],[29.09,-25.148],[29.087,-25.137],[29.128,-25.113],[29.088,-25.104],[29.071,-25.065],[29.019,-25.055],[28.972,-25.07],[28.935,-25.0],[28.91,-25.007],[28.892,-24.955],[28.942,-24.934],[28.924,-24.902],[28.846,-24.933],[28.837,-24.916],[28.759,-24.911],[28.714,-24.954],[28.606,-25.003],[28.634,-25.058],[28.474,-25.089],[28.495,-25.132],[28.443,-25.129],[28.379,-25.155],[28.411,-25.205],[28.387,-25.213],[28.462,-25.201],[28.532,-25.17],[28.537,-25.152],[28.596,-25.143],[28.649,-25.113],[28.652,-25.143],[28.616,-25.152]]]}},{"type":"Feature","properties":{"admin_code":"ZA-MP","name":"Mpumalanga","name_local":"Mpumalanga"},"geometry":{"type":"Polygon","coordinates":[[[29.721,-27.433],[29.699,-27.451],[29.701,-27.494],[29.619,-27.506],[29.601,-27.47],[29.546,-27.431],[29.552,-27.399],[29.527,-27.394],[29.503,-27.358],[29.483,-27.36],[29.486,-27.327],[29.469,-27.325],[29.464,-27.288],[29.428,-27.254],[29.391,-27.243],[29.343,-27.248],[29.331,-27.263],[29.335,-27.207],[29.309,-27.216],[29.286,-27.19],[29.268,-27.198],[29.26,-27.181],[29.246,-27.192],[29.224,-27.145],[29.159,-27.143],[29.117,-27.172],[29.104,-27.13],[29.056,-27.081],[29.074,-27.063],[29.05,-27.006],[29.031,-27.029],[28.97,-26.992],[28.954,-27.012],[28.894,-27.013],[28.885,-27.025],[28.9,-27.048],[28.889,-27.059],[28.858,-27.025],[28.814,-27.043],[28.805,-27.012],[28.795,-27.029],[28.771,-27.003],[28.736,-27.002],[28.711,-26.969],[28.683,-26.975],[28.646,-26.953],[28.605,-26.993],[28.653,-26.995],[28.644,-27.02],[28.608,-27.008],[28.609,-27.021],[28.534,-27.067],[28.55,-27.041],[28.504,-27.008],[28.51,-26.987],[28.478,-26.95],[28.468,-26.983],[28.437,-26.965],[28.451,-26.981],[28.418,-27.013],[28.429,-26.989],[28.4,-26.936],[28.353,-26.932],[28.325,-26.949],[28.33,-26.924],[28.302,-26.941],[28.282,-26.906],[28.263,-26.915],[28.244,-26.885],[28.243,-26.874],[28.284,-26.864],[28.284,-26.877],[28.31,-26.879],[28.325,-26.841],[28.319,-26.793],[28.407,-26.762],[28.394,-26.717],[28.383,-26.718],[28.4,-26.655],[28.49,-26.635],[28.486,-26.61],[28.508,-26.604],[28.505,-26.59],[28.528,-26.591],[28.528,-26.502],[28.587,-26.52],[28.585,-26.539],[28.638,-26.547],[28.642,-26.508],[28.764,-26.518],[28.766,-26.471],[28.79,-26.426],[28.861,-26.399],[28.838,-26.341],[28.818,-26.346],[28.805,-26.307],[28.71,-26.341],[28.627,-26.292],[28.622,-26.248],[28.531,-26.225],[28.534,-26.172],[28.491,-26.126],[28.516,-26.081],[28.503,-26.064],[28.539,-26.048],[28.579,-26.06],[28.591,-26.002],[28.632,-25.971],[28.711,-25.991],[28.762,-25.983],[28.774,-26.014],[28.867,-26.007],[28.885,-25.974],[28.887,-25.871],[28.938,-25.889],[28.95,-25.837],[28.938,-25.823],[28.981,-25.743],[28.951,-25.728],[28.969,-25.673],[29.065,-25.642],[29.064,-25.621],[29.04,-25.618],[29.034,-25.563],[29.098,-25.538],[29.08,-25.495],[29.059,-25.527],[29.014,-25.513],[29.019,-25.528],[28.987,-25.54],[29.008,-25.574],[28.947,-25.6],[28.915,-25.558],[28.91,-25.524],[28.858,-25.569],[28.874,-25.527],[28.852,-25.502],[28.797,-25.542],[28.809,-25.573],[28.843,-25.566],[28.858,-25.635],[28.872,-25.642],[28.869,-25.658],[28.842,-25.654],[28.836,-25.637],[28.812,-25.643],[28.81,-25.659],[28.847,-25.682],[28.757,-25.706],[28.766,-25.647],[28.724,-25.632],[28.709,-25.683],[28.684,-25.675],[28.627,-25.531],[28.62,-25.411],[28.639,-25.394],[28.623,-25.334],[28.696,-25.294],[28.74,-25.289],[28.732,-25.269],[28.764,-25.221],[28.785,-25.229],[28.745,-25.11],[28.652,-25.143],[28.649,-25.113],[28.596,-25.143],[28.537,-25.152],[28.532,-25.17],[28.462,-25.201],[28.387,-25.213],[28.411,-25.205],[28.379,-25.155],[28.443,-25.129],[28.495,-25.132],[28.474,-25.089],[28.634,-25.058],[28.606,-25.003],[28.714,-24.954],[28.759,-24.911],[28.837,-24.916],[28.846,-24.933],[28.924,-24.902],[28.942,-24.934],[28.892,-24.955],[28.91,-25.007],[28.935,-25.0],[28.972,-25.07],[29.019,-25.055],[29.071,-25.065],[29.088,-25.104],[29.128,-25.113],[29.087,-25.137],[29.09,-25.148],[29.043,-25.141],[29.032,-25.251],[29.038,-25.276],[29.09,-25.289],[29.096,-25.321],[29.167,-25.303],[29.164,-25.354],[29.131,-25.39],[29.196,-25.37],[29.207,-25.415],[29.243,-25.404],[29.264,-25.375],[29.342,-25.373],[29.35,-25.405],[29.519,-25.423],[29.523,-25.405],[29.613,-25.401],[29.674,-25.372],[29.77,-25.402],[29.793,-25.362],[29.82,-25.359],[29.84,-25.386],[29.888,-25.364],[29.888,-25.339],[30.006,-25.34],[30.005,-25.144],[29.979,-25.092],[30.03,-25.085],[30.03,-25.064],[30.09,-25.108],[30.091,-25.126],[30.144,-25.124],[30.149,-25.032],[30.199,-25.036],[30.172,-24.989],[30.192,-24.855],[30.297,-24.868],[30.308,-24.885],[30.311,-24.873],[30.353,-24.883],[30.354,-24.849],[30.396,-24.871],[30.39,-24.849],[30.425,-24.855],[30.452,-24.912],[30.494,-24.953],[30.496,-24.915],[30.563,-24.896],[30.581,-24.917],[30.58,-24.887],[30.608,-24.872],[30.619,-24.844],[30.635,-24.853],[30.656,-24.812],[30.664,-24.775],[30.634,-24.758],[30.637,-24.734],[30.679,-24.736],[30.72,-24.705],[30.679,-24.624],[30.702,-24.586],[30.73,-24.609],[30.73,-24.498],[30.759,-24.46],[30.872,-24.539],[30.954,-24.521],[30.959,-24.582],[31.226,-24.556],[31.254,-24.499],[31.203,-24.426],[31.16,-24.437],[31.16,-24.376],[31.242,-24.365],[31.2,-24.305],[31.056,-24.322],[31.05,-24.187],[31.107,-24.146],[31.096,-24.117],[31.115,-24.119],[31.121,-24.09],[31.063,-24.091],[31.072,-24.083],[31.147,-24.07],[31.193,-24.031],[31.235,-24.058],[31.257,-24.101],[31.293,-24.074],[31.321,-24.083],[31.379,-24.052],[31.399,-24.068],[31.431,-24.052],[31.448,-24.02],[31.529,-24.057],[31.568,-24.033],[31.598,-24.056],[31.621,-24.023],[31.659,-24.014],[31.68,-24.057],[31.702,-24.06],[31.736,-24.046],[31.735,-24.011],[31.77,-23.983],[31.813,-23.999],[31.825,-23.986],[31.884,-23.985],[31.908,-24.182],[31.987,-24.302],[32.013,-24.455],[31.998,-24.69],[32.032,-25.183],[32.015,-25.382],[31.977,-25.475],[32.006,-25.645],[31.931,-25.841],[31.974,-25.953],[31.868,-26.0],[31.416,-25.719],[31.316,-25.743],[31.264,-25.81],[31.127,-25.921],[31.113,-25.983],[30.961,-26.262],[30.892,-26.321],[30.805,-26.467],[30.791,-26.712],[30.813,-26.843],[30.887,-26.804],[30.892,-26.785],[30.907,-26.86],[30.974,-26.908],[30.977,-26.953],[30.958,-26.992],[30.985,-27.037],[31.061,-27.096],[31.151,-27.202],[31.274,-27.243],[31.166,-27.369],[31.099,-27.33],[31.021,-27.361],[31.008,-27.349],[30.942,-27.368],[30.922,-27.305],[30.866,-27.313],[30.858,-27.343],[30.822,-27.354],[30.828,-27.343],[30.789,-27.313],[30.771,-27.326],[30.718,-27.284],[30.661,-27.288],[30.587,-27.323],[30.497,-27.312],[30.448,-27.328],[30.426,-27.315],[30.426,-27.27],[30.368,-27.267],[30.367,-27.312],[30.328,-27.3],[30.282,-27.314],[30.28,-27.369],[30.235,-27.381],[30.198,-27.355],[30.143,-27.413],[30.087,-27.368],[30.016,-27.398],[29.917,-27.354],[29.899,-27.386],[29.84,-27.379],[29.796,-27.458],[29.721,-27.433]]]}},{"type":"Feature","properties":{"admin_code":"ZA-NC","name":"Northern Cape","name_local":"Noord-Kaap"},"geometry":{"type":"Polygon","coordinates":[[[25.462,-30.722],[25.476,-30.728],[25.48,-30.779],[25.549,-30.791],[25.471,-30.87],[25.518,-30.902],[25.511,-30.956],[25.475,-30.984],[25.485,-31.006],[25.502,-31.007],[25.487,-31.037],[25.439,-31.061],[25.454,-31.079],[25.446,-31.1],[25.385,-31.151],[25.386,-31.218],[25.354,-31.236],[25.291,-31.213],[25.268,-31.221],[25.211,-31.192],[25.205,-31.215],[25.17,-31.239],[25.155,-31.231],[25.153,-31.243],[25.084,-31.262],[25.073,-31.253],[25.058,-31.269],[25.006,-31.263],[24.96,-31.286],[24.934,-31.32],[24.899,-31.314],[24.853,-31.328],[24.863,-31.374],[24.825,-31.357],[24.789,-31.389],[24.711,-31.41],[24.665,-31.384],[24.596,-31.399],[24.567,-31.419],[24.559,-31.482],[24.519,-31.498],[24.533,-31.51],[24.504,-31.568],[24.523,-31.604],[24.514,-31.705],[24.441,-31.713],[24.413,-31.689],[24.423,-31.712],[24.341,-31.714],[24.285,-31.765],[24.162,-31.74],[24.152,-31.789],[24.071,-31.807],[24.029,-31.73],[24.047,-31.707],[23.963,-31.707],[23.949,-31.773],[23.894,-31.837],[23.829,-31.78],[23.837,-31.768],[23.809,-31.764],[23.848,-31.729],[23.842,-31.715],[23.756,-31.696],[23.715,-31.647],[23.639,-31.66],[23.619,-31.649],[23.575,-31.689],[23.524,-31.705],[23.416,-31.672],[23.407,-31.714],[23.345,-31.711],[23.302,-31.73],[23.263,-31.778],[23.262,-31.815],[23.225,-31.854],[23.23,-31.876],[23.098,-31.978],[23.053,-31.94],[23.067,-31.891],[22.976,-31.861],[22.902,-31.876],[22.875,-31.862],[22.859,-31.818],[22.777,-31.857],[22.735,-31.799],[22.615,-31.823],[22.578,-31.806],[22.619,-31.725],[22.566,-31.713],[22.565,-31.678],[22.496,-31.67],[22.312,-31.583],[22.273,-31.593],[22.26,-31.662],[22.204,-31.764],[22.206,-31.792],[22.16,-31.81],[22.177,-31.821],[22.167,-31.893],[22.079,-31.855],[22.102,-31.901],[22.1,-31.924],[22.071,-31.939],[22.095,-32.001],[22.074,-32.018],[22.094,-32.046],[22.134,-32.064],[22.09,-32.146],[22.07,-32.081],[22.016,-32.114],[22.0,-32.206],[21.936,-32.223],[21.925,-32.262],[21.907,-32.253],[21.902,-32.271],[21.874,-32.277],[21.781,-32.251],[21.773,-32.227],[21.746,-32.225],[21.736,-32.205],[21.692,-32.249],[21.645,-32.209],[21.536,-32.229],[21.562,-32.315],[21.55,-32.327],[21.476,-32.331],[21.43,-32.375],[21.408,-32.369],[21.353,-32.392],[21.302,-32.377],[21.282,-32.44],[21.182,-32.509],[21.14,-32.59],[21.157,-32.629],[21.094,-32.653],[20.963,-32.639],[20.844,-32.662],[20.79,-32.711],[20.83,-32.785],[20.832,-32.817],[20.799,-32.895],[20.744,-32.913],[20.731,-32.945],[20.65,-32.932],[20.59,-32.943],[20.561,-32.881],[20.499,-32.942],[20.439,-32.94],[20.38,-32.902],[20.364,-32.911],[20.357,-32.864],[20.3,-32.805],[20.219,-32.785],[20.188,-32.753],[20.192,-32.686],[20.141,-32.644],[20.115,-32.57],[20.123,-32.557],[20.097,-32.503],[20.08,-32.397],[20.132,-32.421],[20.17,-32.381],[20.164,-32.351],[20.216,-32.303],[20.254,-32.311],[20.241,-32.224],[20.166,-32.227],[20.181,-32.184],[20.136,-32.192],[20.097,-32.25],[20.054,-32.252],[20.039,-32.296],[19.937,-32.377],[19.874,-32.383],[19.818,-32.361],[19.803,-32.394],[19.764,-32.411],[19.737,-32.386],[19.731,-32.41],[19.707,-32.42],[19.73,-32.442],[19.68,-32.464],[19.655,-32.439],[19.622,-32.471],[19.605,-32.629],[19.528,-32.673],[19.487,-32.565],[19.495,-32.499],[19.516,-32.486],[19.43,-32.366],[19.409,-32.29],[19.492,-32.252],[19.501,-32.18],[19.475,-32.146],[19.515,-32.115],[19.508,-32.086],[19.489,-32.121],[19.486,-32.076],[19.426,-32.031],[19.396,-32.015],[19.363,-32.043],[19.33,-32.013],[19.323,-31.985],[19.29,-31.965],[19.278,-31.98],[19.265,-31.966],[19.29,-31.863],[19.211,-31.948],[19.2,-31.905],[19.156,-31.9],[19.142,-31.912],[19.026,-31.877],[19.03,-31.834],[19.087,-31.794],[19.067,-31.766],[19.095,-31.75],[19.055,-31.67],[19.074,-31.667],[19.071,-31.624],[19.091,-31.598],[19.085,-31.572],[19.052,-31.573],[19.085,-31.527],[19.006,-31.512],[19.043,-31.425],[19.031,-31.39],[18.98,-31.355],[19.013,-31.306],[18.966,-31.284],[18.944,-31.237],[18.948,-31.113],[18.903,-31.042],[18.912,-30.979],[18.984,-30.946],[18.875,-30.887],[18.96,-30.866],[18.952,-30.745],[18.863,-30.717],[18.795,-30.668],[18.796,-30.625],[18.759,-30.568],[18.655,-30.557],[18.57,-30.43],[18.502,-30.444],[18.484,-30.522],[18.522,-30.606],[18.381,-30.46],[18.414,-30.527],[18.371,-30.592],[18.371,-30.66],[18.264,-30.818],[18.195,-30.816],[18.206,-30.831],[18.169,-30.849],[18.081,-30.785],[18.006,-30.791],[17.993,-30.919],[17.88,-30.924],[17.878,-30.949],[17.926,-31.011],[17.811,-31.093],[17.834,-31.177],[17.749,-31.144],[17.682,-31.003],[17.604,-30.916],[17.524,-30.736],[17.47,-30.683],[17.432,-30.62],[17.442,-30.596],[17.272,-30.334],[17.269,-30.288],[17.223,-30.165],[17.194,-30.136],[17.159,-29.983],[17.118,-29.932],[17.106,-29.868],[17.075,-29.814],[17.056,-29.689],[17.034,-29.617],[16.998,-29.571],[17.006,-29.554],[16.971,-29.438],[16.838,-29.212],[16.817,-29.093],[16.748,-29.043],[16.689,-28.926],[16.603,-28.875],[16.562,-28.762],[16.57,-28.728],[16.452,-28.632],[16.456,-28.592],[16.481,-28.565],[16.602,-28.531],[16.621,-28.5],[16.672,-28.472],[16.694,-28.474],[16.702,-28.498],[16.734,-28.494],[16.777,-28.442],[16.769,-28.396],[16.808,-28.362],[16.755,-28.302],[16.754,-28.273],[16.776,-28.259],[16.802,-28.275],[16.825,-28.269],[16.826,-28.245],[16.803,-28.222],[16.856,-28.212],[16.831,-28.167],[16.871,-28.182],[16.888,-28.173],[16.886,-28.088],[16.905,-28.071],[16.955,-28.076],[16.974,-28.059],[17.003,-28.075],[17.022,-28.052],[17.079,-28.033],[17.138,-28.093],[17.192,-28.108],[17.182,-28.203],[17.215,-28.248],[17.333,-28.226],[17.382,-28.296],[17.376,-28.321],[17.414,-28.376],[17.41,-28.4],[17.385,-28.437],[17.349,-28.439],[17.333,-28.476],[17.366,-28.51],[17.38,-28.569],[17.432,-28.574],[17.418,-28.722],[17.491,-28.693],[17.542,-28.701],[17.568,-28.686],[17.599,-28.695],[17.616,-28.761],[17.647,-28.774],[17.704,-28.745],[17.731,-28.76],[17.75,-28.74],[17.781,-28.758],[17.918,-28.764],[17.935,-28.787],[17.963,-28.785],[17.994,-28.81],[18.046,-28.874],[18.083,-28.871],[18.188,-28.916],[18.219,-28.894],[18.253,-28.896],[18.263,-28.879],[18.35,-28.881],[18.423,-28.901],[18.471,-28.883],[18.512,-28.889],[18.538,-28.866],[18.628,-28.841],[18.73,-28.832],[18.936,-28.857],[18.993,-28.887],[19.009,-28.929],[19.042,-28.931],[19.098,-28.966],[19.155,-28.962],[19.197,-28.947],[19.245,-28.903],[19.283,-28.909],[19.296,-28.894],[19.256,-28.858],[19.239,-28.813],[19.269,-28.743],[19.404,-28.737],[19.467,-28.706],[19.491,-28.68],[19.504,-28.601],[19.536,-28.587],[19.546,-28.544],[19.566,-28.528],[19.625,-28.511],[19.668,-28.531],[19.739,-28.486],[19.813,-28.508],[19.877,-28.443],[19.999,-28.428],[19.999,-24.766],[20.038,-24.809],[20.09,-24.833],[20.088,-24.852],[20.121,-24.885],[20.15,-24.88],[20.182,-24.912],[20.204,-24.896],[20.222,-24.92],[20.259,-24.924],[20.297,-24.981],[20.384,-25.034],[20.379,-25.062],[20.413,-25.083],[20.431,-25.154],[20.469,-25.157],[20.446,-25.199],[20.471,-25.228],[20.499,-25.228],[20.487,-25.253],[20.5,-25.272],[20.546,-25.286],[20.514,-25.317],[20.547,-25.321],[20.539,-25.345],[20.562,-25.389],[20.602,-25.395],[20.601,-25.427],[20.631,-25.425],[20.616,-25.445],[20.623,-25.462],[20.674,-25.453],[20.668,-25.47],[20.636,-25.473],[20.643,-25.498],[20.629,-25.525],[20.67,-25.55],[20.698,-25.595],[20.665,-25.604],[20.652,-25.637],[20.688,-25.635],[20.678,-25.69],[20.718,-25.719],[20.732,-25.772],[20.763,-25.78],[20.739,-25.823],[20.788,-25.803],[20.783,-25.855],[20.813,-25.87],[20.803,-25.921],[20.84,-25.956],[20.815,-26.006],[20.836,-26.036],[20.819,-26.059],[20.842,-26.08],[20.821,-26.105],[20.863,-26.133],[20.819,-26.182],[20.79,-26.271],[20.72,-26.334],[20.693,-26.398],[20.617,-26.444],[20.605,-26.515],[20.61,-26.56],[20.633,-26.592],[20.635,-26.665],[20.614,-26.687],[20.638,-26.767],[20.622,-26.787],[20.65,-26.81],[20.645,-26.829],[20.683,-26.841],[20.685,-26.907],[20.715,-26.87],[20.764,-26.866],[20.787,-26.842],[20.816,-26.842],[20.821,-26.819],[20.898,-26.796],[20.947,-26.814],[20.972,-26.807],[21.011,-26.847],[21.079,-26.849],[21.134,-26.874],[21.222,-26.844],[21.299,-26.849],[21.333,-26.826],[21.405,-26.822],[21.525,-26.862],[21.541,-26.843],[21.576,-26.84],[21.627,-26.867],[21.698,-26.86],[21.781,-26.802],[21.793,-26.771],[21.772,-26.689],[21.824,-26.66],[21.949,-26.67],[22.051,-26.633],[22.079,-26.579],[22.163,-26.508],[22.16,-26.483],[22.182,-26.469],[22.182,-26.439],[22.2,-26.425],[22.195,-26.394],[22.239,-26.371],[22.247,-26.347],[22.363,-26.326],[22.363,-26.286],[22.403,-26.273],[22.399,-26.248],[22.42,-26.224],[22.454,-26.228],[22.474,-26.2],[22.553,-26.225],[22.578,-26.192],[22.578,-26.143],[22.6,-26.152],[22.618,-26.124],[22.703,-26.12],[22.709,-26.411],[22.803,-26.454],[22.848,-26.376],[22.907,-26.146],[22.981,-26.153],[22.987,-26.09],[23.065,-26.099],[23.088,-26.044],[23.087,-25.983],[23.321,-25.993],[23.387,-26.006],[23.354,-26.089],[23.232,-26.053],[23.216,-26.116],[23.252,-26.114],[23.311,-26.142],[23.222,-26.271],[23.282,-26.339],[23.266,-26.485],[23.463,-26.531],[23.584,-26.617],[23.487,-26.74],[23.761,-26.841],[23.853,-26.89],[23.87,-26.857],[23.917,-26.858],[23.97,-26.894],[24.026,-26.999],[24.037,-27.054],[23.976,-27.079],[23.896,-27.253],[24.064,-27.353],[24.086,-27.353],[24.052,-27.463],[24.051,-27.603],[24.119,-27.622],[24.093,-27.705],[24.111,-27.739],[24.405,-27.681],[24.447,-27.703],[24.409,-27.761],[24.453,-27.783],[24.427,-27.841],[24.41,-27.843],[24.36,-27.911],[24.393,-27.942],[24.41,-27.923],[24.467,-27.981],[24.445,-28.032],[24.535,-28.092],[24.564,-28.07],[24.559,-28.039],[24.609,-28.027],[24.628,-28.0],[24.629,-27.935],[24.607,-27.898],[24.63,-27.903],[24.658,-27.853],[24.697,-27.848],[24.688,-27.837],[24.699,-27.828],[24.659,-27.791],[24.694,-27.736],[24.673,-27.686],[24.692,-27.645],[24.762,-27.633],[24.757,-27.61],[24.784,-27.605],[24.801,-27.702],[25.0,-27.681],[25.048,-27.7],[24.847,-27.911],[24.862,-27.908],[24.857,-27.925],[24.83,-27.931],[24.951,-28.113],[24.973,-28.081],[25.028,-28.073],[24.965,-28.251],[24.927,-28.247],[24.905,-28.275],[24.87,-28.27],[24.89,-28.31],[24.938,-28.325],[24.887,-28.465],[24.847,-28.504],[24.868,-28.517],[24.828,-28.627],[24.902,-28.648],[24.347,-29.656],[24.349,-29.703],[24.439,-29.815],[24.498,-29.816],[24.503,-29.836],[24.547,-29.845],[24.608,-29.911],[24.665,-29.902],[24.674,-29.976],[24.794,-29.999],[24.808,-30.023],[24.798,-30.052],[24.838,-30.095],[24.838,-30.118],[24.871,-30.135],[24.9,-30.207],[24.925,-30.201],[24.954,-30.226],[24.947,-30.252],[24.986,-30.29],[25.034,-30.286],[25.047,-30.316],[25.038,-30.362],[25.064,-30.357],[25.096,-30.373],[25.19,-30.498],[25.235,-30.5],[25.305,-30.577],[25.334,-30.558],[25.375,-30.559],[25.467,-30.624],[25.462,-30.722]]]}},{"type":"Feature","properties":{"admin_code":"ZA-NW","name":"North West","name_local":"Noordwes"},"geometry":{"type":"Polygon","coordinates":[[[27.57,-26.747],[27.576,-26.779],[27.509,-26.786],[27.511,-26.838],[27.487,-26.849],[27.476,-26.883],[27.414,-26.926],[27.371,-26.904],[27.333,-26.854],[27.306,-26.853],[27.218,-26.946],[27.203,-26.98],[27.174,-26.968],[27.176,-26.925],[27.143,-26.942],[27.113,-26.926],[27.028,-26.936],[26.956,-26.9],[26.94,-26.871],[26.92,-26.906],[26.92,-26.973],[26.908,-26.945],[26.863,-26.919],[26.831,-26.949],[26.811,-26.951],[26.805,-26.932],[26.715,-26.974],[26.689,-27.018],[26.669,-26.995],[26.619,-27.003],[26.582,-27.053],[26.594,-27.079],[26.584,-27.108],[26.529,-27.091],[26.473,-27.154],[26.429,-27.15],[26.42,-27.168],[26.438,-27.21],[26.497,-27.268],[26.493,-27.319],[26.475,-27.308],[26.446,-27.35],[26.511,-27.395],[26.452,-27.386],[26.423,-27.407],[26.346,-27.385],[26.324,-27.433],[26.296,-27.416],[26.242,-27.431],[26.22,-27.474],[26.229,-27.512],[26.17,-27.536],[26.154,-27.564],[26.134,-27.558],[26.113,-27.593],[26.084,-27.595],[26.075,-27.62],[26.086,-27.648],[26.055,-27.669],[26.095,-27.69],[26.066,-27.719],[26.026,-27.735],[26.003,-27.707],[26.005,-27.653],[25.982,-27.627],[25.947,-27.633],[25.924,-27.603],[25.896,-27.61],[25.891,-27.626],[25.858,-27.624],[25.827,-27.567],[25.679,-27.63],[25.665,-27.694],[25.591,-27.655],[25.556,-27.687],[25.481,-27.693],[25.469,-27.711],[25.395,-27.729],[25.34,-27.793],[25.275,-27.796],[25.238,-27.834],[25.254,-27.865],[25.198,-27.889],[25.161,-27.927],[25.134,-27.925],[25.131,-27.951],[25.091,-27.984],[25.107,-28.012],[25.074,-28.066],[24.973,-28.081],[24.951,-28.113],[24.83,-27.931],[24.857,-27.925],[24.862,-27.908],[24.847,-27.911],[25.048,-27.7],[25.0,-27.681],[24.801,-27.702],[24.784,-27.605],[24.757,-27.61],[24.762,-27.633],[24.692,-27.645],[24.678,-27.667],[24.694,-27.736],[24.659,-27.791],[24.699,-27.828],[24.688,-27.837],[24.697,-27.848],[24.658,-27.853],[24.63,-27.903],[24.607,-27.898],[24.629,-27.935],[24.628,-28.0],[24.609,-28.027],[24.559,-28.039],[24.564,-28.07],[24.535,-28.092],[24.445,-28.032],[24.467,-27.981],[24.41,-27.923],[24.393,-27.942],[24.36,-27.911],[24.41,-27.843],[24.427,-27.841],[24.453,-27.783],[24.409,-27.761],[24.447,-27.703],[24.405,-27.681],[24.111,-27.739],[24.093,-27.705],[24.119,-27.622],[24.051,-27.603],[24.049,-27.559],[24.058,-27.429],[24.086,-27.353],[24.064,-27.353],[23.896,-27.253],[23.976,-27.079],[24.037,-27.054],[24.026,-26.999],[23.97,-26.894],[23.917,-26.858],[23.87,-26.857],[23.853,-26.89],[23.761,-26.841],[23.487,-26.74],[23.584,-26.617],[23.463,-26.531],[23.266,-26.485],[23.282,-26.339],[23.222,-26.271],[23.311,-26.142],[23.252,-26.114],[23.216,-26.116],[23.232,-26.053],[23.354,-26.089],[23.387,-26.006],[23.087,-25.983],[23.088,-26.044],[23.065,-26.099],[22.987,-26.09],[22.981,-26.153],[22.907,-26.146],[22.848,-26.376],[22.803,-26.454],[22.709,-26.411],[22.703,-26.12],[22.631,-26.123],[22.63,-26.097],[22.673,-26.074],[22.668,-26.015],[22.726,-26.014],[22.724,-25.95],[22.749,-25.918],[22.712,-25.893],[22.738,-25.882],[22.736,-25.857],[22.782,-25.824],[22.735,-25.794],[22.759,-25.789],[22.769,-25.733],[22.8,-25.723],[22.821,-25.69],[22.83,-25.658],[22.8,-25.633],[22.853,-25.615],[22.814,-25.582],[22.853,-25.534],[22.86,-25.507],[22.846,-25.49],[22.9,-25.487],[22.886,-25.468],[22.912,-25.419],[22.97,-25.381],[22.978,-25.34],[23.011,-25.336],[23.008,-25.298],[23.031,-25.313],[23.054,-25.289],[23.054,-25.319],[23.077,-25.332],[23.107,-25.304],[23.135,-25.317],[23.212,-25.273],[23.278,-25.274],[23.295,-25.294],[23.356,-25.285],[23.368,-25.303],[23.414,-25.316],[23.442,-25.277],[23.467,-25.277],[23.458,-25.298],[23.494,-25.318],[23.496,-25.352],[23.524,-25.34],[23.56,-25.355],[23.557,-25.372],[23.584,-25.376],[23.589,-25.396],[23.616,-25.384],[23.612,-25.404],[23.633,-25.411],[23.637,-25.432],[23.668,-25.416],[23.667,-25.442],[23.696,-25.446],[23.703,-25.462],[23.729,-25.446],[23.758,-25.469],[23.763,-25.503],[23.821,-25.513],[23.809,-25.545],[23.835,-25.541],[23.84,-25.568],[23.88,-25.577],[23.883,-25.595],[23.907,-25.605],[23.905,-25.628],[23.946,-25.638],[23.973,-25.615],[24.012,-25.624],[24.005,-25.651],[24.03,-25.634],[24.059,-25.652],[24.068,-25.631],[24.086,-25.643],[24.157,-25.608],[24.159,-25.63],[24.192,-25.62],[24.227,-25.644],[24.261,-25.707],[24.288,-25.694],[24.285,-25.726],[24.325,-25.71],[24.325,-25.732],[24.375,-25.764],[24.447,-25.734],[24.682,-25.824],[24.729,-25.804],[24.795,-25.825],[24.813,-25.81],[24.897,-25.811],[24.913,-25.784],[25.037,-25.722],[25.104,-25.741],[25.121,-25.764],[25.342,-25.769],[25.581,-25.639],[25.66,-25.474],[25.7,-25.291],[25.729,-25.257],[25.861,-24.924],[25.882,-24.914],[25.873,-24.905],[25.889,-24.882],[25.863,-24.808],[25.842,-24.79],[25.848,-24.755],[25.964,-24.749],[26.007,-24.724],[26.393,-24.637],[26.428,-24.658],[26.426,-24.771],[26.459,-24.79],[26.458,-24.809],[26.566,-24.82],[26.622,-24.81],[26.699,-24.867],[26.705,-24.857],[26.751,-24.883],[26.78,-24.838],[26.943,-24.776],[26.981,-24.776],[26.976,-24.721],[27.026,-24.719],[27.041,-24.887],[27.101,-24.9],[27.154,-24.979],[27.183,-24.949],[27.226,-24.964],[27.203,-25.033],[27.232,-25.036],[27.224,-25.067],[27.272,-25.037],[27.314,-25.042],[27.337,-25.088],[27.482,-25.067],[27.543,-25.098],[27.594,-25.029],[27.597,-24.985],[27.629,-24.974],[27.687,-24.994],[27.789,-24.967],[27.946,-25.001],[27.955,-24.97],[27.984,-24.958],[28.037,-24.985],[28.12,-24.979],[28.125,-25.005],[28.26,-25.05],[28.215,-25.128],[28.174,-25.12],[28.154,-25.087],[28.084,-25.1],[28.094,-25.148],[28.129,-25.146],[28.136,-25.206],[28.211,-25.198],[28.246,-25.213],[28.298,-25.293],[28.298,-25.339],[28.228,-25.354],[28.201,-25.324],[28.177,-25.329],[28.177,-25.366],[28.111,-25.379],[28.108,-25.367],[28.045,-25.402],[28.0,-25.359],[27.971,-25.363],[27.946,-25.407],[27.97,-25.439],[27.992,-25.425],[28.036,-25.471],[28.008,-25.484],[27.992,-25.518],[28.052,-25.536],[28.05,-25.56],[27.981,-25.543],[27.958,-25.593],[27.981,-25.633],[27.952,-25.654],[27.948,-25.695],[27.979,-25.751],[27.949,-25.76],[27.96,-25.816],[27.926,-25.824],[27.94,-25.837],[27.901,-25.841],[27.898,-25.86],[27.883,-25.862],[27.892,-25.823],[27.859,-25.819],[27.831,-25.86],[27.745,-25.895],[27.743,-25.85],[27.685,-25.875],[27.664,-25.84],[27.647,-25.841],[27.644,-25.796],[27.547,-25.851],[27.462,-25.868],[27.457,-25.982],[27.45,-26.016],[27.434,-26.023],[27.419,-26.117],[27.362,-26.116],[27.358,-26.155],[27.291,-26.145],[27.33,-26.282],[27.188,-26.378],[27.225,-26.444],[27.231,-26.505],[27.156,-26.524],[27.183,-26.575],[27.228,-26.571],[27.242,-26.636],[27.344,-26.613],[27.339,-26.572],[27.366,-26.574],[27.378,-26.611],[27.426,-26.649],[27.455,-26.63],[27.569,-26.647],[27.574,-26.716],[27.603,-26.692],[27.602,-26.723],[27.581,-26.731],[27.59,-26.738],[27.57,-26.747]]]}},{"type":"Feature","properties":{"admin_code":"ZA-WC","name":"Western Cape","name_local":"Wes-Kaap"},"geometry":{"type":"MultiPolygon","coordinates":[[[[17.986,-33.151],[17.985,-33.154],[17.979,-33.152],[17.986,-33.151]]],[[[17.993,-33.146],[17.994,-33.147],[17.991,-33.148],[17.993,-33.146]]],[[[18.021,-33.088],[18.027,-33.091],[18.024,-33.095],[18.021,-33.088]]],[[[18.011,-33.085],[18.011,-33.087],[18.006,-33.086],[18.011,-33.085]]],[[[17.951,-33.083],[17.951,-33.081],[17.96,-33.083],[17.951,-33.083]]],[[[17.923,-33.054],[17.925,-33.051],[17.93,-33.053],[17.923,-33.054]]],[[[19.415,-34.689],[19.418,-34.687],[19.415,-34.69],[19.415,-34.689]]],[[[19.423,-34.68],[19.414,-34.687],[19.412,-34.684],[19.423,-34.68]]],[[[18.383,-33.812],[18.371,-33.82],[18.357,-33.802],[18.377,-33.796],[18.383,-33.812]]],[[[18.097,-33.425],[18.098,-33.432],[18.072,-33.414],[18.097,-33.425]]],[[[24.153,-31.855],[24.124,-31.847],[24.105,-31.907],[24.164,-31.902],[24.222,-31.956],[24.183,-31.996],[24.189,-32.012],[24.141,-32.012],[24.129,-32.041],[24.141,-32.051],[24.103,-32.07],[24.098,-32.111],[24.11,-32.084],[24.135,-32.098],[24.136,-32.123],[24.1,-32.164],[24.038,-32.158],[24.044,-32.182],[24.031,-32.193],[23.961,-32.207],[23.892,-32.255],[23.851,-32.243],[23.766,-32.179],[23.67,-32.238],[23.649,-32.298],[23.678,-32.329],[23.665,-32.344],[23.449,-32.323],[23.41,-32.389],[23.333,-32.351],[23.307,-32.396],[23.222,-32.425],[23.248,-32.465],[23.244,-32.513],[23.288,-32.551],[23.307,-32.612],[23.301,-32.652],[23.27,-32.671],[23.333,-32.704],[23.354,-32.729],[23.352,-32.764],[23.398,-32.763],[23.379,-32.825],[23.201,-32.785],[23.187,-32.767],[23.149,-32.767],[23.089,-32.799],[23.116,-32.858],[23.098,-32.874],[23.007,-32.873],[23.004,-32.898],[22.949,-32.95],[22.969,-32.993],[22.934,-33.022],[22.958,-33.045],[22.955,-33.073],[22.892,-33.142],[22.877,-33.187],[22.84,-33.22],[22.79,-33.307],[22.774,-33.309],[22.773,-33.326],[22.739,-33.324],[22.736,-33.395],[22.784,-33.416],[22.774,-33.42],[22.935,-33.429],[23.135,-33.388],[23.297,-33.389],[23.364,-33.462],[23.355,-33.441],[23.496,-33.443],[23.604,-33.496],[23.596,-33.573],[23.617,-33.57],[23.62,-33.591],[23.675,-33.626],[23.67,-33.673],[23.586,-33.673],[23.557,-33.652],[23.541,-33.7],[23.44,-33.717],[23.43,-33.762],[23.395,-33.793],[23.489,-33.808],[23.488,-33.791],[23.519,-33.782],[23.557,-33.793],[23.562,-33.829],[23.703,-33.864],[23.647,-33.893],[23.657,-33.907],[23.637,-33.913],[23.647,-33.981],[23.556,-33.983],[23.412,-34.019],[23.384,-34.04],[23.372,-34.079],[23.376,-34.098],[23.407,-34.111],[23.009,-34.072],[22.979,-34.079],[22.98,-34.094],[22.796,-34.031],[22.765,-34.038],[22.58,-33.996],[22.484,-34.052],[22.228,-34.06],[22.16,-34.084],[22.124,-34.118],[22.113,-34.165],[22.147,-34.175],[22.161,-34.188],[21.957,-34.229],[21.912,-34.274],[21.915,-34.291],[21.946,-34.301],[21.908,-34.319],[21.914,-34.339],[21.835,-34.375],[21.696,-34.395],[21.523,-34.357],[21.432,-34.373],[21.429,-34.395],[21.372,-34.423],[21.299,-34.439],[21.102,-34.377],[20.933,-34.366],[20.852,-34.401],[20.872,-34.451],[20.848,-34.475],[20.655,-34.45],[20.478,-34.491],[20.423,-34.532],[20.399,-34.571],[20.247,-34.645],[20.233,-34.662],[20.236,-34.692],[20.168,-34.696],[20.08,-34.737],[20.048,-34.775],[20.064,-34.806],[19.999,-34.834],[19.943,-34.816],[19.872,-34.766],[19.698,-34.763],[19.663,-34.788],[19.638,-34.783],[19.632,-34.755],[19.6,-34.751],[19.592,-34.726],[19.55,-34.712],[19.52,-34.671],[19.45,-34.656],[19.412,-34.607],[19.293,-34.634],[19.379,-34.543],[19.341,-34.461],[19.275,-34.409],[19.218,-34.438],[19.171,-34.416],[19.142,-34.424],[19.121,-34.416],[19.124,-34.395],[19.103,-34.372],[19.042,-34.341],[18.965,-34.363],[18.911,-34.358],[18.893,-34.376],[18.859,-34.375],[18.862,-34.389],[18.843,-34.378],[18.826,-34.388],[18.81,-34.349],[18.832,-34.339],[18.812,-34.299],[18.856,-34.252],[18.818,-34.19],[18.868,-34.159],[18.813,-34.1],[18.773,-34.083],[18.631,-34.073],[18.468,-34.11],[18.432,-34.141],[18.426,-34.187],[18.454,-34.198],[18.477,-34.233],[18.461,-34.319],[18.498,-34.357],[18.472,-34.358],[18.401,-34.308],[18.379,-34.273],[18.37,-34.196],[18.319,-34.148],[18.351,-34.126],[18.35,-34.091],[18.369,-34.063],[18.357,-34.046],[18.34,-34.062],[18.307,-34.04],[18.371,-33.974],[18.377,-33.922],[18.398,-33.901],[18.435,-33.898],[18.417,-33.909],[18.446,-33.92],[18.435,-33.909],[18.437,-33.907],[18.455,-33.915],[18.439,-33.903],[18.466,-33.912],[18.485,-33.89],[18.489,-33.852],[18.446,-33.772],[18.438,-33.693],[18.396,-33.623],[18.357,-33.599],[18.355,-33.579],[18.308,-33.565],[18.325,-33.517],[18.307,-33.481],[18.239,-33.413],[18.147,-33.355],[18.157,-33.323],[18.106,-33.241],[18.015,-33.155],[18.005,-33.148],[17.97,-33.137],[17.973,-33.118],[17.952,-33.106],[17.979,-33.092],[17.972,-33.068],[17.995,-33.07],[18.004,-33.088],[17.982,-33.095],[18.013,-33.096],[18.025,-33.145],[18.095,-33.204],[18.123,-33.192],[18.124,-33.18],[18.085,-33.174],[18.096,-33.168],[18.091,-33.143],[18.032,-33.105],[18.043,-33.05],[18.03,-33.024],[17.997,-33.008],[17.983,-33.032],[17.996,-33.0],[17.968,-32.996],[17.946,-33.007],[17.973,-33.035],[17.971,-33.045],[17.947,-33.026],[17.911,-33.052],[17.893,-33.041],[17.903,-33.015],[17.871,-32.993],[17.886,-32.979],[17.884,-32.93],[17.857,-32.905],[17.883,-32.863],[17.844,-32.825],[17.902,-32.802],[17.895,-32.742],[17.921,-32.714],[17.949,-32.722],[17.967,-32.7],[17.982,-32.705],[17.979,-32.725],[18.015,-32.74],[18.055,-32.784],[18.139,-32.773],[18.247,-32.678],[18.305,-32.587],[18.335,-32.464],[18.314,-32.317],[18.337,-32.314],[18.345,-32.281],[18.3,-32.114],[18.314,-32.071],[18.265,-31.94],[18.28,-31.898],[18.23,-31.817],[18.223,-31.744],[18.152,-31.655],[18.111,-31.575],[17.9,-31.352],[17.863,-31.258],[17.758,-31.152],[17.834,-31.177],[17.811,-31.093],[17.926,-31.011],[17.878,-30.949],[17.88,-30.924],[17.993,-30.919],[18.006,-30.791],[18.081,-30.785],[18.169,-30.849],[18.206,-30.831],[18.195,-30.816],[18.214,-30.81],[18.252,-30.828],[18.371,-30.66],[18.371,-30.592],[18.414,-30.527],[18.381,-30.46],[18.522,-30.606],[18.484,-30.522],[18.502,-30.444],[18.57,-30.43],[18.655,-30.557],[18.759,-30.568],[18.796,-30.625],[18.795,-30.668],[18.863,-30.717],[18.952,-30.745],[18.96,-30.866],[18.875,-30.887],[18.984,-30.946],[18.912,-30.979],[18.903,-31.042],[18.948,-31.113],[18.944,-31.237],[18.966,-31.284],[19.013,-31.306],[18.98,-31.355],[19.031,-31.39],[19.043,-31.425],[19.006,-31.512],[19.085,-31.527],[19.052,-31.573],[19.085,-31.572],[19.091,-31.598],[19.071,-31.624],[19.074,-31.667],[19.055,-31.67],[19.095,-31.75],[19.067,-31.766],[19.087,-31.794],[19.03,-31.834],[19.026,-31.877],[19.142,-31.912],[19.156,-31.9],[19.2,-31.905],[19.211,-31.948],[19.29,-31.863],[19.265,-31.966],[19.278,-31.98],[19.29,-31.965],[19.323,-31.985],[19.33,-32.013],[19.363,-32.043],[19.396,-32.015],[19.426,-32.031],[19.486,-32.076],[19.489,-32.121],[19.508,-32.086],[19.515,-32.115],[19.475,-32.146],[19.501,-32.18],[19.492,-32.252],[19.409,-32.29],[19.43,-32.366],[19.516,-32.486],[19.495,-32.499],[19.487,-32.565],[19.528,-32.673],[19.605,-32.629],[19.622,-32.471],[19.655,-32.439],[19.68,-32.464],[19.73,-32.442],[19.707,-32.42],[19.731,-32.41],[19.737,-32.386],[19.764,-32.411],[19.803,-32.394],[19.818,-32.361],[19.874,-32.383],[19.937,-32.377],[20.039,-32.296],[20.054,-32.252],[20.097,-32.25],[20.136,-32.192],[20.181,-32.184],[20.166,-32.227],[20.241,-32.224],[20.254,-32.311],[20.216,-32.303],[20.164,-32.351],[20.17,-32.381],[20.132,-32.421],[20.08,-32.397],[20.097,-32.503],[20.123,-32.557],[20.115,-32.57],[20.141,-32.644],[20.192,-32.686],[20.188,-32.753],[20.219,-32.785],[20.3,-32.805],[20.357,-32.864],[20.364,-32.911],[20.38,-32.902],[20.439,-32.94],[20.499,-32.942],[20.561,-32.881],[20.59,-32.943],[20.65,-32.932],[20.731,-32.945],[20.744,-32.913],[20.799,-32.895],[20.832,-32.817],[20.83,-32.785],[20.79,-32.711],[20.844,-32.662],[20.963,-32.639],[21.094,-32.653],[21.157,-32.629],[21.14,-32.59],[21.182,-32.509],[21.282,-32.44],[21.302,-32.377],[21.353,-32.392],[21.408,-32.369],[21.43,-32.375],[21.476,-32.331],[21.55,-32.327],[21.562,-32.315],[21.536,-32.229],[21.645,-32.209],[21.692,-32.249],[21.736,-32.205],[21.746,-32.225],[21.773,-32.227],[21.781,-32.251],[21.874,-32.277],[21.902,-32.271],[21.907,-32.253],[21.925,-32.262],[21.936,-32.223],[22.0,-32.206],[22.016,-32.114],[22.07,-32.081],[22.09,-32.146],[22.134,-32.064],[22.094,-32.046],[22.074,-32.018],[22.095,-32.001],[22.071,-31.939],[22.1,-31.924],[22.102,-31.901],[22.079,-31.855],[22.167,-31.893],[22.177,-31.821],[22.16,-31.81],[22.206,-31.792],[22.204,-31.764],[22.26,-31.662],[22.273,-31.593],[22.312,-31.583],[22.496,-31.67],[22.565,-31.678],[22.566,-31.713],[22.619,-31.725],[22.578,-31.806],[22.615,-31.823],[22.735,-31.799],[22.777,-31.857],[22.859,-31.818],[22.875,-31.862],[22.902,-31.876],[22.976,-31.861],[23.067,-31.891],[23.053,-31.94],[23.098,-31.978],[23.23,-31.876],[23.225,-31.854],[23.262,-31.815],[23.263,-31.778],[23.302,-31.73],[23.345,-31.711],[23.407,-31.714],[23.416,-31.672],[23.524,-31.705],[23.575,-31.689],[23.619,-31.649],[23.639,-31.66],[23.715,-31.647],[23.756,-31.696],[23.842,-31.715],[23.848,-31.729],[23.809,-31.764],[23.837,-31.768],[23.829,-31.78],[23.894,-31.837],[23.949,-31.773],[23.963,-31.707],[24.047,-31.707],[24.029,-31.73],[24.071,-31.807],[24.152,-31.789],[24.184,-31.813],[24.16,-31.823],[24.153,-31.855]]]]}}]}