{"type":"FeatureCollection","features":[{"type":"Feature","properties":{"admin_code":"BR-AL-ANADIA","name":"Anadia","name_local":"Anadia"},"geometry":{"type":"Polygon","coordinates":[[[-36.2401,-9.6739],[-36.2542,-9.7299],[-36.2791,-9.734],[-36.318,-9.7227],[-36.3291,-9.7054],[-36.3349,-9.7271],[-36.3424,-9.7342],[-36.3443,-9.7125],[-36.3702,-9.6981],[-36.3726,-9.6765],[-36.3795,-9.6577],[-36.3949,-9.6476],[-36.3808,-9.6354],[-36.3886,-9.6288],[-36.3919,-9.6042],[-36.3488,-9.5927],[-36.3445,-9.5998],[-36.3496,-9.6051],[-36.3474,-9.6073],[-36.3175,-9.6122],[-36.2928,-9.6021],[-36.2881,-9.6076],[-36.2542,-9.6226],[-36.2401,-9.6739]]]}},{"type":"Feature","properties":{"admin_code":"BR-AL-ARAPIRACA","name":"Arapiraca","name_local":"Arapiraca"},"geometry":{"type":"MultiPolygon","coordinates":[[[[-36.5833,-9.7152],[-36.5757,-9.7282],[-36.5778,-9.7371],[-36.5727,-9.7498],[-36.5583,-9.764],[-36.5568,-9.7701],[-36.5525,-9.7714],[-36.5653,-9.8009],[-36.5646,-9.8041],[-36.5558,-9.8052],[-36.5488,-9.8099],[-36.5554,-9.8509],[-36.5421,-9.8715],[-36.5431,-9.8802],[-36.5631,-9.8742],[-36.5847,-9.8813],[-36.5912,-9.8778],[-36.6037,-9.843],[-36.6081,-9.8493],[-36.6192,-9.8481],[-36.6255,-9.8521],[-36.6233,-9.8474],[-36.6262,-9.8368],[-36.6938,-9.8026],[-36.7544,-9.7074],[-36.7116,-9.6632],[-36.687,-9.6521],[-36.6861,-9.6354],[-36.6591,-9.6425],[-36.6401,-9.6365],[-36.628,-9.6458],[-36.623,-9.6546],[-36.6112,-9.6531],[-36.6078,-9.6571],[-36.6092,-9.6663],[-36.5952,-9.6845],[-36.5948,-9.6922],[-36.5868,-9.693],[-36.5864,-9.6975],[-36.5768,-9.7082],[-36.5821,-9.7092],[-36.5833,-9.7152]]],[[[-36.571,-9.7086],[-36.5768,-9.7082],[-36.5733,-9.7057],[-36.571,-9.7086]]]]}},{"type":"Feature","properties":{"admin_code":"BR-AL-ATALAIA","name":"Atalaia","name_local":"Atalaia"},"geometry":{"type":"Polygon","coordinates":[[[-36.0069,-9.5849],[-36.0161,-9.5772],[-36.041,-9.5838],[-36.0736,-9.5981],[-36.0931,-9.6009],[-36.1204,-9.5963],[-36.128,-9.5992],[-36.1392,-9.613],[-36.1493,-9.612],[-36.1574,-9.6184],[-36.1746,-9.6119],[-36.1792,-9.613],[-36.1923,-9.5996],[-36.2185,-9.5631],[-36.2268,-9.5147],[-36.2209,-9.4842],[-36.2077,-9.4547],[-36.1546,-9.4721],[-36.1331,-9.4544],[-36.1261,-9.4579],[-36.1003,-9.4522],[-36.0736,-9.4326],[-36.0531,-9.424],[-36.0165,-9.3973],[-36.0144,-9.401],[-35.9287,-9.3751],[-35.9329,-9.4803],[-35.9408,-9.4986],[-35.96,-9.5288],[-36.0069,-9.5849]]]}},{"type":"Feature","properties":{"admin_code":"BR-AL-BARRA_DE_SANTO_ANTONIO","name":"Barra de Santo Antônio","name_local":"Barra de Santo Antônio"},"geometry":{"type":"Polygon","coordinates":[[[-35.4853,-9.3722],[-35.4941,-9.3879],[-35.4974,-9.412],[-35.5036,-9.4191],[-35.5008,-9.4218],[-35.5133,-9.4397],[-35.5237,-9.442],[-35.5449,-9.417],[-35.5485,-9.405],[-35.5759,-9.402],[-35.5949,-9.4076],[-35.6145,-9.4062],[-35.6217,-9.4089],[-35.6414,-9.4022],[-35.6567,-9.4033],[-35.6754,-9.3982],[-35.6905,-9.3709],[-35.5593,-9.3575],[-35.537,-9.3474],[-35.5324,-9.3471],[-35.5235,-9.3543],[-35.5179,-9.3538],[-35.5138,-9.3441],[-35.5199,-9.3244],[-35.5141,-9.3141],[-35.473,-9.3585],[-35.4853,-9.3722]]]}},{"type":"Feature","properties":{"admin_code":"BR-AL-BARRA_DE_SAO_MIGUEL","name":"Barra de São Miguel","name_local":"Barra de São Miguel"},"geometry":{"type":"Polygon","coordinates":[[[-35.8858,-9.8352],[-35.9063,-9.8525],[-35.9168,-9.8394],[-35.922,-9.8379],[-35.9383,-9.8448],[-35.9503,-9.8449],[-35.9626,-9.8333],[-35.9746,-9.8268],[-35.9832,-9.8261],[-35.9907,-9.8188],[-35.9966,-9.8195],[-36.0147,-9.8087],[-36.0247,-9.8119],[-36.0272,-9.8095],[-36.0046,-9.7671],[-35.9943,-9.7799],[-35.9614,-9.7898],[-35.9533,-9.7868],[-35.9417,-9.788],[-35.9377,-9.7937],[-35.9262,-9.796],[-35.9208,-9.8041],[-35.9063,-9.8116],[-35.8583,-9.79],[-35.8858,-9.8352]]]}},{"type":"Feature","properties":{"admin_code":"BR-AL-BATALHA","name":"Batalha","name_local":"Batalha"},"geometry":{"type":"Polygon","coordinates":[[[-37.0595,-9.6827],[-36.9945,-9.7221],[-37.0,-9.7337],[-36.9987,-9.7625],[-37.0154,-9.7707],[-37.0218,-9.7856],[-37.0316,-9.7881],[-37.0377,-9.8041],[-37.0432,-9.8084],[-37.0638,-9.7917],[-37.0923,-9.7942],[-37.1027,-9.7903],[-37.1552,-9.7605],[-37.1682,-9.7416],[-37.1847,-9.7367],[-37.2179,-9.711],[-37.2195,-9.7028],[-37.213,-9.6939],[-37.191,-9.6903],[-37.1534,-9.617],[-37.1043,-9.6074],[-37.052,-9.6187],[-37.0463,-9.6224],[-37.0595,-9.6827]]]}},{"type":"Feature","properties":{"admin_code":"BR-AL-BELO_MONTE","name":"Belo Monte","name_local":"Belo Monte"},"geometry":{"type":"Polygon","coordinates":[[[-37.1847,-9.7367],[-37.1682,-9.7416],[-37.1552,-9.7605],[-37.1027,-9.7903],[-37.0923,-9.7942],[-37.0638,-9.7917],[-37.0432,-9.8084],[-37.1043,-9.8478],[-37.1078,-9.8651],[-37.1161,-9.8709],[-37.1196,-9.8892],[-37.1258,-9.8936],[-37.133,-9.9135],[-37.1529,-9.9009],[-37.1798,-9.898],[-37.2265,-9.8995],[-37.2398,-9.8931],[-37.2511,-9.8781],[-37.2569,-9.8603],[-37.2651,-9.8494],[-37.2854,-9.8308],[-37.2965,-9.8277],[-37.2979,-9.8185],[-37.3095,-9.8042],[-37.3026,-9.789],[-37.287,-9.7769],[-37.2873,-9.7724],[-37.2773,-9.773],[-37.2728,-9.765],[-37.2517,-9.7495],[-37.249,-9.7374],[-37.2387,-9.7357],[-37.2354,-9.7297],[-37.2307,-9.7297],[-37.2306,-9.7249],[-37.2282,-9.7218],[-37.2241,-9.7224],[-37.2179,-9.711],[-37.1847,-9.7367]]]}},{"type":"Feature","properties":{"admin_code":"BR-AL-BELEM","name":"Belém","name_local":"Belém"},"geometry":{"type":"Polygon","coordinates":[[[-36.4459,-9.606],[-36.4542,-9.6156],[-36.4605,-9.6178],[-36.465,-9.6176],[-36.4696,-9.6061],[-36.4952,-9.6039],[-36.5385,-9.5331],[-36.5264,-9.5275],[-36.524,-9.5121],[-36.5182,-9.5038],[-36.5005,-9.4994],[-36.4907,-9.5026],[-36.4459,-9.606]]]}},{"type":"Feature","properties":{"admin_code":"BR-AL-BOCA_DA_MATA","name":"Boca da Mata","name_local":"Boca da Mata"},"geometry":{"type":"Polygon","coordinates":[[[-36.2401,-9.6739],[-36.2542,-9.6226],[-36.2499,-9.6233],[-36.24,-9.5934],[-36.1923,-9.5996],[-36.1792,-9.613],[-36.1762,-9.6209],[-36.1554,-9.6256],[-36.142,-9.6389],[-36.1411,-9.6448],[-36.1341,-9.6458],[-36.1326,-9.65],[-36.117,-9.6497],[-36.1042,-9.6402],[-36.0943,-9.6557],[-36.0907,-9.6561],[-36.0739,-9.674],[-36.0794,-9.6803],[-36.0686,-9.6891],[-36.074,-9.7009],[-36.1809,-9.7224],[-36.2467,-9.7321],[-36.2542,-9.7299],[-36.2401,-9.6739]]]}},{"type":"Feature","properties":{"admin_code":"BR-AL-BRANQUINHA","name":"Branquinha","name_local":"Branquinha"},"geometry":{"type":"Polygon","coordinates":[[[-36.0449,-9.2771],[-36.065,-9.273],[-36.0686,-9.261],[-36.0814,-9.2658],[-36.0935,-9.2649],[-36.2008,-9.2187],[-36.1285,-9.2017],[-36.1119,-9.208],[-36.089,-9.2014],[-36.0806,-9.206],[-36.0672,-9.2067],[-36.0599,-9.2154],[-35.8864,-9.1383],[-36.0029,-9.266],[-36.0426,-9.281],[-36.0449,-9.2771]]]}},{"type":"Feature","properties":{"admin_code":"BR-AL-CACIMBINHAS","name":"Cacimbinhas","name_local":"Cacimbinhas"},"geometry":{"type":"Polygon","coordinates":[[[-36.9524,-9.3825],[-36.9451,-9.3826],[-36.9368,-9.3774],[-36.9014,-9.3977],[-36.8263,-9.3908],[-36.8322,-9.4092],[-36.8285,-9.4121],[-36.8293,-9.428],[-36.8453,-9.4414],[-36.84,-9.469],[-36.8436,-9.4749],[-36.8415,-9.4792],[-36.8433,-9.4865],[-36.8311,-9.5015],[-36.8326,-9.5072],[-36.8409,-9.5123],[-36.8328,-9.5269],[-36.8368,-9.5327],[-36.8432,-9.5318],[-36.8562,-9.5456],[-36.8686,-9.5445],[-36.8781,-9.5341],[-36.9071,-9.527],[-36.95,-9.503],[-36.9797,-9.4842],[-36.9835,-9.4751],[-37.0011,-9.4581],[-37.0048,-9.4491],[-37.0187,-9.4341],[-37.0207,-9.4157],[-37.039,-9.4174],[-37.0227,-9.3695],[-36.9941,-9.3743],[-36.9793,-9.3594],[-36.9524,-9.3825]]]}},{"type":"Feature","properties":{"admin_code":"BR-AL-CAJUEIRO","name":"Cajueiro","name_local":"Cajueiro"},"geometry":{"type":"Polygon","coordinates":[[[-36.2111,-9.453],[-36.1545,-9.305],[-36.1202,-9.3311],[-36.1229,-9.3743],[-36.1596,-9.4675],[-36.1546,-9.4721],[-36.2111,-9.453]]]}},{"type":"Feature","properties":{"admin_code":"BR-AL-CAMPESTRE","name":"Campestre","name_local":"Campestre"},"geometry":{"type":"Polygon","coordinates":[[[-35.5626,-8.8317],[-35.5474,-8.8272],[-35.5394,-8.8207],[-35.5483,-8.8445],[-35.5373,-8.8852],[-35.5355,-8.8883],[-35.5154,-8.8818],[-35.5005,-8.8901],[-35.4965,-8.8991],[-35.5001,-8.9195],[-35.4964,-8.9232],[-35.4967,-8.9314],[-35.4912,-8.9426],[-35.5075,-8.9497],[-35.5235,-8.9464],[-35.5266,-8.9447],[-35.5315,-8.9275],[-35.5389,-8.9242],[-35.5524,-8.9059],[-35.5735,-8.9144],[-35.5795,-8.9101],[-35.5855,-8.8925],[-35.5767,-8.8661],[-35.5819,-8.8614],[-35.5626,-8.8317]]]}},{"type":"Feature","properties":{"admin_code":"BR-AL-CAMPO_ALEGRE","name":"Campo Alegre","name_local":"Campo Alegre"},"geometry":{"type":"Polygon","coordinates":[[[-36.3349,-9.7271],[-36.3291,-9.7054],[-36.318,-9.7227],[-36.2791,-9.734],[-36.2542,-9.7299],[-36.244,-9.7339],[-36.2397,-9.7414],[-36.1849,-9.7965],[-36.185,-9.8006],[-36.2047,-9.8045],[-36.2063,-9.8073],[-36.1975,-9.8265],[-36.1986,-9.8378],[-36.2121,-9.8432],[-36.2191,-9.8371],[-36.2398,-9.8717],[-36.1817,-9.8797],[-36.1783,-9.8893],[-36.281,-9.9355],[-36.2779,-9.8922],[-36.3142,-9.8863],[-36.3255,-9.8767],[-36.3371,-9.8537],[-36.378,-9.8115],[-36.3969,-9.7898],[-36.4002,-9.7821],[-36.3938,-9.7743],[-36.3796,-9.7668],[-36.3693,-9.7655],[-36.3593,-9.7683],[-36.3538,-9.7568],[-36.3607,-9.7528],[-36.3535,-9.747],[-36.3474,-9.7479],[-36.3424,-9.7342],[-36.3349,-9.7271]]]}},{"type":"Feature","properties":{"admin_code":"BR-AL-CAMPO_GRANDE","name":"Campo Grande","name_local":"Campo Grande"},"geometry":{"type":"Polygon","coordinates":[[[-36.7062,-9.9991],[-36.7051,-10.0185],[-36.7129,-10.0447],[-36.7882,-10.0211],[-36.7882,-10.0158],[-36.7992,-10.0062],[-36.8099,-10.0093],[-36.8205,-10.0028],[-36.8344,-10.0124],[-36.8424,-10.0103],[-36.8378,-10.0016],[-36.8274,-9.9978],[-36.8101,-9.9826],[-36.7948,-9.9549],[-36.7896,-9.9259],[-36.7804,-9.9119],[-36.76,-9.8997],[-36.7514,-9.8844],[-36.7374,-9.8901],[-36.7349,-9.8884],[-36.726,-9.9038],[-36.7184,-9.9014],[-36.7035,-9.9117],[-36.6923,-9.9118],[-36.6931,-9.9175],[-36.688,-9.9274],[-36.674,-9.9362],[-36.6735,-9.9406],[-36.6832,-9.9543],[-36.6866,-9.9655],[-36.7062,-9.9991]]]}},{"type":"Feature","properties":{"admin_code":"BR-AL-CANAPI","name":"Canapi","name_local":"Canapi"},"geometry":{"type":"Polygon","coordinates":[[[-37.5039,-8.9661],[-37.499,-8.9694],[-37.4914,-8.9916],[-37.4835,-8.9895],[-37.4612,-9.0006],[-37.4305,-9.0076],[-37.4182,-9.0067],[-37.3968,-9.0198],[-37.3947,-9.0416],[-37.4038,-9.0494],[-37.4063,-9.0618],[-37.4109,-9.0637],[-37.42,-9.0767],[-37.4209,-9.0904],[-37.4266,-9.1017],[-37.4244,-9.1303],[-37.4191,-9.136],[-37.424,-9.1505],[-37.4221,-9.1604],[-37.4359,-9.1836],[-37.4436,-9.1917],[-37.4569,-9.198],[-37.4586,-9.2024],[-37.4757,-9.2116],[-37.4809,-9.2244],[-37.4876,-9.2254],[-37.4894,-9.2297],[-37.5172,-9.2422],[-37.5277,-9.2582],[-37.5423,-9.2592],[-37.549,-9.2671],[-37.5635,-9.2728],[-37.5723,-9.283],[-37.5938,-9.2882],[-37.6084,-9.2734],[-37.607,-9.257],[-37.6109,-9.2489],[-37.6178,-9.2459],[-37.6173,-9.2374],[-37.6084,-9.231],[-37.6082,-9.2275],[-37.6212,-9.1948],[-37.6574,-9.1883],[-37.6816,-9.1793],[-37.6642,-9.1604],[-37.6595,-9.1375],[-37.6535,-9.1279],[-37.59,-9.0607],[-37.5196,-8.9677],[-37.5039,-8.9661]]]}},{"type":"Feature","properties":{"admin_code":"BR-AL-CAPELA","name":"Capela","name_local":"Capela"},"geometry":{"type":"Polygon","coordinates":[[[-36.0531,-9.424],[-36.0736,-9.4326],[-36.1003,-9.4522],[-36.1261,-9.4579],[-36.1331,-9.4544],[-36.1546,-9.4721],[-36.1596,-9.4675],[-36.1229,-9.3743],[-36.1202,-9.3311],[-36.1545,-9.305],[-36.2008,-9.2187],[-36.0935,-9.2649],[-36.0814,-9.2658],[-36.0686,-9.261],[-36.065,-9.273],[-36.0449,-9.2771],[-36.0426,-9.281],[-36.0576,-9.2873],[-36.065,-9.2811],[-36.0618,-9.2899],[-36.0571,-9.2911],[-36.0406,-9.3082],[-36.0337,-9.3057],[-36.0292,-9.3089],[-36.033,-9.3119],[-36.0429,-9.3117],[-36.0539,-9.3213],[-36.047,-9.3276],[-36.0422,-9.3393],[-36.0365,-9.3421],[-36.0009,-9.3214],[-35.9953,-9.3238],[-36.0028,-9.3321],[-36.0004,-9.3387],[-36.0041,-9.3464],[-36.0031,-9.3574],[-36.014,-9.3615],[-35.9961,-9.3836],[-36.0531,-9.424]]]}},{"type":"Feature","properties":{"admin_code":"BR-AL-CARNEIROS","name":"Carneiros","name_local":"Carneiros"},"geometry":{"type":"Polygon","coordinates":[[[-37.2698,-9.4572],[-37.3208,-9.4684],[-37.3803,-9.5028],[-37.3728,-9.5249],[-37.4443,-9.4771],[-37.4499,-9.4533],[-37.3185,-9.4206],[-37.2694,-9.4538],[-37.2698,-9.4572]]]}},{"type":"Feature","properties":{"admin_code":"BR-AL-CHA_PRETA","name":"Chã Preta","name_local":"Chã Preta"},"geometry":{"type":"Polygon","coordinates":[[[-36.3493,-9.2151],[-36.3545,-9.2042],[-36.3526,-9.2011],[-36.3401,-9.2069],[-36.3318,-9.2038],[-36.3214,-9.1853],[-36.312,-9.179],[-36.3093,-9.1724],[-36.307,-9.1782],[-36.2967,-9.1759],[-36.2942,-9.1725],[-36.2866,-9.1834],[-36.2008,-9.2187],[-36.2365,-9.291],[-36.2985,-9.3109],[-36.3006,-9.3032],[-36.325,-9.2965],[-36.3231,-9.2894],[-36.3268,-9.2854],[-36.3267,-9.275],[-36.3362,-9.2712],[-36.3405,-9.2411],[-36.3463,-9.2367],[-36.3539,-9.2208],[-36.3493,-9.2151]]]}},{"type":"Feature","properties":{"admin_code":"BR-AL-COITE_DO_NOIA","name":"Coité do Nóia","name_local":"Coité do Nóia"},"geometry":{"type":"Polygon","coordinates":[[[-36.5868,-9.693],[-36.5948,-9.6922],[-36.5952,-9.6845],[-36.6092,-9.6663],[-36.6078,-9.6571],[-36.6112,-9.6531],[-36.6068,-9.6533],[-36.6111,-9.6436],[-36.6097,-9.6352],[-36.6159,-9.6273],[-36.6274,-9.6324],[-36.6303,-9.6296],[-36.6234,-9.6216],[-36.6143,-9.6217],[-36.6123,-9.6179],[-36.6149,-9.609],[-36.6241,-9.6029],[-36.622,-9.5795],[-36.604,-9.5758],[-36.6006,-9.5682],[-36.5846,-9.5727],[-36.5705,-9.563],[-36.5512,-9.6207],[-36.5438,-9.6277],[-36.5358,-9.6645],[-36.5664,-9.6823],[-36.5824,-9.7005],[-36.5868,-9.693]]]}},{"type":"Feature","properties":{"admin_code":"BR-AL-COLONIA_LEOPOLDINA","name":"Colônia Leopoldina","name_local":"Colônia Leopoldina"},"geometry":{"type":"Polygon","coordinates":[[[-35.8212,-8.8568],[-35.8072,-8.8599],[-35.796,-8.8476],[-35.7902,-8.8532],[-35.7882,-8.851],[-35.7757,-8.8636],[-35.7829,-8.8827],[-35.7799,-8.8901],[-35.7819,-8.8979],[-35.7724,-8.9061],[-35.762,-8.9081],[-35.7484,-8.9172],[-35.7186,-8.9061],[-35.7002,-8.9066],[-35.6845,-8.8975],[-35.6706,-8.8958],[-35.6638,-8.8903],[-35.6609,-8.8828],[-35.6524,-8.8819],[-35.6461,-8.8967],[-35.6807,-8.9354],[-35.6782,-8.9444],[-35.7135,-8.9755],[-35.717,-9.0153],[-35.6793,-9.0104],[-35.6815,-9.0293],[-35.7568,-9.0095],[-35.8346,-8.9843],[-35.8353,-8.9446],[-35.8255,-8.8693],[-35.8212,-8.8568]]]}},{"type":"Feature","properties":{"admin_code":"BR-AL-COQUEIRO_SECO","name":"Coqueiro Seco","name_local":"Coqueiro Seco"},"geometry":{"type":"Polygon","coordinates":[[[-35.8025,-9.6773],[-35.813,-9.6555],[-35.8644,-9.6548],[-35.8679,-9.6261],[-35.8655,-9.6316],[-35.8409,-9.6417],[-35.8242,-9.639],[-35.8131,-9.6179],[-35.7936,-9.5996],[-35.7859,-9.6164],[-35.7692,-9.6386],[-35.7798,-9.6548],[-35.7802,-9.6665],[-35.786,-9.6707],[-35.7909,-9.6814],[-35.8025,-9.6773]]]}},{"type":"Feature","properties":{"admin_code":"BR-AL-CORURIPE","name":"Coruripe","name_local":"Coruripe"},"geometry":{"type":"Polygon","coordinates":[[[-36.0413,-10.0629],[-36.0459,-10.0745],[-36.0575,-10.0836],[-36.0694,-10.0847],[-36.0895,-10.0951],[-36.1103,-10.1303],[-36.1234,-10.1408],[-36.1348,-10.1595],[-36.1418,-10.1554],[-36.1504,-10.1568],[-36.169,-10.1734],[-36.1852,-10.1985],[-36.2168,-10.2215],[-36.2419,-10.2504],[-36.2588,-10.2633],[-36.3646,-10.2321],[-36.373,-10.2322],[-36.3724,-10.2242],[-36.366,-10.226],[-36.3534,-10.2157],[-36.353,-10.2033],[-36.3493,-10.201],[-36.3476,-10.1939],[-36.338,-10.1859],[-36.3368,-10.174],[-36.3445,-10.1642],[-36.3601,-10.1572],[-36.362,-10.1216],[-36.3745,-10.1068],[-36.3781,-10.104],[-36.3997,-10.1018],[-36.3991,-10.0843],[-36.4159,-10.0821],[-36.4195,-10.0673],[-36.4336,-10.0735],[-36.4392,-10.0691],[-36.4486,-10.0602],[-36.4514,-10.041],[-36.3048,-10.0298],[-36.3056,-10.0194],[-36.2979,-10.0128],[-36.2898,-9.9946],[-36.281,-9.9355],[-36.1228,-9.934],[-36.1074,-9.9502],[-36.1021,-9.9623],[-36.0808,-9.982],[-36.0731,-10.0037],[-36.0649,-10.0056],[-36.0561,-10.0127],[-36.0561,-10.0252],[-36.0516,-10.0302],[-36.0562,-10.0407],[-36.0428,-10.0505],[-36.036,-10.0467],[-36.0301,-10.0495],[-36.0413,-10.0629]]]}},{"type":"Feature","properties":{"admin_code":"BR-AL-CRAIBAS","name":"Craíbas","name_local":"Craíbas"},"geometry":{"type":"Polygon","coordinates":[[[-36.687,-9.6521],[-36.7116,-9.6632],[-36.7752,-9.7289],[-36.7907,-9.7119],[-36.814,-9.6995],[-36.8122,-9.6928],[-36.8192,-9.6854],[-36.8387,-9.6736],[-36.847,-9.6759],[-36.8671,-9.6646],[-36.8756,-9.6524],[-36.8745,-9.6468],[-36.9015,-9.6312],[-36.903,-9.6156],[-36.8899,-9.6071],[-36.8854,-9.5976],[-36.8787,-9.5969],[-36.8675,-9.5811],[-36.8482,-9.5703],[-36.8438,-9.5729],[-36.8413,-9.5711],[-36.8412,-9.5648],[-36.8306,-9.5525],[-36.8131,-9.5635],[-36.8037,-9.5561],[-36.7975,-9.557],[-36.787,-9.5503],[-36.7737,-9.557],[-36.7644,-9.5578],[-36.7571,-9.5645],[-36.7525,-9.577],[-36.7444,-9.5749],[-36.7174,-9.5879],[-36.6964,-9.5805],[-36.6977,-9.5988],[-36.6909,-9.5978],[-36.6818,-9.6012],[-36.687,-9.6521]]]}},{"type":"Feature","properties":{"admin_code":"BR-AL-DELMIRO_GOUVEIA","name":"Delmiro Gouveia","name_local":"Delmiro Gouveia"},"geometry":{"type":"Polygon","coordinates":[[[-38.2024,-9.2969],[-38.1917,-9.2958],[-38.177,-9.2885],[-38.1584,-9.2645],[-38.1563,-9.2495],[-37.8715,-9.4049],[-37.874,-9.4165],[-37.881,-9.4226],[-37.8824,-9.4309],[-37.8891,-9.4334],[-37.8901,-9.4434],[-37.8933,-9.4466],[-37.89,-9.4602],[-37.8953,-9.4802],[-37.8935,-9.5022],[-37.8956,-9.5123],[-37.8941,-9.5172],[-37.8897,-9.5188],[-37.8886,-9.5301],[-37.8944,-9.5385],[-37.9176,-9.5488],[-37.9556,-9.5345],[-37.977,-9.5313],[-37.9901,-9.5266],[-38.0042,-9.5163],[-37.9983,-9.4984],[-38.0109,-9.4787],[-38.0193,-9.4762],[-38.0293,-9.4672],[-38.0421,-9.4685],[-38.0568,-9.4594],[-38.0672,-9.4578],[-38.0702,-9.448],[-38.0786,-9.4406],[-38.1089,-9.4356],[-38.1139,-9.4366],[-38.1181,-9.4422],[-38.1419,-9.4377],[-38.1544,-9.4434],[-38.1776,-9.4254],[-38.2026,-9.4198],[-38.2047,-9.4177],[-38.2028,-9.4029],[-38.1941,-9.3944],[-38.1943,-9.3853],[-38.2003,-9.3794],[-38.2055,-9.3636],[-38.2372,-9.3302],[-38.2024,-9.2969]]]}},{"type":"Feature","properties":{"admin_code":"BR-AL-DOIS_RIACHOS","name":"Dois Riachos","name_local":"Dois Riachos"},"geometry":{"type":"Polygon","coordinates":[[[-37.0539,-9.3077],[-37.0443,-9.316],[-37.0243,-9.3156],[-37.0033,-9.3526],[-36.9793,-9.3594],[-36.9941,-9.3743],[-37.0227,-9.3695],[-37.039,-9.4174],[-37.1048,-9.4608],[-37.1173,-9.46],[-37.1177,-9.4377],[-37.1488,-9.4359],[-37.1465,-9.4181],[-37.1203,-9.388],[-37.109,-9.3795],[-37.1027,-9.3617],[-37.0893,-9.3481],[-37.0866,-9.3299],[-37.0738,-9.3182],[-37.0575,-9.3175],[-37.0583,-9.313],[-37.0539,-9.3077]]]}},{"type":"Feature","properties":{"admin_code":"BR-AL-ESTRELA_DE_ALAGOAS","name":"Estrela de Alagoas","name_local":"Estrela de Alagoas"},"geometry":{"type":"Polygon","coordinates":[[[-36.7613,-9.2716],[-36.6995,-9.293],[-36.7125,-9.314],[-36.7207,-9.3514],[-36.7206,-9.3615],[-36.7139,-9.3687],[-36.7125,-9.3772],[-36.7183,-9.3884],[-36.7239,-9.3903],[-36.7222,-9.4326],[-36.7168,-9.4471],[-36.7205,-9.4699],[-36.7096,-9.478],[-36.7089,-9.4848],[-36.7927,-9.4865],[-36.8326,-9.5072],[-36.833,-9.4978],[-36.8433,-9.4865],[-36.8415,-9.4792],[-36.8436,-9.4749],[-36.84,-9.469],[-36.8453,-9.4414],[-36.8293,-9.428],[-36.8285,-9.4121],[-36.8322,-9.4092],[-36.8301,-9.3973],[-36.8029,-9.368],[-36.7968,-9.3564],[-36.7968,-9.2804],[-36.7613,-9.2716]]]}},{"type":"Feature","properties":{"admin_code":"BR-AL-FEIRA_GRANDE","name":"Feira Grande","name_local":"Feira Grande"},"geometry":{"type":"Polygon","coordinates":[[[-36.6262,-9.8368],[-36.6233,-9.8474],[-36.6255,-9.8521],[-36.6192,-9.8481],[-36.6081,-9.8493],[-36.6037,-9.843],[-36.5929,-9.8722],[-36.6027,-9.8726],[-36.6038,-9.9032],[-36.6119,-9.9052],[-36.6146,-9.9126],[-36.6121,-9.9174],[-36.6134,-9.9498],[-36.635,-9.9532],[-36.6377,-9.959],[-36.6306,-9.9655],[-36.6284,-9.9766],[-36.6307,-9.98],[-36.6466,-9.9856],[-36.6648,-9.9733],[-36.6866,-9.9655],[-36.6832,-9.9543],[-36.6735,-9.9406],[-36.674,-9.9362],[-36.688,-9.9274],[-36.6931,-9.9175],[-36.6923,-9.9118],[-36.7035,-9.9117],[-36.7184,-9.9014],[-36.726,-9.9038],[-36.7349,-9.8884],[-36.7374,-9.8901],[-36.7514,-9.8844],[-36.747,-9.8774],[-36.7222,-9.8816],[-36.7346,-9.8675],[-36.6878,-9.8064],[-36.6262,-9.8368]]]}},{"type":"Feature","properties":{"admin_code":"BR-AL-FELIZ_DESERTO","name":"Feliz Deserto","name_local":"Feliz Deserto"},"geometry":{"type":"Polygon","coordinates":[[[-36.3646,-10.2321],[-36.2588,-10.2633],[-36.2775,-10.282],[-36.2951,-10.3071],[-36.3016,-10.3236],[-36.303,-10.3444],[-36.3142,-10.3468],[-36.3293,-10.3365],[-36.3921,-10.3098],[-36.3766,-10.2931],[-36.3812,-10.2761],[-36.3954,-10.2615],[-36.3978,-10.2452],[-36.373,-10.2322],[-36.3646,-10.2321]]]}},{"type":"Feature","properties":{"admin_code":"BR-AL-FLEXEIRAS","name":"Flexeiras","name_local":"Flexeiras"},"geometry":{"type":"Polygon","coordinates":[[[-35.7694,-9.3886],[-35.769,-9.309],[-35.8045,-9.2665],[-35.8363,-9.2645],[-35.8344,-9.2356],[-35.8864,-9.1383],[-35.868,-9.1382],[-35.8534,-9.1433],[-35.8446,-9.1513],[-35.8315,-9.149],[-35.8239,-9.1507],[-35.818,-9.1588],[-35.809,-9.1588],[-35.7832,-9.1538],[-35.725,-9.1243],[-35.7029,-9.23],[-35.6933,-9.2602],[-35.6864,-9.3705],[-35.7694,-9.3886]]]}},{"type":"Feature","properties":{"admin_code":"BR-AL-GIRAU_DO_PONCIANO","name":"Girau do Ponciano","name_local":"Girau do Ponciano"},"geometry":{"type":"Polygon","coordinates":[[[-36.76,-9.8997],[-36.7804,-9.9119],[-36.7896,-9.9259],[-36.7948,-9.9549],[-36.7986,-9.9591],[-36.8062,-9.9603],[-36.813,-9.9589],[-36.8283,-9.9444],[-36.9013,-9.898],[-36.9251,-9.8894],[-36.9489,-9.8583],[-36.9341,-9.8418],[-36.9351,-9.8285],[-36.9306,-9.8225],[-36.9042,-9.8093],[-36.9071,-9.7921],[-36.8993,-9.7911],[-36.8968,-9.7726],[-36.8855,-9.7459],[-36.9697,-9.6946],[-36.9652,-9.6766],[-36.9527,-9.6621],[-36.9515,-9.6435],[-36.9434,-9.641],[-36.9457,-9.6356],[-36.9422,-9.6285],[-36.9031,-9.6269],[-36.9015,-9.6312],[-36.8745,-9.6468],[-36.8756,-9.6524],[-36.8671,-9.6646],[-36.847,-9.6759],[-36.8387,-9.6736],[-36.8169,-9.6872],[-36.8122,-9.6928],[-36.814,-9.6995],[-36.7907,-9.7119],[-36.7466,-9.7605],[-36.7441,-9.7651],[-36.76,-9.7874],[-36.7609,-9.793],[-36.7689,-9.7992],[-36.7584,-9.8214],[-36.7586,-9.838],[-36.7657,-9.8531],[-36.7607,-9.86],[-36.7492,-9.8662],[-36.747,-9.8774],[-36.76,-9.8997]]]}},{"type":"Feature","properties":{"admin_code":"BR-AL-IBATEGUARA","name":"Ibateguara","name_local":"Ibateguara"},"geometry":{"type":"Polygon","coordinates":[[[-35.8362,-8.8687],[-35.8255,-8.8693],[-35.8353,-8.9446],[-35.8346,-8.9843],[-35.8617,-9.0536],[-35.8781,-9.0547],[-35.883,-9.0641],[-35.8897,-9.0675],[-35.9024,-9.0589],[-35.9034,-9.0481],[-35.9193,-9.0413],[-35.9245,-9.0338],[-35.9336,-9.0324],[-35.9438,-9.036],[-35.9531,-9.0321],[-35.9605,-8.995],[-35.9531,-8.9887],[-35.9565,-8.965],[-35.9611,-8.9596],[-35.9546,-8.9479],[-35.9844,-8.9063],[-35.9699,-8.9007],[-35.968,-8.9037],[-35.9641,-8.9024],[-35.9604,-8.8937],[-35.9547,-8.8939],[-35.9435,-8.8859],[-35.9242,-8.8846],[-35.9107,-8.8612],[-35.9004,-8.8618],[-35.8953,-8.8546],[-35.8878,-8.8628],[-35.8626,-8.8582],[-35.8482,-8.8717],[-35.8435,-8.8727],[-35.8362,-8.8687]]]}},{"type":"Feature","properties":{"admin_code":"BR-AL-IGACI","name":"Igaci","name_local":"Igaci"},"geometry":{"type":"Polygon","coordinates":[[[-36.623,-9.6546],[-36.628,-9.6458],[-36.6401,-9.6365],[-36.6591,-9.6425],[-36.6861,-9.6354],[-36.6818,-9.6012],[-36.6909,-9.5978],[-36.6977,-9.5988],[-36.6964,-9.5805],[-36.7174,-9.5879],[-36.7444,-9.5749],[-36.7525,-9.577],[-36.7571,-9.5645],[-36.7644,-9.5578],[-36.7737,-9.557],[-36.787,-9.5503],[-36.7975,-9.557],[-36.8037,-9.5561],[-36.8131,-9.5635],[-36.8306,-9.5525],[-36.8365,-9.5432],[-36.8368,-9.5327],[-36.8328,-9.5269],[-36.8409,-9.5123],[-36.7927,-9.4865],[-36.6869,-9.4846],[-36.6394,-9.5006],[-36.6157,-9.4822],[-36.5694,-9.4868],[-36.5318,-9.53],[-36.5545,-9.5396],[-36.5667,-9.5595],[-36.5705,-9.563],[-36.5731,-9.5609],[-36.5793,-9.5699],[-36.5886,-9.5732],[-36.6006,-9.5682],[-36.604,-9.5758],[-36.622,-9.5795],[-36.6241,-9.6029],[-36.6149,-9.609],[-36.6123,-9.6179],[-36.6143,-9.6217],[-36.6234,-9.6216],[-36.6303,-9.6296],[-36.6274,-9.6324],[-36.6159,-9.6273],[-36.6134,-9.6303],[-36.6097,-9.6352],[-36.6111,-9.6436],[-36.6068,-9.6533],[-36.623,-9.6546]]]}},{"type":"Feature","properties":{"admin_code":"BR-AL-IGREJA_NOVA","name":"Igreja Nova","name_local":"Igreja Nova"},"geometry":{"type":"MultiPolygon","coordinates":[[[[-36.6352,-10.2491],[-36.6317,-10.2531],[-36.6439,-10.2509],[-36.6397,-10.2472],[-36.6352,-10.2491]]],[[[-36.6504,-10.2625],[-36.6607,-10.2701],[-36.6794,-10.2698],[-36.6863,-10.2748],[-36.7207,-10.2647],[-36.7309,-10.1609],[-36.7447,-10.1449],[-36.7281,-10.1421],[-36.6836,-10.1259],[-36.6739,-10.0947],[-36.666,-10.0517],[-36.6604,-10.0468],[-36.661,-10.0366],[-36.6495,-10.0332],[-36.5172,-10.0405],[-36.5085,-10.0689],[-36.4912,-10.0711],[-36.4977,-10.0924],[-36.5015,-10.0941],[-36.5044,-10.1259],[-36.5113,-10.1486],[-36.5246,-10.1767],[-36.6137,-10.1996],[-36.6244,-10.2144],[-36.656,-10.2448],[-36.6439,-10.2509],[-36.6504,-10.2625]]]]}},{"type":"Feature","properties":{"admin_code":"BR-AL-INHAPI","name":"Inhapi","name_local":"Inhapi"},"geometry":{"type":"Polygon","coordinates":[[[-37.8327,-9.2201],[-37.8207,-9.2168],[-37.7926,-9.1945],[-37.7436,-9.1967],[-37.7303,-9.1836],[-37.6816,-9.1793],[-37.6574,-9.1883],[-37.6212,-9.1948],[-37.6082,-9.2275],[-37.6084,-9.231],[-37.6173,-9.2374],[-37.6178,-9.2459],[-37.6109,-9.2489],[-37.607,-9.257],[-37.6084,-9.2734],[-37.5938,-9.2882],[-37.587,-9.2882],[-37.5883,-9.3029],[-37.5944,-9.3167],[-37.609,-9.3353],[-37.6168,-9.3557],[-37.6328,-9.3734],[-37.6464,-9.3929],[-37.6469,-9.4002],[-37.6549,-9.4081],[-37.8327,-9.2201]]]}},{"type":"Feature","properties":{"admin_code":"BR-AL-JACARE_DOS_HOMENS","name":"Jacaré dos Homens","name_local":"Jacaré dos Homens"},"geometry":{"type":"Polygon","coordinates":[[[-37.191,-9.6903],[-37.213,-9.6939],[-37.2195,-9.7028],[-37.2179,-9.711],[-37.2241,-9.7224],[-37.2282,-9.7218],[-37.2307,-9.7297],[-37.2354,-9.7297],[-37.2387,-9.7357],[-37.2421,-9.7358],[-37.2884,-9.6865],[-37.303,-9.636],[-37.2784,-9.6363],[-37.2528,-9.6324],[-37.2361,-9.6054],[-37.244,-9.601],[-37.2445,-9.5909],[-37.2584,-9.5774],[-37.2591,-9.5732],[-37.1608,-9.6032],[-37.1653,-9.6104],[-37.1527,-9.6139],[-37.191,-9.6903]]]}},{"type":"Feature","properties":{"admin_code":"BR-AL-JACUIPE","name":"Jacuípe","name_local":"Jacuípe"},"geometry":{"type":"Polygon","coordinates":[[[-35.5357,-8.8197],[-35.5328,-8.8271],[-35.5297,-8.8276],[-35.5179,-8.8177],[-35.5115,-8.8175],[-35.5034,-8.8223],[-35.5006,-8.8202],[-35.4959,-8.8282],[-35.4939,-8.8255],[-35.4821,-8.8261],[-35.4795,-8.82],[-35.4701,-8.8131],[-35.4633,-8.8197],[-35.4646,-8.8282],[-35.4558,-8.8408],[-35.4353,-8.8405],[-35.4319,-8.836],[-35.4055,-8.8373],[-35.4066,-8.8427],[-35.3989,-8.8504],[-35.3507,-8.8607],[-35.3424,-8.8756],[-35.3599,-8.8856],[-35.3669,-8.9089],[-35.372,-8.9123],[-35.3667,-8.9428],[-35.3783,-8.9685],[-35.4219,-8.9207],[-35.4325,-8.937],[-35.4544,-8.9494],[-35.4649,-8.9469],[-35.4734,-8.9406],[-35.4744,-8.9439],[-35.4912,-8.9426],[-35.4967,-8.9314],[-35.4964,-8.9232],[-35.5001,-8.9195],[-35.4965,-8.8991],[-35.5005,-8.8901],[-35.5154,-8.8818],[-35.5355,-8.8883],[-35.5373,-8.8852],[-35.5483,-8.8445],[-35.5394,-8.8207],[-35.5357,-8.8197]]]}},{"type":"Feature","properties":{"admin_code":"BR-AL-JAPARATINGA","name":"Japaratinga","name_local":"Japaratinga"},"geometry":{"type":"Polygon","coordinates":[[[-35.2401,-9.0684],[-35.2437,-9.0769],[-35.2563,-9.0884],[-35.2694,-9.1212],[-35.2832,-9.1292],[-35.2871,-9.1541],[-35.2952,-9.1558],[-35.2901,-9.1487],[-35.2929,-9.1456],[-35.3117,-9.1469],[-35.3112,-9.1418],[-35.303,-9.1364],[-35.3094,-9.1294],[-35.3259,-9.1203],[-35.3363,-9.0829],[-35.3384,-9.0708],[-35.3344,-9.0578],[-35.3361,-9.0322],[-35.3021,-9.0288],[-35.2849,-9.0373],[-35.2593,-9.0697],[-35.2509,-9.0725],[-35.2418,-9.066],[-35.2401,-9.0684]]]}},{"type":"Feature","properties":{"admin_code":"BR-AL-JARAMATAIA","name":"Jaramataia","name_local":"Jaramataia"},"geometry":{"type":"Polygon","coordinates":[[[-37.0595,-9.6827],[-37.0463,-9.6224],[-37.0013,-9.6298],[-36.8875,-9.6003],[-36.8899,-9.6071],[-36.903,-9.6156],[-36.9003,-9.6233],[-36.9031,-9.6269],[-36.9352,-9.6263],[-36.945,-9.6316],[-36.9434,-9.641],[-36.9515,-9.6435],[-36.9527,-9.6621],[-36.9652,-9.6766],[-36.9697,-9.6946],[-36.9751,-9.6937],[-36.9854,-9.7065],[-36.9845,-9.7152],[-36.9945,-9.7221],[-37.0595,-9.6827]]]}},{"type":"Feature","properties":{"admin_code":"BR-AL-JEQUIA_DA_PRAIA","name":"Jequiá da Praia","name_local":"Jequiá da Praia"},"geometry":{"type":"Polygon","coordinates":[[[-36.1783,-9.8893],[-36.1817,-9.8797],[-36.2398,-9.8717],[-36.2191,-9.8371],[-36.2121,-9.8432],[-36.1986,-9.8378],[-36.1975,-9.8265],[-36.2063,-9.8073],[-36.2047,-9.8045],[-36.185,-9.8006],[-36.1713,-9.8265],[-36.1654,-9.8501],[-36.1571,-9.8583],[-36.1444,-9.8556],[-36.127,-9.8302],[-36.1243,-9.8378],[-36.1169,-9.8448],[-36.096,-9.8557],[-36.0902,-9.8665],[-36.0763,-9.8709],[-36.07,-9.8809],[-36.0659,-9.8814],[-36.0655,-9.8767],[-36.0508,-9.8717],[-36.0409,-9.8583],[-36.0212,-9.9203],[-36.0141,-9.9076],[-35.9988,-9.9154],[-35.9836,-9.9113],[-35.9782,-9.9161],[-35.9775,-9.9253],[-35.9676,-9.9309],[-35.9632,-9.9414],[-35.9755,-9.967],[-36.0042,-10.0045],[-36.0301,-10.0495],[-36.036,-10.0467],[-36.0428,-10.0505],[-36.0562,-10.0407],[-36.0516,-10.0302],[-36.0561,-10.0252],[-36.0561,-10.0127],[-36.0649,-10.0056],[-36.0731,-10.0037],[-36.0808,-9.982],[-36.1021,-9.9623],[-36.1074,-9.9502],[-36.1228,-9.934],[-36.281,-9.9355],[-36.1783,-9.8893]]]}},{"type":"Feature","properties":{"admin_code":"BR-AL-JOAQUIM_GOMES","name":"Joaquim Gomes","name_local":"Joaquim Gomes"},"geometry":{"type":"MultiPolygon","coordinates":[[[[-35.6378,-9.1187],[-35.6496,-9.1204],[-35.6531,-9.1077],[-35.6656,-9.1085],[-35.6795,-9.0996],[-35.6292,-9.0922],[-35.5801,-9.1578],[-35.6173,-9.135],[-35.6378,-9.1187]]],[[[-35.6815,-9.0293],[-35.6887,-9.0374],[-35.7006,-9.0426],[-35.7124,-9.0526],[-35.7045,-9.0811],[-35.7003,-9.0818],[-35.6982,-9.0891],[-35.6885,-9.0998],[-35.6971,-9.1084],[-35.7115,-9.1137],[-35.7408,-9.1339],[-35.7832,-9.1538],[-35.809,-9.1588],[-35.818,-9.1588],[-35.8239,-9.1507],[-35.8315,-9.149],[-35.8446,-9.1513],[-35.8534,-9.1433],[-35.868,-9.1382],[-35.8864,-9.1383],[-35.8617,-9.0536],[-35.8346,-8.9843],[-35.7568,-9.0095],[-35.6815,-9.0293]]]]}},{"type":"Feature","properties":{"admin_code":"BR-AL-JUNDIA","name":"Jundiá","name_local":"Jundiá"},"geometry":{"type":"Polygon","coordinates":[[[-35.5735,-8.9144],[-35.5524,-8.9059],[-35.5389,-8.9242],[-35.5315,-8.9275],[-35.5266,-8.9447],[-35.5144,-8.9493],[-35.5075,-8.9497],[-35.4912,-8.9426],[-35.4744,-8.9439],[-35.4734,-8.9406],[-35.4649,-8.9469],[-35.4544,-8.9494],[-35.5405,-9.0174],[-35.5611,-9.0108],[-35.5568,-9.0078],[-35.5635,-8.9984],[-35.5723,-8.9947],[-35.5709,-8.9862],[-35.5734,-8.9805],[-35.5828,-8.9746],[-35.59,-8.976],[-35.5844,-8.9669],[-35.5836,-8.96],[-35.5873,-8.958],[-35.5839,-8.9511],[-35.5795,-8.9101],[-35.5735,-8.9144]]]}},{"type":"Feature","properties":{"admin_code":"BR-AL-JUNQUEIRO","name":"Junqueiro","name_local":"Junqueiro"},"geometry":{"type":"Polygon","coordinates":[[[-36.3969,-9.7898],[-36.378,-9.8115],[-36.3371,-9.8537],[-36.3255,-9.8767],[-36.3142,-9.8863],[-36.3954,-9.8744],[-36.3987,-9.8871],[-36.4484,-9.9604],[-36.458,-9.9622],[-36.4688,-9.9705],[-36.4787,-9.9625],[-36.4723,-9.9505],[-36.471,-9.9402],[-36.4853,-9.9275],[-36.4876,-9.9161],[-36.4995,-9.8943],[-36.4966,-9.8675],[-36.5049,-9.8557],[-36.5166,-9.8588],[-36.5293,-9.8471],[-36.5518,-9.8396],[-36.5261,-9.8036],[-36.4694,-9.8033],[-36.4651,-9.7871],[-36.4531,-9.7809],[-36.412,-9.7782],[-36.4002,-9.7821],[-36.3969,-9.7898]]]}},{"type":"Feature","properties":{"admin_code":"BR-AL-LAGOA_DA_CANOA","name":"Lagoa da Canoa","name_local":"Lagoa da Canoa"},"geometry":{"type":"Polygon","coordinates":[[[-36.6938,-9.8026],[-36.6878,-9.8064],[-36.7346,-9.8675],[-36.7222,-9.8816],[-36.747,-9.8774],[-36.7492,-9.8662],[-36.7607,-9.86],[-36.7657,-9.8531],[-36.7586,-9.838],[-36.7584,-9.8214],[-36.7689,-9.7992],[-36.7609,-9.793],[-36.76,-9.7874],[-36.7441,-9.7651],[-36.7752,-9.7289],[-36.7544,-9.7074],[-36.6938,-9.8026]]]}},{"type":"Feature","properties":{"admin_code":"BR-AL-LIMOEIRO_DE_ANADIA","name":"Limoeiro de Anadia","name_local":"Limoeiro de Anadia"},"geometry":{"type":"Polygon","coordinates":[[[-36.5824,-9.7005],[-36.5664,-9.6823],[-36.5358,-9.6645],[-36.5275,-9.6865],[-36.5091,-9.6917],[-36.4661,-9.6743],[-36.3883,-9.6518],[-36.3795,-9.6577],[-36.3763,-9.6652],[-36.3702,-9.6981],[-36.3443,-9.7125],[-36.3424,-9.7342],[-36.3474,-9.7479],[-36.3535,-9.747],[-36.3607,-9.7528],[-36.3538,-9.7568],[-36.3593,-9.7683],[-36.3693,-9.7655],[-36.3796,-9.7668],[-36.3938,-9.7743],[-36.4002,-9.7821],[-36.412,-9.7782],[-36.4531,-9.7809],[-36.4651,-9.7871],[-36.4694,-9.8033],[-36.5261,-9.8036],[-36.5518,-9.8396],[-36.5547,-9.8342],[-36.5488,-9.8099],[-36.5558,-9.8052],[-36.5646,-9.8041],[-36.5653,-9.8009],[-36.5525,-9.7714],[-36.5568,-9.7701],[-36.5583,-9.764],[-36.5727,-9.7498],[-36.5778,-9.7371],[-36.5757,-9.7282],[-36.5833,-9.7152],[-36.5821,-9.7092],[-36.5768,-9.7082],[-36.5824,-9.7005]],[[-36.571,-9.7086],[-36.5733,-9.7057],[-36.5768,-9.7082],[-36.571,-9.7086]]]}},{"type":"Feature","properties":{"admin_code":"BR-AL-MACEIO","name":"Maceió","name_local":"Maceió"},"geometry":{"type":"Polygon","coordinates":[[[-35.6754,-9.3982],[-35.6646,-9.4303],[-35.6433,-9.4426],[-35.6261,-9.4481],[-35.6245,-9.4619],[-35.6176,-9.4695],[-35.6026,-9.4734],[-35.5838,-9.4699],[-35.5624,-9.4802],[-35.5591,-9.488],[-35.586,-9.5106],[-35.5922,-9.5296],[-35.6062,-9.5323],[-35.62,-9.5487],[-35.6392,-9.5584],[-35.6766,-9.6002],[-35.69,-9.6186],[-35.6973,-9.6358],[-35.6992,-9.6498],[-35.6958,-9.6642],[-35.7105,-9.6668],[-35.7235,-9.6841],[-35.7244,-9.6744],[-35.7278,-9.6724],[-35.7384,-9.6715],[-35.7494,-9.6751],[-35.7934,-9.7134],[-35.7956,-9.7077],[-35.7827,-9.6979],[-35.7909,-9.6814],[-35.786,-9.6707],[-35.7802,-9.6665],[-35.7798,-9.6548],[-35.7696,-9.6354],[-35.7824,-9.6218],[-35.796,-9.596],[-35.8133,-9.5806],[-35.7972,-9.5321],[-35.7694,-9.3886],[-35.6905,-9.3709],[-35.6754,-9.3982]]]}},{"type":"Feature","properties":{"admin_code":"BR-AL-MAJOR_ISIDORO","name":"Major Isidoro","name_local":"Major Isidoro"},"geometry":{"type":"Polygon","coordinates":[[[-37.052,-9.6187],[-37.1043,-9.6074],[-37.1534,-9.617],[-37.1083,-9.5095],[-37.1145,-9.4987],[-37.1114,-9.4939],[-37.1041,-9.4912],[-37.1048,-9.4608],[-37.039,-9.4174],[-37.0207,-9.4157],[-37.0187,-9.4341],[-37.0048,-9.4491],[-37.0011,-9.4581],[-36.9835,-9.4751],[-36.9797,-9.4842],[-36.95,-9.503],[-36.9071,-9.527],[-36.8781,-9.5341],[-36.8686,-9.5445],[-36.8562,-9.5456],[-36.8432,-9.5318],[-36.8368,-9.5327],[-36.8378,-9.5398],[-36.8306,-9.5525],[-36.8412,-9.5648],[-36.8413,-9.5711],[-36.8438,-9.5729],[-36.8482,-9.5703],[-36.8675,-9.5811],[-36.8787,-9.5969],[-37.0013,-9.6298],[-37.0463,-9.6224],[-37.052,-9.6187]]]}},{"type":"Feature","properties":{"admin_code":"BR-AL-MAR_VERMELHO","name":"Mar Vermelho","name_local":"Mar Vermelho"},"geometry":{"type":"Polygon","coordinates":[[[-36.3525,-9.5067],[-36.3827,-9.5046],[-36.3868,-9.5103],[-36.451,-9.5052],[-36.469,-9.4856],[-36.4536,-9.4598],[-36.4536,-9.4558],[-36.4619,-9.4533],[-36.3892,-9.424],[-36.3394,-9.4646],[-36.3554,-9.4693],[-36.3537,-9.4817],[-36.343,-9.4933],[-36.3401,-9.5109],[-36.3525,-9.5067]]]}},{"type":"Feature","properties":{"admin_code":"BR-AL-MARAGOGI","name":"Maragogi","name_local":"Maragogi"},"geometry":{"type":"Polygon","coordinates":[[[-35.2876,-8.8765],[-35.2788,-8.8751],[-35.2528,-8.8872],[-35.2376,-8.8818],[-35.208,-8.8911],[-35.1816,-8.888],[-35.1712,-8.8905],[-35.1569,-8.902],[-35.1532,-8.9174],[-35.1672,-8.9364],[-35.1773,-8.9699],[-35.1822,-8.9782],[-35.2047,-8.9961],[-35.2217,-9.0153],[-35.2387,-9.0487],[-35.2395,-9.062],[-35.2509,-9.0725],[-35.2593,-9.0697],[-35.2881,-9.0343],[-35.3365,-9.0083],[-35.3579,-8.9816],[-35.354,-8.9636],[-35.3667,-8.9428],[-35.372,-8.9123],[-35.3669,-8.9089],[-35.3599,-8.8856],[-35.3424,-8.8756],[-35.3507,-8.8607],[-35.2876,-8.8765]]]}},{"type":"Feature","properties":{"admin_code":"BR-AL-MARAVILHA","name":"Maravilha","name_local":"Maravilha"},"geometry":{"type":"Polygon","coordinates":[[[-37.2624,-9.1597],[-37.2484,-9.1775],[-37.2442,-9.1867],[-37.2467,-9.1903],[-37.2392,-9.2033],[-37.2336,-9.2066],[-37.2291,-9.2265],[-37.3354,-9.2672],[-37.4145,-9.2895],[-37.3991,-9.3325],[-37.587,-9.2882],[-37.5723,-9.283],[-37.5635,-9.2728],[-37.549,-9.2671],[-37.5423,-9.2592],[-37.5277,-9.2582],[-37.5172,-9.2422],[-37.4894,-9.2297],[-37.4876,-9.2254],[-37.4809,-9.2244],[-37.4757,-9.2116],[-37.4586,-9.2024],[-37.4569,-9.198],[-37.4436,-9.1917],[-37.4359,-9.1836],[-37.3135,-9.1971],[-37.2777,-9.1527],[-37.2624,-9.1597]]]}},{"type":"Feature","properties":{"admin_code":"BR-AL-MARECHAL_DEODORO","name":"Marechal Deodoro","name_local":"Marechal Deodoro"},"geometry":{"type":"Polygon","coordinates":[[[-35.9063,-9.8116],[-35.9208,-9.8041],[-35.9262,-9.796],[-35.9377,-9.7937],[-35.9417,-9.788],[-35.9533,-9.7868],[-35.9614,-9.7898],[-35.9727,-9.7851],[-35.9816,-9.7856],[-35.9998,-9.7752],[-36.0046,-9.7671],[-35.9893,-9.7386],[-35.9892,-9.7026],[-36.0042,-9.7058],[-36.033,-9.699],[-36.0374,-9.6816],[-36.02,-9.6589],[-36.0241,-9.6477],[-35.9801,-9.6728],[-35.9869,-9.6625],[-35.9774,-9.6439],[-35.9679,-9.6421],[-35.9582,-9.6465],[-35.9526,-9.6415],[-35.9434,-9.6397],[-35.8882,-9.6479],[-35.8679,-9.6261],[-35.8644,-9.6548],[-35.813,-9.6555],[-35.8025,-9.6773],[-35.7909,-9.6814],[-35.7827,-9.6979],[-35.7956,-9.7077],[-35.795,-9.7166],[-35.8059,-9.7173],[-35.8044,-9.7212],[-35.8185,-9.7338],[-35.8185,-9.7409],[-35.8232,-9.749],[-35.8583,-9.79],[-35.9063,-9.8116]]]}},{"type":"Feature","properties":{"admin_code":"BR-AL-MARIBONDO","name":"Maribondo","name_local":"Maribondo"},"geometry":{"type":"Polygon","coordinates":[[[-36.2881,-9.6076],[-36.2928,-9.6021],[-36.3175,-9.6122],[-36.3474,-9.6073],[-36.3496,-9.6051],[-36.346,-9.6037],[-36.3458,-9.5957],[-36.3575,-9.5859],[-36.3684,-9.5816],[-36.3789,-9.5713],[-36.3825,-9.5426],[-36.3759,-9.5281],[-36.3803,-9.5192],[-36.3861,-9.5163],[-36.3868,-9.5103],[-36.3827,-9.5046],[-36.3525,-9.5067],[-36.3339,-9.5132],[-36.3297,-9.5111],[-36.3075,-9.5219],[-36.2961,-9.5191],[-36.2563,-9.5188],[-36.241,-9.5105],[-36.2209,-9.4842],[-36.2268,-9.5147],[-36.2185,-9.5631],[-36.1923,-9.5996],[-36.24,-9.5934],[-36.2499,-9.6233],[-36.2881,-9.6076]]]}},{"type":"Feature","properties":{"admin_code":"BR-AL-MATA_GRANDE","name":"Mata Grande","name_local":"Mata Grande"},"geometry":{"type":"Polygon","coordinates":[[[-37.8329,-8.9254],[-37.8207,-8.9091],[-37.825,-8.8902],[-37.8235,-8.885],[-37.8102,-8.8776],[-37.7929,-8.8739],[-37.7855,-8.8606],[-37.7739,-8.8534],[-37.7661,-8.8541],[-37.756,-8.8466],[-37.7461,-8.8597],[-37.7408,-8.8761],[-37.73,-8.8832],[-37.7288,-8.8911],[-37.7229,-8.8969],[-37.7193,-8.9077],[-37.7039,-8.9228],[-37.6967,-8.9453],[-37.6735,-8.9753],[-37.6953,-8.9822],[-37.6984,-8.9859],[-37.6964,-8.9904],[-37.6865,-8.9892],[-37.6821,-8.997],[-37.6581,-8.9869],[-37.6533,-8.9947],[-37.641,-8.9945],[-37.6407,-9.0008],[-37.635,-9.003],[-37.6109,-8.9884],[-37.5963,-8.9688],[-37.5597,-8.9719],[-37.5464,-8.9613],[-37.5323,-8.9599],[-37.5196,-8.9677],[-37.59,-9.0607],[-37.6535,-9.1279],[-37.6595,-9.1375],[-37.6642,-9.1604],[-37.6816,-9.1793],[-37.7303,-9.1836],[-37.7436,-9.1967],[-37.7926,-9.1945],[-37.8207,-9.2168],[-37.8327,-9.2201],[-37.9517,-9.0987],[-37.9436,-9.0924],[-37.9302,-9.0718],[-37.9074,-9.0516],[-37.9059,-9.0417],[-37.8891,-9.0349],[-37.8818,-9.04],[-37.8778,-9.036],[-37.8754,-9.0236],[-37.8795,-9.0161],[-37.8734,-9.0116],[-37.8671,-9.0116],[-37.8531,-9.0001],[-37.846,-8.9847],[-37.8391,-8.9784],[-37.8258,-8.933],[-37.8329,-8.9254]]]}},{"type":"Feature","properties":{"admin_code":"BR-AL-MATRIZ_DE_CAMARAGIBE","name":"Matriz de Camaragibe","name_local":"Matriz de Camaragibe"},"geometry":{"type":"Polygon","coordinates":[[[-35.6808,-9.0233],[-35.5608,-9.0487],[-35.5009,-9.0841],[-35.5135,-9.0999],[-35.5218,-9.1049],[-35.5265,-9.1183],[-35.5205,-9.1349],[-35.5093,-9.1328],[-35.4843,-9.1443],[-35.4686,-9.1663],[-35.454,-9.1655],[-35.4453,-9.169],[-35.4359,-9.1786],[-35.4587,-9.1847],[-35.4694,-9.1768],[-35.4814,-9.1756],[-35.484,-9.177],[-35.4757,-9.1901],[-35.5547,-9.1913],[-35.6292,-9.0922],[-35.6885,-9.0998],[-35.6982,-9.0891],[-35.7003,-9.0818],[-35.7045,-9.0811],[-35.7124,-9.0526],[-35.7006,-9.0426],[-35.6887,-9.0374],[-35.6815,-9.0293],[-35.6808,-9.0233]]]}},{"type":"Feature","properties":{"admin_code":"BR-AL-MESSIAS","name":"Messias","name_local":"Messias"},"geometry":{"type":"Polygon","coordinates":[[[-35.8045,-9.2665],[-35.769,-9.309],[-35.7694,-9.3886],[-35.8774,-9.4167],[-35.8301,-9.3227],[-35.8308,-9.3142],[-35.8377,-9.3102],[-35.8383,-9.3056],[-35.8363,-9.2645],[-35.8045,-9.2665]]]}},{"type":"Feature","properties":{"admin_code":"BR-AL-MINADOR_DO_NEGRAO","name":"Minador do Negrão","name_local":"Minador do Negrão"},"geometry":{"type":"Polygon","coordinates":[[[-36.872,-9.2683],[-36.8662,-9.2691],[-36.8476,-9.2771],[-36.837,-9.2885],[-36.7968,-9.2804],[-36.7968,-9.3564],[-36.8029,-9.368],[-36.8263,-9.3908],[-36.9014,-9.3977],[-36.9368,-9.3774],[-36.9307,-9.3708],[-36.9367,-9.3612],[-36.9378,-9.3528],[-36.9222,-9.3398],[-36.9209,-9.3324],[-36.927,-9.3263],[-36.9267,-9.3229],[-36.9223,-9.3182],[-36.9157,-9.299],[-36.8979,-9.2812],[-36.8897,-9.2835],[-36.8748,-9.2755],[-36.872,-9.2683]]]}},{"type":"Feature","properties":{"admin_code":"BR-AL-MONTEIROPOLIS","name":"Monteirópolis","name_local":"Monteirópolis"},"geometry":{"type":"Polygon","coordinates":[[[-37.2445,-9.5909],[-37.244,-9.601],[-37.2361,-9.6054],[-37.2528,-9.6324],[-37.2784,-9.6363],[-37.2912,-9.6343],[-37.351,-9.6452],[-37.3573,-9.6438],[-37.3568,-9.6369],[-37.3048,-9.536],[-37.2445,-9.5909]]]}},{"type":"Feature","properties":{"admin_code":"BR-AL-MURICI","name":"Murici","name_local":"Murici"},"geometry":{"type":"Polygon","coordinates":[[[-36.0144,-9.401],[-36.0165,-9.3973],[-35.9961,-9.3836],[-36.014,-9.3615],[-36.0031,-9.3574],[-36.0041,-9.3464],[-36.0004,-9.3387],[-36.0028,-9.3321],[-35.9953,-9.3238],[-36.0009,-9.3214],[-36.0365,-9.3421],[-36.0422,-9.3393],[-36.047,-9.3276],[-36.0539,-9.3213],[-36.0429,-9.3117],[-36.033,-9.3119],[-36.0292,-9.3089],[-36.0337,-9.3057],[-36.0406,-9.3082],[-36.0571,-9.2911],[-36.0618,-9.2899],[-36.065,-9.2811],[-36.0576,-9.2873],[-36.0029,-9.266],[-35.8864,-9.1383],[-35.8344,-9.2356],[-35.8383,-9.3056],[-35.8377,-9.3102],[-35.8308,-9.3142],[-35.8301,-9.3227],[-35.8774,-9.4167],[-35.9287,-9.3751],[-36.0144,-9.401]]]}},{"type":"Feature","properties":{"admin_code":"BR-AL-NOVO_LINO","name":"Novo Lino","name_local":"Novo Lino"},"geometry":{"type":"Polygon","coordinates":[[[-35.5711,-8.8427],[-35.5819,-8.8614],[-35.5767,-8.8661],[-35.5855,-8.8925],[-35.5795,-8.9101],[-35.5805,-8.9251],[-35.5873,-8.958],[-35.5836,-8.96],[-35.5844,-8.9669],[-35.59,-8.976],[-35.5828,-8.9746],[-35.5734,-8.9805],[-35.5709,-8.9862],[-35.5723,-8.9947],[-35.5635,-8.9984],[-35.5568,-9.0078],[-35.5655,-9.0108],[-35.5629,-9.0248],[-35.5652,-9.0358],[-35.5608,-9.0487],[-35.6808,-9.0233],[-35.6793,-9.0104],[-35.717,-9.0153],[-35.7135,-8.9755],[-35.6782,-8.9444],[-35.6807,-8.9354],[-35.6461,-8.8967],[-35.6524,-8.8819],[-35.6321,-8.8813],[-35.6137,-8.8644],[-35.6054,-8.865],[-35.5968,-8.861],[-35.5945,-8.8554],[-35.5815,-8.8455],[-35.5711,-8.8427]]]}},{"type":"Feature","properties":{"admin_code":"BR-AL-OLHO_DAGUA_GRANDE","name":"Olho d'Água Grande","name_local":"Olho d'Água Grande"},"geometry":{"type":"Polygon","coordinates":[[[-36.8344,-10.0124],[-36.8205,-10.0028],[-36.8099,-10.0093],[-36.7992,-10.0062],[-36.7882,-10.0158],[-36.7882,-10.0211],[-36.7129,-10.0447],[-36.7141,-10.0524],[-36.7268,-10.0656],[-36.7381,-10.0866],[-36.7446,-10.088],[-36.7605,-10.1046],[-36.7694,-10.1236],[-36.7864,-10.1109],[-36.7895,-10.1053],[-36.8011,-10.101],[-36.8039,-10.0962],[-36.8133,-10.0918],[-36.8216,-10.0746],[-36.8724,-10.0583],[-36.8745,-10.0537],[-36.8611,-10.0276],[-36.8424,-10.0103],[-36.8344,-10.0124]]]}},{"type":"Feature","properties":{"admin_code":"BR-AL-OLHO_DAGUA_DAS_FLORES","name":"Olho d'Água das Flores","name_local":"Olho d'Água das Flores"},"geometry":{"type":"Polygon","coordinates":[[[-37.3803,-9.5028],[-37.3208,-9.4684],[-37.2698,-9.4572],[-37.228,-9.5193],[-37.1874,-9.5613],[-37.1202,-9.5384],[-37.1527,-9.6139],[-37.1653,-9.6104],[-37.1608,-9.6032],[-37.2591,-9.5732],[-37.2584,-9.5774],[-37.3048,-9.536],[-37.3131,-9.5525],[-37.3728,-9.5249],[-37.3803,-9.5028]]]}},{"type":"Feature","properties":{"admin_code":"BR-AL-OLHO_DAGUA_DO_CASADO","name":"Olho d'Água do Casado","name_local":"Olho d'Água do Casado"},"geometry":{"type":"Polygon","coordinates":[[[-37.8585,-9.4001],[-37.8504,-9.3908],[-37.8446,-9.3728],[-37.8359,-9.365],[-37.8327,-9.353],[-37.8248,-9.3479],[-37.8177,-9.3354],[-37.8073,-9.329],[-37.7773,-9.3238],[-37.7683,-9.2905],[-37.7257,-9.3337],[-37.7199,-9.3882],[-37.7567,-9.4322],[-37.7716,-9.4563],[-37.7712,-9.4692],[-37.7826,-9.497],[-37.7963,-9.5053],[-37.7882,-9.5222],[-37.7946,-9.5428],[-37.8021,-9.5424],[-37.8083,-9.5476],[-37.8147,-9.5443],[-37.8351,-9.5521],[-37.8447,-9.5701],[-37.8423,-9.5776],[-37.8637,-9.5665],[-37.8873,-9.5488],[-37.8944,-9.5385],[-37.8886,-9.5301],[-37.8897,-9.5188],[-37.8941,-9.5172],[-37.8956,-9.5123],[-37.8935,-9.5022],[-37.8953,-9.4802],[-37.89,-9.4602],[-37.8933,-9.4466],[-37.8901,-9.4434],[-37.8891,-9.4334],[-37.8824,-9.4309],[-37.881,-9.4226],[-37.874,-9.4165],[-37.8715,-9.4049],[-37.8585,-9.4001]]]}},{"type":"Feature","properties":{"admin_code":"BR-AL-OLIVENCA","name":"Olivença","name_local":"Olivença"},"geometry":{"type":"Polygon","coordinates":[[[-37.2664,-9.4495],[-37.2551,-9.4466],[-37.2105,-9.443],[-37.2088,-9.4363],[-37.1992,-9.4323],[-37.1177,-9.4377],[-37.1173,-9.46],[-37.1048,-9.4608],[-37.1034,-9.4809],[-37.1041,-9.4912],[-37.1114,-9.4939],[-37.1145,-9.4987],[-37.1083,-9.5095],[-37.1202,-9.5384],[-37.1874,-9.5613],[-37.228,-9.5193],[-37.2698,-9.4572],[-37.2664,-9.4495]]]}},{"type":"Feature","properties":{"admin_code":"BR-AL-OURO_BRANCO","name":"Ouro Branco","name_local":"Ouro Branco"},"geometry":{"type":"Polygon","coordinates":[[[-37.3925,-9.0269],[-37.3586,-9.0539],[-37.3277,-9.0932],[-37.3151,-9.0946],[-37.3106,-9.1014],[-37.3111,-9.1062],[-37.3036,-9.117],[-37.2968,-9.1207],[-37.2777,-9.1527],[-37.3135,-9.1971],[-37.4359,-9.1836],[-37.4221,-9.1604],[-37.424,-9.1505],[-37.4191,-9.136],[-37.4244,-9.1303],[-37.4266,-9.1017],[-37.4209,-9.0904],[-37.42,-9.0767],[-37.4109,-9.0637],[-37.4063,-9.0618],[-37.4038,-9.0494],[-37.3947,-9.0416],[-37.3957,-9.0299],[-37.3925,-9.0269]]]}},{"type":"Feature","properties":{"admin_code":"BR-AL-PALESTINA","name":"Palestina","name_local":"Palestina"},"geometry":{"type":"Polygon","coordinates":[[[-37.2884,-9.6865],[-37.2421,-9.7358],[-37.3178,-9.7046],[-37.3484,-9.6881],[-37.3366,-9.6719],[-37.3187,-9.6608],[-37.303,-9.636],[-37.2884,-9.6865]]]}},{"type":"Feature","properties":{"admin_code":"BR-AL-PALMEIRA_DOS_INDIOS","name":"Palmeira dos Índios","name_local":"Palmeira dos Índios"},"geometry":{"type":"Polygon","coordinates":[[[-36.6892,-9.2964],[-36.671,-9.3125],[-36.6592,-9.3156],[-36.6453,-9.3144],[-36.5934,-9.3606],[-36.5827,-9.3538],[-36.5747,-9.3576],[-36.5512,-9.3543],[-36.5487,-9.352],[-36.5508,-9.3438],[-36.4861,-9.4063],[-36.4619,-9.4533],[-36.4536,-9.4558],[-36.4569,-9.4666],[-36.469,-9.4856],[-36.4907,-9.5026],[-36.5005,-9.4994],[-36.5182,-9.5038],[-36.524,-9.5121],[-36.5264,-9.5275],[-36.5318,-9.53],[-36.5694,-9.4868],[-36.6157,-9.4822],[-36.6394,-9.5006],[-36.6869,-9.4846],[-36.7089,-9.4848],[-36.7096,-9.478],[-36.7205,-9.4699],[-36.7168,-9.4471],[-36.7222,-9.4326],[-36.7239,-9.3903],[-36.7183,-9.3884],[-36.7125,-9.3772],[-36.7139,-9.3687],[-36.7206,-9.3615],[-36.7207,-9.3514],[-36.7125,-9.314],[-36.6995,-9.293],[-36.6892,-9.2964]]]}},{"type":"Feature","properties":{"admin_code":"BR-AL-PARICONHA","name":"Pariconha","name_local":"Pariconha"},"geometry":{"type":"Polygon","coordinates":[[[-38.1563,-9.2423],[-38.1439,-9.2182],[-38.1153,-9.1983],[-38.1026,-9.1803],[-38.0923,-9.1727],[-38.0793,-9.1704],[-38.065,-9.1739],[-38.0579,-9.1684],[-38.0453,-9.1688],[-38.0309,-9.1646],[-38.0265,-9.156],[-38.0099,-9.1557],[-38.0016,-9.1661],[-38.0016,-9.1701],[-37.9862,-9.1765],[-37.984,-9.18],[-37.9865,-9.188],[-37.9731,-9.197],[-37.9715,-9.2152],[-37.9879,-9.2326],[-37.9801,-9.2405],[-37.9604,-9.2404],[-37.9663,-9.2459],[-37.9629,-9.2535],[-37.9752,-9.2651],[-37.9824,-9.2848],[-37.976,-9.2981],[-37.979,-9.301],[-37.9779,-9.3094],[-37.9833,-9.3301],[-38.0003,-9.336],[-38.1563,-9.2495],[-38.1563,-9.2423]]]}},{"type":"Feature","properties":{"admin_code":"BR-AL-PARIPUEIRA","name":"Paripueira","name_local":"Paripueira"},"geometry":{"type":"Polygon","coordinates":[[[-35.6567,-9.4033],[-35.6414,-9.4022],[-35.6217,-9.4089],[-35.6145,-9.4062],[-35.5949,-9.4076],[-35.5759,-9.402],[-35.5522,-9.4037],[-35.5458,-9.4084],[-35.5449,-9.417],[-35.5237,-9.442],[-35.5319,-9.4569],[-35.5532,-9.4745],[-35.5591,-9.488],[-35.5624,-9.4802],[-35.5838,-9.4699],[-35.6026,-9.4734],[-35.6176,-9.4695],[-35.6245,-9.4619],[-35.6261,-9.4481],[-35.6433,-9.4426],[-35.6646,-9.4303],[-35.6754,-9.3982],[-35.6567,-9.4033]]]}},{"type":"Feature","properties":{"admin_code":"BR-AL-PASSO_DE_CAMARAGIBE","name":"Passo de Camaragibe","name_local":"Passo de Camaragibe"},"geometry":{"type":"Polygon","coordinates":[[[-35.5141,-9.3141],[-35.5133,-9.3089],[-35.5774,-9.2569],[-35.5877,-9.2434],[-35.5983,-9.2224],[-35.5982,-9.2113],[-35.5922,-9.2015],[-35.591,-9.1899],[-35.5972,-9.1867],[-35.5977,-9.1671],[-35.6173,-9.135],[-35.5801,-9.1578],[-35.5547,-9.1913],[-35.4757,-9.1901],[-35.476,-9.1994],[-35.4648,-9.225],[-35.4262,-9.245],[-35.4018,-9.2661],[-35.3905,-9.2835],[-35.3861,-9.2854],[-35.3979,-9.3033],[-35.4195,-9.3158],[-35.4161,-9.3195],[-35.4349,-9.3257],[-35.4426,-9.3395],[-35.459,-9.3437],[-35.473,-9.3585],[-35.5141,-9.3141]]]}},{"type":"Feature","properties":{"admin_code":"BR-AL-PAULO_JACINTO","name":"Paulo Jacinto","name_local":"Paulo Jacinto"},"geometry":{"type":"MultiPolygon","coordinates":[[[[-36.3662,-9.3841],[-36.3667,-9.381],[-36.3634,-9.3826],[-36.3662,-9.3841]]],[[[-36.4861,-9.4063],[-36.4274,-9.3651],[-36.4034,-9.3426],[-36.4034,-9.3372],[-36.3848,-9.3116],[-36.3907,-9.2929],[-36.3399,-9.2867],[-36.3656,-9.3626],[-36.3667,-9.381],[-36.3734,-9.376],[-36.3892,-9.424],[-36.4619,-9.4533],[-36.4861,-9.4063]]]]}},{"type":"Feature","properties":{"admin_code":"BR-AL-PENEDO","name":"Penedo","name_local":"Penedo"},"geometry":{"type":"Polygon","coordinates":[[[-36.4486,-10.0602],[-36.4392,-10.0691],[-36.4336,-10.0735],[-36.4195,-10.0673],[-36.4159,-10.0821],[-36.3991,-10.0843],[-36.3997,-10.1018],[-36.3781,-10.104],[-36.362,-10.1216],[-36.3601,-10.1572],[-36.3445,-10.1642],[-36.3368,-10.174],[-36.3357,-10.1803],[-36.353,-10.2033],[-36.3534,-10.2157],[-36.3568,-10.2204],[-36.366,-10.226],[-36.3724,-10.2242],[-36.373,-10.2322],[-36.3978,-10.2452],[-36.3954,-10.2615],[-36.3812,-10.2761],[-36.3766,-10.2931],[-36.3809,-10.2993],[-36.3921,-10.3098],[-36.3984,-10.3028],[-36.417,-10.3288],[-36.4269,-10.327],[-36.4475,-10.3353],[-36.4602,-10.333],[-36.4954,-10.3542],[-36.4906,-10.3566],[-36.4917,-10.3645],[-36.5077,-10.3684],[-36.5084,-10.3786],[-36.5015,-10.3813],[-36.4912,-10.3789],[-36.4881,-10.3824],[-36.4928,-10.3888],[-36.5039,-10.3908],[-36.506,-10.3942],[-36.4882,-10.4233],[-36.51,-10.4328],[-36.5222,-10.4331],[-36.5194,-10.4257],[-36.5114,-10.4213],[-36.539,-10.4225],[-36.5447,-10.43],[-36.5603,-10.4221],[-36.5653,-10.4157],[-36.5608,-10.3933],[-36.5678,-10.3728],[-36.5661,-10.3285],[-36.5742,-10.3151],[-36.5913,-10.3026],[-36.5887,-10.2994],[-36.5923,-10.2865],[-36.6064,-10.2781],[-36.6219,-10.2592],[-36.6352,-10.2491],[-36.6397,-10.2472],[-36.6439,-10.2509],[-36.656,-10.2448],[-36.6244,-10.2144],[-36.6137,-10.1996],[-36.5246,-10.1767],[-36.5113,-10.1486],[-36.5044,-10.1259],[-36.5015,-10.0941],[-36.4977,-10.0924],[-36.4912,-10.0711],[-36.4558,-10.031],[-36.4486,-10.0602]]]}},{"type":"Feature","properties":{"admin_code":"BR-AL-PIACABUCU","name":"Piaçabuçu","name_local":"Piaçabuçu"},"geometry":{"type":"Polygon","coordinates":[[[-36.3293,-10.3365],[-36.3142,-10.3468],[-36.303,-10.3444],[-36.2937,-10.354],[-36.2989,-10.362],[-36.3122,-10.3716],[-36.3317,-10.3996],[-36.3581,-10.4484],[-36.3906,-10.4997],[-36.4012,-10.492],[-36.408,-10.4712],[-36.4305,-10.4253],[-36.45,-10.4105],[-36.4601,-10.4066],[-36.4882,-10.4233],[-36.506,-10.3942],[-36.5039,-10.3908],[-36.4928,-10.3888],[-36.4881,-10.3824],[-36.4912,-10.3789],[-36.5015,-10.3813],[-36.5084,-10.3786],[-36.5077,-10.3684],[-36.4917,-10.3645],[-36.4906,-10.3566],[-36.4954,-10.3542],[-36.4912,-10.3505],[-36.4602,-10.333],[-36.4475,-10.3353],[-36.4269,-10.327],[-36.417,-10.3288],[-36.3984,-10.3028],[-36.3921,-10.3098],[-36.3293,-10.3365]]]}},{"type":"Feature","properties":{"admin_code":"BR-AL-PILAR","name":"Pilar","name_local":"Pilar"},"geometry":{"type":"Polygon","coordinates":[[[-36.1746,-9.6119],[-36.1574,-9.6184],[-36.1493,-9.612],[-36.1392,-9.613],[-36.128,-9.5992],[-36.1204,-9.5963],[-36.0931,-9.6009],[-36.0736,-9.5981],[-36.0238,-9.5783],[-36.0161,-9.5772],[-36.0069,-9.5849],[-35.96,-9.5288],[-35.9506,-9.533],[-35.9369,-9.5498],[-35.8872,-9.5888],[-35.8814,-9.6009],[-35.878,-9.6009],[-35.8679,-9.6261],[-35.8882,-9.6479],[-35.9434,-9.6397],[-35.9526,-9.6415],[-35.9582,-9.6465],[-35.9679,-9.6421],[-35.9774,-9.6439],[-35.9869,-9.6625],[-35.9801,-9.6728],[-36.0241,-9.6477],[-36.02,-9.6589],[-36.0374,-9.6816],[-36.033,-9.699],[-36.0385,-9.6935],[-36.0561,-9.6917],[-36.0626,-9.6879],[-36.0707,-9.6762],[-36.0907,-9.6561],[-36.0943,-9.6557],[-36.1042,-9.6402],[-36.117,-9.6497],[-36.1326,-9.65],[-36.1341,-9.6458],[-36.1411,-9.6448],[-36.142,-9.6389],[-36.1554,-9.6256],[-36.1762,-9.6209],[-36.1792,-9.613],[-36.1746,-9.6119]]]}},{"type":"Feature","properties":{"admin_code":"BR-AL-PINDOBA","name":"Pindoba","name_local":"Pindoba"},"geometry":{"type":"Polygon","coordinates":[[[-36.2209,-9.4842],[-36.241,-9.5105],[-36.2563,-9.5188],[-36.2961,-9.5191],[-36.3075,-9.5219],[-36.3297,-9.5111],[-36.3339,-9.5132],[-36.3401,-9.5109],[-36.343,-9.4933],[-36.3537,-9.4817],[-36.3554,-9.4693],[-36.3394,-9.4646],[-36.3493,-9.4485],[-36.3247,-9.4425],[-36.3209,-9.4319],[-36.3109,-9.4287],[-36.2918,-9.4287],[-36.253,-9.4437],[-36.2077,-9.4547],[-36.2209,-9.4842]]]}},{"type":"Feature","properties":{"admin_code":"BR-AL-PIRANHAS","name":"Piranhas","name_local":"Piranhas"},"geometry":{"type":"Polygon","coordinates":[[[-37.6549,-9.4081],[-37.6624,-9.4463],[-37.6687,-9.46],[-37.6608,-9.4871],[-37.6728,-9.4995],[-37.6701,-9.5058],[-37.676,-9.523],[-37.6673,-9.5387],[-37.6632,-9.5579],[-37.6371,-9.6018],[-37.6431,-9.6217],[-37.6578,-9.6516],[-37.656,-9.6668],[-37.6595,-9.6776],[-37.6708,-9.6566],[-37.6808,-9.648],[-37.7118,-9.6313],[-37.7472,-9.6256],[-37.7787,-9.6386],[-37.7851,-9.6385],[-37.7915,-9.6228],[-37.807,-9.6101],[-37.8189,-9.5923],[-37.8327,-9.5949],[-37.835,-9.5923],[-37.8447,-9.5701],[-37.8351,-9.5521],[-37.8293,-9.5485],[-37.8182,-9.5474],[-37.8147,-9.5443],[-37.8083,-9.5476],[-37.8021,-9.5424],[-37.7946,-9.5428],[-37.7926,-9.5388],[-37.7942,-9.5351],[-37.7882,-9.5222],[-37.7963,-9.5053],[-37.7826,-9.497],[-37.7712,-9.4692],[-37.7716,-9.4563],[-37.7567,-9.4322],[-37.7199,-9.3882],[-37.7257,-9.3337],[-37.6549,-9.4081]]]}},{"type":"Feature","properties":{"admin_code":"BR-AL-PORTO_CALVO","name":"Porto Calvo","name_local":"Porto Calvo"},"geometry":{"type":"MultiPolygon","coordinates":[[[[-35.3673,-9.0943],[-35.3668,-9.0915],[-35.3629,-9.0913],[-35.3643,-9.0947],[-35.3673,-9.0943]]],[[[-35.4219,-8.9207],[-35.3783,-8.9685],[-35.3667,-8.9428],[-35.354,-8.9636],[-35.3579,-8.9816],[-35.3437,-9.0019],[-35.3304,-9.0131],[-35.3243,-9.0138],[-35.3021,-9.0288],[-35.3361,-9.0322],[-35.3364,-9.0358],[-35.3344,-9.0578],[-35.3384,-9.0708],[-35.3259,-9.1203],[-35.3094,-9.1294],[-35.303,-9.1364],[-35.3112,-9.1418],[-35.3117,-9.1469],[-35.3253,-9.1452],[-35.3368,-9.1371],[-35.3333,-9.1317],[-35.342,-9.1251],[-35.3527,-9.1252],[-35.3491,-9.1206],[-35.357,-9.114],[-35.3564,-9.11],[-35.3499,-9.1121],[-35.3556,-9.1032],[-35.3584,-9.1055],[-35.3654,-9.1027],[-35.36,-9.0933],[-35.3661,-9.0873],[-35.4137,-9.0791],[-35.4275,-9.0703],[-35.44,-9.068],[-35.4566,-9.0695],[-35.465,-9.0755],[-35.4836,-9.0735],[-35.4951,-9.0782],[-35.5009,-9.0841],[-35.5608,-9.0487],[-35.5652,-9.0358],[-35.5629,-9.0248],[-35.5655,-9.0108],[-35.5405,-9.0174],[-35.4544,-8.9494],[-35.4325,-8.937],[-35.4219,-8.9207]]]]}},{"type":"Feature","properties":{"admin_code":"BR-AL-PORTO_REAL_DO_COLEGIO","name":"Porto Real do Colégio","name_local":"Porto Real do Colégio"},"geometry":{"type":"Polygon","coordinates":[[[-36.7051,-10.0185],[-36.7062,-9.9991],[-36.6866,-9.9655],[-36.6648,-9.9733],[-36.6466,-9.9856],[-36.6438,-9.9922],[-36.65,-10.0038],[-36.6426,-10.0083],[-36.6519,-10.0175],[-36.6484,-10.0253],[-36.6495,-10.0332],[-36.661,-10.0366],[-36.6604,-10.0468],[-36.666,-10.0517],[-36.6739,-10.0947],[-36.6836,-10.1259],[-36.7281,-10.1421],[-36.7447,-10.1449],[-36.7309,-10.1609],[-36.7207,-10.2647],[-36.7337,-10.2447],[-36.7472,-10.2309],[-36.8142,-10.2188],[-36.836,-10.2035],[-36.8467,-10.1873],[-36.8473,-10.1762],[-36.8127,-10.1461],[-36.7694,-10.1236],[-36.7605,-10.1046],[-36.7446,-10.088],[-36.7354,-10.0831],[-36.7268,-10.0656],[-36.7141,-10.0524],[-36.7051,-10.0185]]]}},{"type":"Feature","properties":{"admin_code":"BR-AL-PORTO_DE_PEDRAS","name":"Porto de Pedras","name_local":"Porto de Pedras"},"geometry":{"type":"Polygon","coordinates":[[[-35.36,-9.0933],[-35.3654,-9.1027],[-35.3584,-9.1055],[-35.3556,-9.1032],[-35.3499,-9.1121],[-35.3564,-9.11],[-35.357,-9.114],[-35.3491,-9.1206],[-35.3527,-9.1252],[-35.342,-9.1251],[-35.3333,-9.1317],[-35.3368,-9.1371],[-35.3253,-9.1452],[-35.2929,-9.1456],[-35.2901,-9.1487],[-35.2952,-9.1558],[-35.2952,-9.1715],[-35.3018,-9.1859],[-35.308,-9.1941],[-35.3191,-9.1986],[-35.3308,-9.2232],[-35.3427,-9.2307],[-35.3594,-9.2292],[-35.3779,-9.2097],[-35.4276,-9.1938],[-35.4757,-9.1901],[-35.484,-9.177],[-35.4814,-9.1756],[-35.4694,-9.1768],[-35.4587,-9.1847],[-35.4359,-9.1786],[-35.4453,-9.169],[-35.454,-9.1655],[-35.4686,-9.1663],[-35.4843,-9.1443],[-35.5093,-9.1328],[-35.5205,-9.1349],[-35.5265,-9.1183],[-35.5196,-9.1013],[-35.5135,-9.0999],[-35.4951,-9.0782],[-35.4836,-9.0735],[-35.465,-9.0755],[-35.4566,-9.0695],[-35.44,-9.068],[-35.4275,-9.0703],[-35.4137,-9.0791],[-35.3661,-9.0873],[-35.36,-9.0933]],[[-35.3668,-9.0915],[-35.3673,-9.0943],[-35.3643,-9.0947],[-35.3629,-9.0913],[-35.3668,-9.0915]]]}},{"type":"Feature","properties":{"admin_code":"BR-AL-POCO_DAS_TRINCHEIRAS","name":"Poço das Trincheiras","name_local":"Poço das Trincheiras"},"geometry":{"type":"Polygon","coordinates":[[[-37.1591,-9.2391],[-37.1682,-9.2517],[-37.1688,-9.2643],[-37.2029,-9.2916],[-37.2166,-9.312],[-37.2859,-9.343],[-37.3136,-9.351],[-37.3372,-9.3504],[-37.3649,-9.3575],[-37.3899,-9.3521],[-37.4032,-9.3621],[-37.4573,-9.3553],[-37.4842,-9.3449],[-37.5196,-9.3106],[-37.5595,-9.305],[-37.5779,-9.297],[-37.5877,-9.2968],[-37.587,-9.2882],[-37.3991,-9.3325],[-37.4145,-9.2895],[-37.3354,-9.2672],[-37.2291,-9.2265],[-37.234,-9.2331],[-37.2343,-9.2401],[-37.2121,-9.221],[-37.1983,-9.2154],[-37.1591,-9.2391]]]}},{"type":"Feature","properties":{"admin_code":"BR-AL-PAO_DE_ACUCAR","name":"Pão de Açúcar","name_local":"Pão de Açúcar"},"geometry":{"type":"Polygon","coordinates":[[[-37.249,-9.7374],[-37.2517,-9.7495],[-37.2728,-9.765],[-37.2773,-9.773],[-37.2873,-9.7724],[-37.287,-9.7769],[-37.3026,-9.789],[-37.3095,-9.8042],[-37.2979,-9.8185],[-37.2965,-9.8277],[-37.3211,-9.8203],[-37.3546,-9.789],[-37.3958,-9.7785],[-37.428,-9.7588],[-37.4737,-9.7468],[-37.5192,-9.7459],[-37.5782,-9.7364],[-37.5943,-9.7232],[-37.6548,-9.6864],[-37.6595,-9.6776],[-37.656,-9.6668],[-37.6578,-9.6516],[-37.6431,-9.6217],[-37.6371,-9.6018],[-37.6632,-9.5579],[-37.6673,-9.5387],[-37.6706,-9.5353],[-37.659,-9.5198],[-37.6429,-9.52],[-37.617,-9.4966],[-37.5807,-9.5139],[-37.5713,-9.5066],[-37.5635,-9.5182],[-37.5635,-9.5391],[-37.5685,-9.5473],[-37.5409,-9.5646],[-37.5355,-9.579],[-37.5292,-9.5853],[-37.4964,-9.6089],[-37.4914,-9.6172],[-37.4796,-9.6254],[-37.4683,-9.6495],[-37.359,-9.6338],[-37.3573,-9.6438],[-37.351,-9.6452],[-37.303,-9.636],[-37.3187,-9.6608],[-37.3366,-9.6719],[-37.3484,-9.6881],[-37.3178,-9.7046],[-37.2421,-9.7358],[-37.249,-9.7374]]]}},{"type":"Feature","properties":{"admin_code":"BR-AL-QUEBRANGULO","name":"Quebrangulo","name_local":"Quebrangulo"},"geometry":{"type":"Polygon","coordinates":[[[-36.6239,-9.3271],[-36.6141,-9.324],[-36.6151,-9.3301],[-36.6079,-9.3337],[-36.6052,-9.3409],[-36.5927,-9.335],[-36.5851,-9.3369],[-36.5681,-9.3316],[-36.564,-9.3228],[-36.5724,-9.3195],[-36.5718,-9.2939],[-36.5524,-9.2823],[-36.4915,-9.2618],[-36.4927,-9.2541],[-36.4875,-9.2408],[-36.4719,-9.2431],[-36.462,-9.2387],[-36.454,-9.2313],[-36.4543,-9.2262],[-36.448,-9.2246],[-36.437,-9.2121],[-36.4238,-9.2158],[-36.4244,-9.226],[-36.421,-9.229],[-36.4146,-9.229],[-36.408,-9.2213],[-36.3908,-9.2249],[-36.3749,-9.2168],[-36.3657,-9.2226],[-36.3571,-9.2183],[-36.3509,-9.2248],[-36.3463,-9.2367],[-36.3405,-9.2411],[-36.3362,-9.2712],[-36.3267,-9.275],[-36.325,-9.2806],[-36.3268,-9.2854],[-36.3907,-9.2929],[-36.3848,-9.3116],[-36.4034,-9.3372],[-36.4034,-9.3426],[-36.4274,-9.3651],[-36.4861,-9.4063],[-36.5508,-9.3438],[-36.5487,-9.352],[-36.5512,-9.3543],[-36.5747,-9.3576],[-36.5827,-9.3538],[-36.5934,-9.3606],[-36.625,-9.3318],[-36.6239,-9.3271]]]}},{"type":"Feature","properties":{"admin_code":"BR-AL-RIO_LARGO","name":"Rio Largo","name_local":"Rio Largo"},"geometry":{"type":"Polygon","coordinates":[[[-35.9408,-9.4986],[-35.9329,-9.4803],[-35.9287,-9.3751],[-35.8774,-9.4167],[-35.7694,-9.3886],[-35.7972,-9.5321],[-35.8272,-9.5503],[-35.8463,-9.5484],[-35.8872,-9.5888],[-35.9369,-9.5498],[-35.9506,-9.533],[-35.96,-9.5288],[-35.9408,-9.4986]]]}},{"type":"Feature","properties":{"admin_code":"BR-AL-ROTEIRO","name":"Roteiro","name_local":"Roteiro"},"geometry":{"type":"Polygon","coordinates":[[[-36.0247,-9.8119],[-36.0147,-9.8087],[-35.9966,-9.8195],[-35.9907,-9.8188],[-35.9832,-9.8261],[-35.9746,-9.8268],[-35.9626,-9.8333],[-35.9503,-9.8449],[-35.9383,-9.8448],[-35.922,-9.8379],[-35.9168,-9.8394],[-35.9063,-9.8525],[-35.9038,-9.8595],[-35.9074,-9.8748],[-35.9345,-9.8982],[-35.9632,-9.9414],[-35.9676,-9.9309],[-35.9775,-9.9253],[-35.9782,-9.9161],[-35.9836,-9.9113],[-35.9988,-9.9154],[-36.0141,-9.9076],[-36.0212,-9.9203],[-36.0441,-9.8491],[-36.0376,-9.8276],[-36.0395,-9.8165],[-36.0351,-9.8113],[-36.0272,-9.8095],[-36.0247,-9.8119]]]}},{"type":"Feature","properties":{"admin_code":"BR-AL-SANTA_LUZIA_DO_NORTE","name":"Santa Luzia do Norte","name_local":"Santa Luzia do Norte"},"geometry":{"type":"Polygon","coordinates":[[[-35.8131,-9.6179],[-35.8242,-9.639],[-35.8409,-9.6417],[-35.8655,-9.6316],[-35.8679,-9.6261],[-35.8543,-9.6101],[-35.8507,-9.6111],[-35.8509,-9.6078],[-35.843,-9.6039],[-35.8241,-9.5783],[-35.8133,-9.5806],[-35.7936,-9.5996],[-35.8131,-9.6179]]]}},{"type":"Feature","properties":{"admin_code":"BR-AL-SANTANA_DO_IPANEMA","name":"Santana do Ipanema","name_local":"Santana do Ipanema"},"geometry":{"type":"Polygon","coordinates":[[[-37.1693,-9.2724],[-37.1643,-9.2757],[-37.1427,-9.2681],[-37.1296,-9.2595],[-37.1164,-9.2409],[-37.1071,-9.2392],[-37.0907,-9.2463],[-37.0781,-9.2563],[-37.0572,-9.2818],[-37.0619,-9.2973],[-37.0575,-9.3175],[-37.0738,-9.3182],[-37.0866,-9.3299],[-37.0907,-9.351],[-37.1027,-9.3617],[-37.109,-9.3795],[-37.1203,-9.388],[-37.1465,-9.4181],[-37.1488,-9.4359],[-37.1992,-9.4323],[-37.2067,-9.4344],[-37.2105,-9.443],[-37.2151,-9.4444],[-37.2551,-9.4466],[-37.2664,-9.4495],[-37.2694,-9.4538],[-37.3185,-9.4206],[-37.3318,-9.424],[-37.4448,-9.3574],[-37.4032,-9.3621],[-37.3899,-9.3521],[-37.3649,-9.3575],[-37.3372,-9.3504],[-37.3136,-9.351],[-37.2859,-9.343],[-37.2166,-9.312],[-37.2029,-9.2916],[-37.1688,-9.2643],[-37.1693,-9.2724]]]}},{"type":"Feature","properties":{"admin_code":"BR-AL-SANTANA_DO_MUNDAU","name":"Santana do Mundaú","name_local":"Santana do Mundaú"},"geometry":{"type":"Polygon","coordinates":[[[-36.2747,-9.1666],[-36.2628,-9.1712],[-36.2575,-9.1388],[-36.2635,-9.1248],[-36.2607,-9.1184],[-36.2661,-9.1118],[-36.2675,-9.1031],[-36.2455,-9.099],[-36.2364,-9.1035],[-36.2224,-9.0864],[-36.2212,-9.0731],[-36.2103,-9.0731],[-36.2036,-9.0677],[-36.1956,-9.0446],[-36.1889,-9.0462],[-36.18,-9.0412],[-36.1755,-9.0436],[-36.1524,-9.0423],[-36.1232,-9.0302],[-36.1422,-9.0624],[-36.1333,-9.0622],[-36.1182,-9.0559],[-36.1321,-9.1244],[-36.1225,-9.1316],[-36.1108,-9.1571],[-36.1463,-9.1823],[-36.1832,-9.2005],[-36.2008,-9.2187],[-36.2866,-9.1834],[-36.2909,-9.174],[-36.2747,-9.1666]]]}},{"type":"Feature","properties":{"admin_code":"BR-AL-SATUBA","name":"Satuba","name_local":"Satuba"},"geometry":{"type":"Polygon","coordinates":[[[-35.8133,-9.5806],[-35.8241,-9.5783],[-35.843,-9.6039],[-35.8509,-9.6078],[-35.8507,-9.6111],[-35.8543,-9.6101],[-35.8679,-9.6261],[-35.878,-9.6009],[-35.8814,-9.6009],[-35.8872,-9.5888],[-35.8463,-9.5484],[-35.8272,-9.5503],[-35.7972,-9.5321],[-35.8133,-9.5806]]]}},{"type":"Feature","properties":{"admin_code":"BR-AL-SENADOR_RUI_PALMEIRA","name":"Senador Rui Palmeira","name_local":"Senador Rui Palmeira"},"geometry":{"type":"Polygon","coordinates":[[[-37.4499,-9.4533],[-37.4443,-9.4771],[-37.6549,-9.4081],[-37.6469,-9.4002],[-37.6464,-9.3929],[-37.6328,-9.3734],[-37.6168,-9.3557],[-37.609,-9.3353],[-37.5913,-9.3108],[-37.5877,-9.2968],[-37.5779,-9.297],[-37.5595,-9.305],[-37.5196,-9.3106],[-37.4842,-9.3449],[-37.4448,-9.3574],[-37.3318,-9.424],[-37.4499,-9.4533]]]}},{"type":"Feature","properties":{"admin_code":"BR-AL-SAO_BRAS","name":"São Brás","name_local":"São Brás"},"geometry":{"type":"Polygon","coordinates":[[[-36.8745,-10.0537],[-36.8724,-10.0583],[-36.8216,-10.0746],[-36.8133,-10.0918],[-36.8039,-10.0962],[-36.8011,-10.101],[-36.7895,-10.1053],[-36.7864,-10.1109],[-36.7694,-10.1236],[-36.8127,-10.1461],[-36.8473,-10.1762],[-36.8485,-10.1628],[-36.8513,-10.1599],[-36.8673,-10.1574],[-36.8769,-10.1461],[-36.9142,-10.1363],[-36.9244,-10.1263],[-36.9306,-10.1057],[-36.9435,-10.0927],[-36.9516,-10.0744],[-36.9437,-10.0763],[-36.8689,-10.0471],[-36.8745,-10.0537]]]}},{"type":"Feature","properties":{"admin_code":"BR-AL-SAO_JOSE_DA_LAJE","name":"São José da Laje","name_local":"São José da Laje"},"geometry":{"type":"Polygon","coordinates":[[[-36.1117,-9.0174],[-36.1146,-9.014],[-36.1137,-9.0092],[-36.1043,-8.9989],[-36.1113,-8.9885],[-36.1267,-8.9812],[-36.1298,-8.9658],[-36.1276,-8.9568],[-36.1233,-8.9531],[-36.0863,-8.9439],[-36.0639,-8.9153],[-36.0264,-8.9079],[-36.0053,-8.913],[-35.9922,-8.9049],[-35.9844,-8.9063],[-35.9546,-8.9479],[-35.9611,-8.9596],[-35.9565,-8.965],[-35.9531,-8.9887],[-35.9605,-8.995],[-35.9531,-9.0321],[-36.0024,-9.0398],[-36.0188,-9.0457],[-36.0253,-9.0382],[-36.0299,-9.0399],[-36.0269,-9.0418],[-36.0298,-9.0487],[-36.0243,-9.0539],[-36.0492,-9.065],[-36.0512,-9.059],[-36.0611,-9.0587],[-36.073,-9.0624],[-36.0766,-9.0675],[-36.0884,-9.0673],[-36.0933,-9.0718],[-36.092,-9.0602],[-36.1148,-9.0545],[-36.1333,-9.0622],[-36.1422,-9.0624],[-36.1117,-9.0174]]]}},{"type":"Feature","properties":{"admin_code":"BR-AL-SAO_JOSE_DA_TAPERA","name":"São José da Tapera","name_local":"São José da Tapera"},"geometry":{"type":"Polygon","coordinates":[[[-37.3728,-9.5249],[-37.3131,-9.5525],[-37.3568,-9.6369],[-37.359,-9.6338],[-37.4683,-9.6495],[-37.4796,-9.6254],[-37.4914,-9.6172],[-37.4964,-9.6089],[-37.5292,-9.5853],[-37.5355,-9.579],[-37.5409,-9.5646],[-37.5685,-9.5473],[-37.5635,-9.5391],[-37.5635,-9.5182],[-37.5713,-9.5066],[-37.5807,-9.5139],[-37.617,-9.4966],[-37.6429,-9.52],[-37.659,-9.5198],[-37.6706,-9.5353],[-37.676,-9.523],[-37.6701,-9.5058],[-37.6728,-9.4995],[-37.6608,-9.4871],[-37.6687,-9.46],[-37.6624,-9.4463],[-37.6549,-9.4081],[-37.4443,-9.4771],[-37.3728,-9.5249]]]}},{"type":"Feature","properties":{"admin_code":"BR-AL-SAO_LUIS_DO_QUITUNDE","name":"São Luís do Quitunde","name_local":"São Luís do Quitunde"},"geometry":{"type":"Polygon","coordinates":[[[-35.5199,-9.3244],[-35.5138,-9.3441],[-35.5179,-9.3538],[-35.5235,-9.3543],[-35.5324,-9.3471],[-35.537,-9.3474],[-35.5593,-9.3575],[-35.6864,-9.3705],[-35.6933,-9.2602],[-35.7029,-9.23],[-35.725,-9.1243],[-35.7115,-9.1137],[-35.6971,-9.1084],[-35.6885,-9.0998],[-35.6795,-9.0996],[-35.6656,-9.1085],[-35.6531,-9.1077],[-35.6496,-9.1204],[-35.6378,-9.1187],[-35.627,-9.1294],[-35.6204,-9.1317],[-35.5977,-9.1671],[-35.5972,-9.1867],[-35.591,-9.1899],[-35.5922,-9.2015],[-35.5982,-9.2113],[-35.5983,-9.2224],[-35.5905,-9.2387],[-35.5774,-9.2569],[-35.5133,-9.3089],[-35.5199,-9.3244]]]}},{"type":"Feature","properties":{"admin_code":"BR-AL-SAO_MIGUEL_DOS_CAMPOS","name":"São Miguel dos Campos","name_local":"São Miguel dos Campos"},"geometry":{"type":"Polygon","coordinates":[[[-36.0272,-9.8095],[-36.0351,-9.8113],[-36.0395,-9.8165],[-36.0376,-9.8276],[-36.0441,-9.8491],[-36.0409,-9.8583],[-36.0508,-9.8717],[-36.0655,-9.8767],[-36.0659,-9.8814],[-36.07,-9.8809],[-36.0763,-9.8709],[-36.0902,-9.8665],[-36.096,-9.8557],[-36.1169,-9.8448],[-36.1243,-9.8378],[-36.127,-9.8302],[-36.1444,-9.8556],[-36.1571,-9.8583],[-36.1654,-9.8501],[-36.1713,-9.8265],[-36.1849,-9.7965],[-36.2467,-9.7321],[-36.1809,-9.7224],[-36.074,-9.7009],[-36.0686,-9.6891],[-36.0794,-9.6803],[-36.0739,-9.674],[-36.0626,-9.6879],[-36.0561,-9.6917],[-36.0385,-9.6935],[-36.03,-9.7014],[-36.0042,-9.7058],[-35.9892,-9.7026],[-35.9893,-9.7386],[-36.0272,-9.8095]]]}},{"type":"Feature","properties":{"admin_code":"BR-AL-SAO_MIGUEL_DOS_MILAGRES","name":"São Miguel dos Milagres","name_local":"São Miguel dos Milagres"},"geometry":{"type":"Polygon","coordinates":[[[-35.3905,-9.2835],[-35.4018,-9.2661],[-35.4262,-9.245],[-35.4648,-9.225],[-35.476,-9.1994],[-35.4757,-9.1901],[-35.4276,-9.1938],[-35.3779,-9.2097],[-35.3594,-9.2292],[-35.3388,-9.2297],[-35.3566,-9.2584],[-35.3739,-9.2773],[-35.3861,-9.2854],[-35.3905,-9.2835]]]}},{"type":"Feature","properties":{"admin_code":"BR-AL-SAO_SEBASTIAO","name":"São Sebastião","name_local":"São Sebastião"},"geometry":{"type":"Polygon","coordinates":[[[-36.5912,-9.8778],[-36.5847,-9.8813],[-36.5631,-9.8742],[-36.5431,-9.8802],[-36.5421,-9.8715],[-36.5554,-9.8509],[-36.5547,-9.8411],[-36.5518,-9.8396],[-36.5293,-9.8471],[-36.5166,-9.8588],[-36.5049,-9.8557],[-36.4966,-9.8675],[-36.4995,-9.8943],[-36.4975,-9.9008],[-36.4876,-9.9161],[-36.4853,-9.9275],[-36.471,-9.9402],[-36.4723,-9.9505],[-36.4787,-9.9625],[-36.4723,-9.974],[-36.474,-9.9958],[-36.4875,-10.016],[-36.4873,-10.0228],[-36.4843,-10.0265],[-36.4716,-10.0302],[-36.4558,-10.031],[-36.4912,-10.0711],[-36.5085,-10.0689],[-36.5172,-10.0405],[-36.6495,-10.0332],[-36.6484,-10.0253],[-36.6519,-10.0175],[-36.6426,-10.0083],[-36.65,-10.0038],[-36.6438,-9.9922],[-36.6466,-9.9856],[-36.6307,-9.98],[-36.6284,-9.9766],[-36.6306,-9.9655],[-36.6377,-9.959],[-36.6326,-9.9517],[-36.6134,-9.9498],[-36.6121,-9.9174],[-36.6146,-9.9126],[-36.6119,-9.9052],[-36.6038,-9.9032],[-36.6027,-9.8726],[-36.5929,-9.8722],[-36.5912,-9.8778]]]}},{"type":"Feature","properties":{"admin_code":"BR-AL-TANQUE_DARCA","name":"Tanque d'Arca","name_local":"Tanque d'Arca"},"geometry":{"type":"Polygon","coordinates":[[[-36.3919,-9.6042],[-36.3886,-9.6288],[-36.3808,-9.6354],[-36.3949,-9.6476],[-36.4071,-9.6349],[-36.3996,-9.6223],[-36.4018,-9.6189],[-36.4164,-9.6119],[-36.4317,-9.6161],[-36.4459,-9.606],[-36.4907,-9.5026],[-36.469,-9.4856],[-36.451,-9.5052],[-36.3868,-9.5103],[-36.3861,-9.5163],[-36.3803,-9.5192],[-36.3759,-9.5281],[-36.3825,-9.5426],[-36.3789,-9.5713],[-36.3684,-9.5816],[-36.3488,-9.5927],[-36.3919,-9.6042]]]}},{"type":"Feature","properties":{"admin_code":"BR-AL-TAQUARANA","name":"Taquarana","name_local":"Taquarana"},"geometry":{"type":"MultiPolygon","coordinates":[[[[-36.5545,-9.5396],[-36.5385,-9.5331],[-36.4952,-9.6039],[-36.4696,-9.6061],[-36.465,-9.6176],[-36.4542,-9.6156],[-36.4459,-9.606],[-36.4317,-9.6161],[-36.4164,-9.6119],[-36.4018,-9.6189],[-36.3996,-9.6223],[-36.4071,-9.6349],[-36.3883,-9.6518],[-36.4661,-9.6743],[-36.5091,-9.6917],[-36.5275,-9.6865],[-36.5422,-9.6446],[-36.5438,-9.6277],[-36.5512,-9.6207],[-36.5705,-9.563],[-36.5545,-9.5396]]],[[[-36.5731,-9.5609],[-36.5705,-9.563],[-36.5747,-9.5645],[-36.5731,-9.5609]]]]}},{"type":"Feature","properties":{"admin_code":"BR-AL-TEOTONIO_VILELA","name":"Teotônio Vilela","name_local":"Teotônio Vilela"},"geometry":{"type":"Polygon","coordinates":[[[-36.2779,-9.8922],[-36.2773,-9.8997],[-36.2898,-9.9946],[-36.2979,-10.0128],[-36.3056,-10.0194],[-36.3048,-10.0298],[-36.4514,-10.041],[-36.4558,-10.031],[-36.4716,-10.0302],[-36.4843,-10.0265],[-36.4873,-10.0228],[-36.4875,-10.016],[-36.474,-9.9958],[-36.4723,-9.974],[-36.4787,-9.9625],[-36.4688,-9.9705],[-36.458,-9.9622],[-36.4484,-9.9604],[-36.3987,-9.8871],[-36.3954,-9.8744],[-36.2779,-9.8922]]]}},{"type":"Feature","properties":{"admin_code":"BR-AL-TRAIPU","name":"Traipu","name_local":"Traipu"},"geometry":{"type":"Polygon","coordinates":[[[-37.0377,-9.8041],[-37.0316,-9.7881],[-37.0218,-9.7856],[-37.0154,-9.7707],[-36.9987,-9.7625],[-36.9995,-9.7299],[-36.9945,-9.7221],[-36.9845,-9.7152],[-36.9854,-9.7065],[-36.9751,-9.6937],[-36.8855,-9.7459],[-36.8968,-9.7726],[-36.8993,-9.7911],[-36.9071,-9.7921],[-36.9042,-9.8093],[-36.9306,-9.8225],[-36.9351,-9.8285],[-36.9341,-9.8418],[-36.9489,-9.8583],[-36.9251,-9.8894],[-36.9013,-9.898],[-36.8517,-9.9287],[-36.8283,-9.9444],[-36.813,-9.9589],[-36.7986,-9.9591],[-36.8101,-9.9826],[-36.8274,-9.9978],[-36.8378,-10.0016],[-36.8424,-10.0103],[-36.8611,-10.0276],[-36.8689,-10.0471],[-36.9437,-10.0763],[-36.9516,-10.0744],[-36.9591,-10.0505],[-36.9564,-10.0192],[-36.9639,-9.9975],[-36.9726,-9.9879],[-36.9948,-9.9754],[-37.0003,-9.9753],[-37.0378,-9.9891],[-37.0497,-9.9865],[-37.0698,-9.9718],[-37.133,-9.9135],[-37.1258,-9.8936],[-37.1196,-9.8892],[-37.1161,-9.8709],[-37.1078,-9.8651],[-37.1043,-9.8478],[-37.0377,-9.8041]]]}},{"type":"Feature","properties":{"admin_code":"BR-AL-UNIAO_DOS_PALMARES","name":"União dos Palmares","name_local":"União dos Palmares"},"geometry":{"type":"Polygon","coordinates":[[[-36.0599,-9.2154],[-36.0672,-9.2067],[-36.0806,-9.206],[-36.089,-9.2014],[-36.1119,-9.208],[-36.1285,-9.2017],[-36.2008,-9.2187],[-36.1832,-9.2005],[-36.1463,-9.1823],[-36.1108,-9.1571],[-36.1225,-9.1316],[-36.1321,-9.1244],[-36.1182,-9.0559],[-36.1148,-9.0545],[-36.092,-9.0602],[-36.0933,-9.0718],[-36.0884,-9.0673],[-36.0766,-9.0675],[-36.073,-9.0624],[-36.0611,-9.0587],[-36.0512,-9.059],[-36.0492,-9.065],[-36.0273,-9.0559],[-36.0243,-9.0539],[-36.0298,-9.0487],[-36.0269,-9.0418],[-36.0299,-9.0399],[-36.0253,-9.0382],[-36.0188,-9.0457],[-36.0024,-9.0398],[-35.9531,-9.0321],[-35.9438,-9.036],[-35.9336,-9.0324],[-35.9245,-9.0338],[-35.9193,-9.0413],[-35.9034,-9.0481],[-35.9024,-9.0589],[-35.8897,-9.0675],[-35.883,-9.0641],[-35.8781,-9.0547],[-35.8617,-9.0536],[-35.8864,-9.1383],[-36.0599,-9.2154]]]}},{"type":"Feature","properties":{"admin_code":"BR-AL-VICOSA","name":"Viçosa","name_local":"Viçosa"},"geometry":{"type":"Polygon","coordinates":[[[-36.3656,-9.3626],[-36.3399,-9.2867],[-36.3268,-9.2854],[-36.3231,-9.2894],[-36.325,-9.2965],[-36.3006,-9.3032],[-36.2985,-9.3109],[-36.2365,-9.291],[-36.2008,-9.2187],[-36.1545,-9.305],[-36.2111,-9.453],[-36.253,-9.4437],[-36.3008,-9.4272],[-36.3209,-9.4319],[-36.3247,-9.4425],[-36.3493,-9.4485],[-36.3394,-9.4646],[-36.3892,-9.424],[-36.3734,-9.376],[-36.3667,-9.381],[-36.3656,-9.3626]],[[-36.3662,-9.3841],[-36.3634,-9.3826],[-36.3667,-9.381],[-36.3662,-9.3841]]]}},{"type":"Feature","properties":{"admin_code":"BR-AL-AGUA_BRANCA","name":"Água Branca","name_local":"Água Branca"},"geometry":{"type":"Polygon","coordinates":[[[-37.9995,-9.1522],[-37.9922,-9.1552],[-37.9785,-9.1469],[-37.9713,-9.1249],[-37.9576,-9.1156],[-37.9517,-9.0987],[-37.8327,-9.2201],[-37.7683,-9.2905],[-37.7773,-9.3238],[-37.8073,-9.329],[-37.8177,-9.3354],[-37.8248,-9.3479],[-37.8327,-9.353],[-37.8359,-9.365],[-37.8446,-9.3728],[-37.8504,-9.3908],[-37.8653,-9.4042],[-37.8764,-9.4043],[-38.0003,-9.336],[-37.9833,-9.3301],[-37.9779,-9.3094],[-37.979,-9.301],[-37.976,-9.2981],[-37.9824,-9.2848],[-37.9752,-9.2651],[-37.9629,-9.2535],[-37.9663,-9.2459],[-37.9604,-9.2404],[-37.9801,-9.2405],[-37.9862,-9.2362],[-37.9879,-9.2326],[-37.9854,-9.2284],[-37.9715,-9.2152],[-37.9731,-9.197],[-37.9843,-9.1906],[-37.9862,-9.1765],[-38.0016,-9.1701],[-38.0016,-9.1661],[-38.0099,-9.1557],[-37.9995,-9.1522]]]}}]}