{"type":"FeatureCollection","features":[{"type":"Feature","properties":{"admin_code":"CN-NX-YINCHUAN","name":"Yinchuan (city districts)","name_local":"银川市区"},"geometry":{"type":"Polygon","coordinates":[[[105.8571,38.4484],[105.8621,38.6038],[105.8954,38.6894],[106.0036,38.6481],[106.086,38.6448],[106.1268,38.6646],[106.153,38.6863],[106.1903,38.6942],[106.2098,38.669],[106.2024,38.6337],[106.2042,38.5211],[106.2376,38.5006],[106.3297,38.5136],[106.3561,38.4807],[106.3824,38.4597],[106.4266,38.4744],[106.4604,38.5079],[106.5503,38.5271],[106.5433,38.4721],[106.5301,38.4443],[106.4675,38.3933],[106.4295,38.3813],[106.3768,38.3407],[106.3757,38.3855],[106.3435,38.4106],[106.2987,38.4022],[106.2691,38.3825],[106.2335,38.4021],[106.1121,38.3481],[106.0685,38.3442],[106.0053,38.3829],[105.9697,38.3933],[105.9214,38.3907],[105.8794,38.3946],[105.8452,38.4132],[105.8571,38.4484]]]}},{"type":"Feature","properties":{"admin_code":"CN-NX-YONGNING","name":"Yongning County","name_local":"永宁县"},"geometry":{"type":"Polygon","coordinates":[[[105.8591,38.33],[105.8358,38.3851],[105.8452,38.4132],[105.8794,38.3946],[105.9214,38.3907],[105.9697,38.3933],[106.0053,38.3829],[106.0685,38.3442],[106.1121,38.3481],[106.2335,38.4021],[106.2691,38.3825],[106.2987,38.4022],[106.3435,38.4106],[106.3757,38.3855],[106.3768,38.3407],[106.3313,38.2727],[106.2561,38.1951],[106.2281,38.1357],[106.0471,38.182],[106.0035,38.1841],[105.9645,38.1967],[105.9101,38.2345],[105.8634,38.2516],[105.8016,38.2635],[105.8591,38.33]]]}},{"type":"Feature","properties":{"admin_code":"CN-NX-HELAN","name":"Helan County","name_local":"贺兰县"},"geometry":{"type":"Polygon","coordinates":[[[105.9303,38.8215],[105.9542,38.8839],[105.9918,38.9069],[106.0752,38.8435],[106.1383,38.7787],[106.2431,38.7685],[106.2777,38.7563],[106.3198,38.7605],[106.3531,38.7771],[106.3808,38.7441],[106.4089,38.7268],[106.5066,38.6953],[106.5523,38.6911],[106.5262,38.6307],[106.528,38.5924],[106.5494,38.5472],[106.5503,38.5271],[106.4604,38.5079],[106.4266,38.4744],[106.3824,38.4597],[106.3561,38.4807],[106.3297,38.5136],[106.2376,38.5006],[106.2042,38.5211],[106.2024,38.6337],[106.2098,38.669],[106.1903,38.6942],[106.153,38.6863],[106.1268,38.6646],[106.086,38.6448],[106.0036,38.6481],[105.8954,38.6894],[105.9303,38.8215]]]}},{"type":"Feature","properties":{"admin_code":"CN-NX-LINGWU","name":"Lingwu","name_local":"灵武市"},"geometry":{"type":"Polygon","coordinates":[[[106.4613,38.32],[106.5186,38.3013],[106.5844,38.2593],[106.8075,38.157],[106.8089,38.0883],[106.7774,38.0041],[106.8022,37.9317],[106.8195,37.8987],[106.8384,37.8336],[106.8424,37.8034],[106.8278,37.7599],[106.7706,37.7106],[106.7567,37.6808],[106.7509,37.6428],[106.6943,37.6199],[106.6436,37.6191],[106.6062,37.6108],[106.5693,37.5815],[106.5026,37.4903],[106.3261,37.5045],[106.2643,37.5028],[106.2958,37.5755],[106.2946,37.5992],[106.2746,37.6188],[106.2757,37.6919],[106.2647,37.7208],[106.2492,37.7442],[106.2478,37.7734],[106.2971,37.837],[106.3005,37.8663],[106.2677,37.9476],[106.2418,37.9871],[106.2355,38.018],[106.2369,38.0839],[106.2281,38.1357],[106.2561,38.1951],[106.3313,38.2727],[106.3768,38.3407],[106.4085,38.3679],[106.4613,38.32]]]}},{"type":"Feature","properties":{"admin_code":"CN-NX-DAWUKOU","name":"Dawukou District","name_local":"大武口区"},"geometry":{"type":"Polygon","coordinates":[[[106.2809,39.2537],[106.3557,39.2876],[106.4657,39.2751],[106.4664,39.2253],[106.4879,39.182],[106.5333,39.046],[106.5376,38.9881],[106.4968,38.9495],[106.4516,38.9472],[106.361,38.9974],[106.3321,39.0326],[106.3338,39.0661],[106.3242,39.0968],[106.3,39.1196],[106.2695,39.1229],[106.2809,39.2537]]]}},{"type":"Feature","properties":{"admin_code":"CN-NX-HUINONG","name":"Huinong District","name_local":"惠农区"},"geometry":{"type":"Polygon","coordinates":[[[106.7346,39.3803],[106.7554,39.3516],[106.7667,39.2604],[106.8433,39.1214],[106.8453,39.0739],[106.8167,39.0056],[106.7879,39.0292],[106.7662,39.0548],[106.7251,39.0563],[106.654,39.0297],[106.5642,39.0073],[106.5376,38.9881],[106.5333,39.046],[106.4879,39.182],[106.4664,39.2253],[106.4657,39.2751],[106.5358,39.3491],[106.7346,39.3803]]]}},{"type":"Feature","properties":{"admin_code":"CN-NX-PINGLUO","name":"Pingluo County","name_local":"平罗县"},"geometry":{"type":"Polygon","coordinates":[[[106.9671,39.0073],[106.9739,38.9617],[106.9511,38.9264],[106.8199,38.8758],[106.7302,38.8182],[106.6958,38.7758],[106.6454,38.6984],[106.6105,38.5648],[106.609,38.4454],[106.5893,38.3909],[106.5135,38.3438],[106.5186,38.3013],[106.4613,38.32],[106.4085,38.3679],[106.4295,38.3813],[106.4675,38.3933],[106.5301,38.4443],[106.5433,38.4721],[106.5494,38.5472],[106.528,38.5924],[106.5262,38.6307],[106.5523,38.6911],[106.5066,38.6953],[106.4089,38.7268],[106.3808,38.7441],[106.3531,38.7771],[106.3198,38.7605],[106.2777,38.7563],[106.2431,38.7685],[106.1383,38.7787],[106.0752,38.8435],[105.9918,38.9069],[106.0721,38.9562],[106.085,39.0309],[106.2205,39.1281],[106.3,39.1196],[106.3242,39.0968],[106.3338,39.0661],[106.3321,39.0326],[106.361,38.9974],[106.4516,38.9472],[106.4968,38.9495],[106.5261,38.9798],[106.5642,39.0073],[106.654,39.0297],[106.7251,39.0563],[106.7662,39.0548],[106.7879,39.0292],[106.8167,39.0056],[106.8453,39.0739],[106.9339,39.0467],[106.9671,39.0073]]]}},{"type":"Feature","properties":{"admin_code":"CN-NX-LITONG","name":"Litong District","name_local":"利通区"},"geometry":{"type":"Polygon","coordinates":[[[106.2369,38.0839],[106.2355,38.018],[106.2418,37.9871],[106.2677,37.9476],[106.3005,37.8663],[106.2971,37.837],[106.2478,37.7734],[106.2492,37.7442],[106.2647,37.7208],[106.2757,37.6919],[106.2746,37.6188],[106.2946,37.5992],[106.2958,37.5755],[106.2643,37.5028],[106.2148,37.494],[106.1552,37.4959],[106.1212,37.5096],[106.0786,37.5488],[106.1127,37.6199],[106.12,37.6515],[106.124,37.7344],[106.1394,37.8449],[106.1172,37.8791],[106.0457,37.9191],[106.0599,37.954],[106.1113,37.9702],[106.1326,37.9923],[106.1905,38.1029],[106.2281,38.1357],[106.2369,38.0839]]]}},{"type":"Feature","properties":{"admin_code":"CN-NX-QINGTONGXIA","name":"Qingtongxia","name_local":"青铜峡市"},"geometry":{"type":"Polygon","coordinates":[[[105.6308,37.7058],[105.6105,37.7763],[105.6983,37.7818],[105.8045,37.8316],[105.8694,37.92],[105.8719,37.9811],[105.8527,38.0543],[105.7916,38.1132],[105.7544,38.1608],[105.8016,38.2635],[105.8634,38.2516],[105.9101,38.2345],[105.9645,38.1967],[106.0035,38.1841],[106.0471,38.182],[106.2281,38.1357],[106.1905,38.1029],[106.1326,37.9923],[106.1113,37.9702],[106.0599,37.954],[106.0457,37.9191],[106.1172,37.8791],[106.1394,37.8449],[106.124,37.7344],[106.12,37.6515],[106.1127,37.6199],[106.0786,37.5488],[106.0152,37.5581],[105.995,37.6299],[105.9741,37.7787],[105.9371,37.7776],[105.9194,37.7518],[105.9055,37.7041],[105.8691,37.7039],[105.8334,37.6964],[105.7976,37.7007],[105.7073,37.6768],[105.645,37.6772],[105.6194,37.7037],[105.6308,37.7058]]]}},{"type":"Feature","properties":{"admin_code":"CN-NX-YANCHI","name":"Yanchi County","name_local":"盐池县"},"geometry":{"type":"Polygon","coordinates":[[[107.0113,38.1015],[107.0455,38.1023],[107.0766,38.1224],[107.1531,38.156],[107.2369,38.1498],[107.2877,38.127],[107.3068,38.1133],[107.3722,38.0368],[107.4177,37.9944],[107.459,37.905],[107.5061,37.8821],[107.6341,37.8769],[107.6244,37.8021],[107.584,37.766],[107.4929,37.7589],[107.453,37.7422],[107.4497,37.7041],[107.3615,37.6838],[107.3338,37.6178],[107.2792,37.5671],[107.327,37.5513],[107.3038,37.4925],[107.2075,37.4013],[107.1892,37.3657],[107.2303,37.3163],[107.2571,37.2977],[107.2578,37.2788],[107.2129,37.2552],[107.2208,37.2202],[107.2543,37.1945],[107.3009,37.1684],[107.308,37.1535],[107.2964,37.1114],[107.284,37.096],[107.2579,37.0955],[107.2453,37.0839],[107.2258,37.0835],[107.166,37.1162],[107.0874,37.1257],[107.0159,37.1203],[106.9907,37.1006],[106.9584,37.0923],[106.9323,37.0954],[106.9251,37.1103],[106.8984,37.1258],[106.8791,37.1215],[106.8668,37.1024],[106.8473,37.1019],[106.7802,37.1464],[106.7539,37.1533],[106.7412,37.1455],[106.7298,37.1071],[106.7106,37.0991],[106.6191,37.1084],[106.6116,37.1662],[106.6574,37.2413],[106.6488,37.277],[106.6247,37.2994],[106.5971,37.3626],[106.5735,37.3992],[106.528,37.4505],[106.5026,37.4903],[106.5693,37.5815],[106.6062,37.6108],[106.6436,37.6191],[106.6943,37.6199],[106.7509,37.6428],[106.7567,37.6808],[106.7706,37.7106],[106.8278,37.7599],[106.8424,37.8034],[106.8384,37.8336],[106.8195,37.8987],[106.8022,37.9317],[106.7774,38.0041],[106.8089,38.0883],[106.8075,38.157],[107.0113,38.1015]]]}},{"type":"Feature","properties":{"admin_code":"CN-NX-TONGXIN","name":"Tongxin County","name_local":"同心县"},"geometry":{"type":"Polygon","coordinates":[[[106.3261,37.5045],[106.5026,37.4903],[106.528,37.4505],[106.5735,37.3992],[106.5971,37.3626],[106.6247,37.2994],[106.6488,37.277],[106.6574,37.2413],[106.6116,37.1662],[106.6191,37.1084],[106.6128,37.1091],[106.6052,37.0992],[106.6139,36.9809],[106.6029,36.9214],[106.5471,36.942],[106.5053,36.8816],[106.555,36.8679],[106.6016,36.8993],[106.5922,36.8283],[106.6173,36.7767],[106.5763,36.7252],[106.5109,36.7332],[106.4663,36.6886],[106.4282,36.5726],[106.3593,36.6003],[106.3201,36.6003],[106.2479,36.5863],[106.2139,36.5684],[106.1517,36.5583],[106.1425,36.6093],[106.1138,36.6449],[106.0988,36.6724],[106.0912,36.7035],[106.0515,36.7569],[106.0239,36.7792],[106.0226,36.8062],[105.9899,36.8216],[105.9436,36.8988],[105.9067,36.9361],[105.8637,36.9487],[105.8215,36.9343],[105.8001,36.909],[105.7477,36.8995],[105.7016,36.9353],[105.6711,36.952],[105.6416,36.9358],[105.6039,36.9291],[105.5588,36.9278],[105.4419,36.9511],[105.359,36.9562],[105.3414,36.9799],[105.3002,37.0129],[105.3335,37.0728],[105.3662,37.101],[105.42,37.1079],[105.4629,37.1056],[105.5004,37.1311],[105.5032,37.1687],[105.5125,37.204],[105.5362,37.2276],[105.5657,37.2118],[105.5889,37.1886],[105.6196,37.1692],[105.6587,37.1576],[105.6936,37.1578],[105.7331,37.1668],[105.7724,37.1845],[105.7945,37.2112],[105.8027,37.2433],[105.7983,37.2758],[105.8003,37.3046],[105.8288,37.3217],[105.8685,37.3142],[105.9106,37.2989],[105.9559,37.2982],[105.9571,37.3586],[105.9672,37.388],[106.0327,37.4543],[106.0786,37.5488],[106.1212,37.5096],[106.1552,37.4959],[106.2148,37.494],[106.2643,37.5028],[106.3261,37.5045]]]}},{"type":"Feature","properties":{"admin_code":"CN-NX-SHAPOTOU","name":"Shapotou District","name_local":"沙坡头区"},"geometry":{"type":"Polygon","coordinates":[[[104.2894,37.4832],[104.3904,37.456],[104.4472,37.508],[104.5336,37.5125],[104.6214,37.5565],[104.7763,37.5287],[104.8935,37.5249],[104.9638,37.5475],[105.2911,37.6951],[105.4166,37.7233],[105.4415,37.7162],[105.4391,37.6371],[105.453,37.5973],[105.4808,37.5477],[105.5673,37.4591],[105.6107,37.3976],[105.642,37.3818],[105.6731,37.3285],[105.661,37.289],[105.6176,37.2699],[105.5599,37.2534],[105.5125,37.204],[105.5032,37.1687],[105.5004,37.1311],[105.4629,37.1056],[105.42,37.1079],[105.3662,37.101],[105.3335,37.0728],[105.3002,37.0129],[105.2535,37.0032],[105.1539,36.965],[105.1174,37.0038],[105.0206,37.032],[104.9594,37.0571],[104.8943,37.1227],[104.8563,37.2107],[104.7493,37.2262],[104.6694,37.223],[104.6413,37.2424],[104.6179,37.2703],[104.6479,37.3003],[104.7063,37.3069],[104.7677,37.3464],[104.8134,37.3812],[104.8278,37.4065],[104.8163,37.4184],[104.7317,37.4026],[104.6623,37.3998],[104.6002,37.4032],[104.5232,37.4233],[104.4315,37.4115],[104.3615,37.4281],[104.2267,37.4192],[104.2894,37.4832]]]}},{"type":"Feature","properties":{"admin_code":"CN-NX-ZHONGNING","name":"Zhongning County","name_local":"中宁县"},"geometry":{"type":"Polygon","coordinates":[[[105.5389,37.6885],[105.6194,37.7037],[105.645,37.6772],[105.7073,37.6768],[105.7976,37.7007],[105.8334,37.6964],[105.8691,37.7039],[105.9055,37.7041],[105.9194,37.7518],[105.9371,37.7776],[105.9741,37.7787],[105.995,37.6299],[106.0152,37.5581],[106.0786,37.5488],[106.0327,37.4543],[105.9672,37.388],[105.9571,37.3586],[105.9559,37.2982],[105.9106,37.2989],[105.8685,37.3142],[105.8288,37.3217],[105.8003,37.3046],[105.7983,37.2758],[105.8027,37.2433],[105.7945,37.2112],[105.7724,37.1845],[105.7331,37.1668],[105.6936,37.1578],[105.6587,37.1576],[105.6196,37.1692],[105.5889,37.1886],[105.5657,37.2118],[105.5362,37.2276],[105.5599,37.2534],[105.6176,37.2699],[105.661,37.289],[105.6731,37.3285],[105.642,37.3818],[105.6107,37.3976],[105.5673,37.4591],[105.4808,37.5477],[105.453,37.5973],[105.4391,37.6371],[105.4415,37.7162],[105.5389,37.6885]]]}},{"type":"Feature","properties":{"admin_code":"CN-NX-HAIYUAN","name":"Haiyuan County","name_local":"海原县"},"geometry":{"type":"Polygon","coordinates":[[[105.2535,37.0032],[105.3002,37.0129],[105.3414,36.9799],[105.359,36.9562],[105.4419,36.9511],[105.5588,36.9278],[105.6039,36.9291],[105.6416,36.9358],[105.6711,36.952],[105.7016,36.9353],[105.7477,36.8995],[105.8001,36.909],[105.8215,36.9343],[105.8637,36.9487],[105.9067,36.9361],[105.9436,36.8988],[105.9899,36.8216],[106.0226,36.8062],[106.0239,36.7792],[106.0515,36.7569],[106.0912,36.7035],[106.0988,36.6724],[106.1138,36.6449],[106.1425,36.6093],[106.1517,36.5583],[106.0798,36.5564],[106.0435,36.5453],[106.0428,36.483],[106.0311,36.4532],[106.0422,36.4129],[106.0408,36.3753],[105.9857,36.3206],[105.9611,36.287],[105.9727,36.2555],[105.9962,36.2217],[106.0066,36.1938],[105.945,36.1839],[105.903,36.1979],[105.8653,36.1816],[105.8338,36.1594],[105.7841,36.1555],[105.7416,36.1634],[105.706,36.154],[105.6267,36.2056],[105.5841,36.219],[105.4974,36.1982],[105.4872,36.2528],[105.4869,36.2966],[105.4279,36.4075],[105.3977,36.4764],[105.3499,36.5155],[105.2593,36.5281],[105.2485,36.6092],[105.2232,36.6685],[105.2384,36.6992],[105.3235,36.7422],[105.32,36.8173],[105.2918,36.8677],[105.26,36.901],[105.1887,36.8727],[105.1615,36.869],[105.169,36.949],[105.1539,36.965],[105.2535,37.0032]]]}},{"type":"Feature","properties":{"admin_code":"CN-NX-YUANZHOU","name":"Yuanzhou District","name_local":"原州区"},"geometry":{"type":"Polygon","coordinates":[[[106.2139,36.5684],[106.2479,36.5863],[106.3201,36.6003],[106.3593,36.6003],[106.4282,36.5726],[106.4264,36.5672],[106.3304,36.5273],[106.4661,36.4215],[106.4854,36.3495],[106.4648,36.3038],[106.4357,36.2703],[106.4918,36.2647],[106.4921,36.2268],[106.4613,36.088],[106.4614,36.0532],[106.4987,36.0001],[106.5067,35.9635],[106.4814,35.9318],[106.4419,35.9194],[106.394,35.9203],[106.304,35.8743],[106.2867,35.8385],[106.3207,35.7799],[106.3237,35.7378],[106.3554,35.7008],[106.3857,35.6889],[106.4108,35.6151],[106.3776,35.6183],[106.3361,35.605],[106.2946,35.5792],[106.2346,35.5813],[106.1803,35.7264],[106.1739,35.7667],[106.1294,35.7807],[106.0512,35.7726],[106.029,35.7954],[106.0141,35.8311],[106.0452,35.8926],[106.0238,35.952],[106.0162,35.9919],[106.0388,36.0634],[106.0378,36.1074],[105.9962,36.2217],[105.9727,36.2555],[105.9611,36.287],[105.9857,36.3206],[106.0408,36.3753],[106.0422,36.4129],[106.0311,36.4532],[106.0428,36.483],[106.0435,36.5453],[106.0798,36.5564],[106.1517,36.5583],[106.2139,36.5684]]]}},{"type":"Feature","properties":{"admin_code":"CN-NX-XIJI","name":"Xiji County","name_local":"西吉县"},"geometry":{"type":"Polygon","coordinates":[[[105.5841,36.219],[105.6267,36.2056],[105.706,36.154],[105.7416,36.1634],[105.7841,36.1555],[105.8338,36.1594],[105.8653,36.1816],[105.903,36.1979],[105.945,36.1839],[106.0066,36.1938],[106.0378,36.1074],[106.0388,36.0634],[106.0162,35.9919],[106.0238,35.952],[106.0452,35.8926],[106.0141,35.8311],[106.029,35.7954],[106.0512,35.7726],[106.0397,35.7354],[106.0713,35.7195],[106.0282,35.6964],[105.9821,35.6926],[105.9205,35.6597],[105.8875,35.6504],[105.8358,35.5964],[105.8137,35.5891],[105.7409,35.6487],[105.7134,35.6844],[105.7079,35.6988],[105.7332,35.7034],[105.7421,35.711],[105.7322,35.7216],[105.6993,35.7278],[105.6318,35.7292],[105.5896,35.6948],[105.5706,35.7014],[105.5486,35.719],[105.5299,35.722],[105.4859,35.757],[105.4479,35.7703],[105.3776,35.7787],[105.3716,35.8004],[105.3843,35.8228],[105.3836,35.8338],[105.3331,35.8594],[105.3235,35.903],[105.3327,35.9435],[105.3578,35.992],[105.4166,36.0234],[105.4555,36.0358],[105.493,36.0737],[105.5072,36.1108],[105.4974,36.1982],[105.5841,36.219]]]}},{"type":"Feature","properties":{"admin_code":"CN-NX-LONGDE","name":"Longde County","name_local":"隆德县"},"geometry":{"type":"Polygon","coordinates":[[[106.1294,35.7807],[106.1739,35.7667],[106.1803,35.7264],[106.2346,35.5813],[106.2274,35.5529],[106.2124,35.5208],[106.2115,35.4924],[106.2301,35.4631],[106.2348,35.4356],[106.2167,35.4048],[106.1825,35.4122],[106.1601,35.3969],[106.134,35.3632],[106.1112,35.3552],[106.0791,35.3944],[106.0773,35.4309],[106.0584,35.4377],[105.9672,35.4092],[105.9371,35.4082],[105.9218,35.4149],[105.9267,35.4298],[105.9684,35.4312],[106.0069,35.447],[106.034,35.4625],[106.0382,35.47],[106.0238,35.4805],[105.984,35.4865],[105.9638,35.5188],[105.9356,35.5253],[105.9078,35.5244],[105.8878,35.5091],[105.8793,35.4942],[105.8652,35.4974],[105.8592,35.5228],[105.8412,35.5551],[105.8137,35.5891],[105.8358,35.5964],[105.8875,35.6504],[105.9205,35.6597],[105.9821,35.6926],[106.0282,35.6964],[106.0713,35.7195],[106.0397,35.7354],[106.0512,35.7726],[106.1294,35.7807]]]}},{"type":"Feature","properties":{"admin_code":"CN-NX-JINGYUAN","name":"Jingyuan County","name_local":"泾源县"},"geometry":{"type":"Polygon","coordinates":[[[106.2946,35.5792],[106.3361,35.605],[106.3776,35.6183],[106.4108,35.6151],[106.4326,35.5598],[106.4171,35.5054],[106.4556,35.4498],[106.4642,35.3846],[106.4234,35.2498],[106.3721,35.2202],[106.3284,35.2417],[106.2841,35.3024],[106.2507,35.3696],[106.2167,35.4048],[106.2348,35.4356],[106.2301,35.4631],[106.2115,35.4924],[106.2124,35.5208],[106.2274,35.5529],[106.2346,35.5813],[106.2946,35.5792]]]}},{"type":"Feature","properties":{"admin_code":"CN-NX-PENGYANG","name":"Pengyang County","name_local":"彭阳县"},"geometry":{"type":"Polygon","coordinates":[[[106.5762,36.2715],[106.731,36.2057],[106.8281,36.2108],[106.8802,36.1281],[106.9168,36.091],[106.9196,35.9646],[106.8355,35.8953],[106.8751,35.8105],[106.8955,35.7517],[106.8155,35.7541],[106.7851,35.6985],[106.721,35.7243],[106.6813,35.6799],[106.6107,35.6992],[106.5599,35.727],[106.448,35.7372],[106.3857,35.6889],[106.3554,35.7008],[106.3237,35.7378],[106.3207,35.7799],[106.2867,35.8385],[106.304,35.8743],[106.394,35.9203],[106.4419,35.9194],[106.4814,35.9318],[106.5067,35.9635],[106.4987,36.0001],[106.4614,36.0532],[106.4613,36.088],[106.4921,36.2268],[106.4918,36.2647],[106.5762,36.2715]]]}}]}