{"type":"FeatureCollection","features":[{"type":"Feature","properties":{"admin_code":"CN-BJ","name":"Beijing","name_local":"北京市"},"geometry":{"type":"Polygon","coordinates":[[[116.879,39.698],[116.66,39.695],[116.56,39.65],[116.553,39.575],[116.39,39.604],[116.275,39.669],[115.842,39.629],[115.672,39.73],[115.571,39.831],[115.54,39.951],[115.606,40.116],[115.761,40.269],[115.914,40.307],[115.994,40.445],[115.899,40.542],[115.934,40.628],[116.244,40.751],[116.397,40.763],[116.369,40.914],[116.475,40.894],[116.491,40.978],[116.622,41.067],[116.752,41.073],[117.14,40.754],[117.279,40.793],[117.472,40.764],[117.506,40.71],[117.349,40.605],[117.328,40.528],[117.36,40.426],[117.502,40.305],[117.297,40.153],[117.021,40.15],[116.845,40.095],[116.837,40.038],[117.054,39.89],[117.033,39.775],[116.879,39.698]]]}},{"type":"Feature","properties":{"admin_code":"CN-TJ","name":"Tianjin","name_local":"天津市"},"geometry":{"type":"Polygon","coordinates":[[[117.81,39.135],[117.696,39.009],[117.648,38.689],[117.518,38.677],[117.161,38.818],[117.035,38.79],[116.921,38.825],[116.793,38.963],[116.808,39.083],[116.879,39.156],[116.897,39.334],[116.861,39.407],[116.917,39.602],[116.904,39.706],[117.033,39.775],[117.248,39.757],[117.297,40.153],[117.495,40.3],[117.645,40.281],[117.752,40.225],[117.732,40.083],[117.645,40.038],[117.656,39.868],[117.762,39.721],[117.928,39.686],[117.962,39.526],[118.13,39.493],[118.157,39.429],[118.119,39.209],[117.81,39.135]]]}},{"type":"Feature","properties":{"admin_code":"CN-HE","name":"Hebei","name_local":"河北省"},"geometry":{"type":"MultiPolygon","coordinates":[[[[115.112,36.202],[114.89,36.311],[114.77,36.246],[114.651,36.268],[114.57,36.338],[114.245,36.373],[114.137,36.451],[113.813,36.462],[113.609,36.735],[113.595,36.86],[113.72,36.887],[113.886,37.043],[113.876,37.228],[113.945,37.316],[113.974,37.421],[114.212,37.71],[114.201,37.78],[113.959,38.106],[113.924,38.272],[113.654,38.397],[113.668,38.676],[113.939,38.885],[113.85,39.033],[114.005,39.157],[114.285,39.173],[114.485,39.24],[114.542,39.446],[114.622,39.591],[114.601,39.658],[114.472,39.797],[114.476,39.911],[114.434,39.993],[114.16,40.062],[114.122,40.182],[114.171,40.261],[114.5,40.37],[114.528,40.414],[114.403,40.48],[114.34,40.681],[114.212,40.792],[114.23,40.815],[113.949,41.169],[114.065,41.299],[113.998,41.394],[114.04,41.55],[114.248,41.698],[114.284,41.905],[114.604,42.223],[114.912,42.195],[115.026,42.043],[114.977,41.732],[115.008,41.684],[115.315,41.663],[115.512,41.825],[115.927,41.99],[116.168,41.941],[116.466,42.102],[116.577,42.051],[116.83,42.025],[116.899,42.051],[116.952,42.268],[116.924,42.368],[116.941,42.468],[117.239,42.583],[117.427,42.586],[117.649,42.681],[117.82,42.663],[118.006,42.436],[118.089,42.268],[118.276,42.07],[118.238,41.833],[118.432,41.615],[118.435,41.488],[118.47,41.431],[118.99,41.363],[119.101,41.41],[119.285,41.387],[119.271,41.254],[119.072,41.165],[119.081,41.056],[118.956,40.961],[119.101,40.787],[119.285,40.753],[119.373,40.647],[119.68,40.591],[119.712,40.391],[119.856,40.281],[119.857,40.129],[119.971,40.074],[119.587,39.95],[119.581,39.862],[119.289,39.7],[119.099,39.437],[119.013,39.223],[118.633,39.215],[118.395,39.118],[118.232,39.202],[118.119,39.209],[118.157,39.429],[118.13,39.493],[117.962,39.526],[117.928,39.686],[117.762,39.721],[117.656,39.868],[117.645,40.038],[117.732,40.083],[117.752,40.225],[117.645,40.281],[117.495,40.3],[117.36,40.426],[117.328,40.528],[117.349,40.605],[117.506,40.71],[117.472,40.764],[117.279,40.793],[117.14,40.754],[116.752,41.073],[116.697,41.076],[116.622,41.067],[116.491,40.978],[116.475,40.894],[116.369,40.914],[116.397,40.763],[116.244,40.751],[115.934,40.628],[115.899,40.542],[115.994,40.445],[115.914,40.307],[115.761,40.269],[115.606,40.116],[115.54,39.951],[115.571,39.831],[115.672,39.73],[115.842,39.629],[116.275,39.669],[116.39,39.604],[116.553,39.575],[116.56,39.65],[116.66,39.695],[116.904,39.706],[116.917,39.602],[116.861,39.407],[116.897,39.334],[116.879,39.156],[116.808,39.083],[116.793,38.963],[116.921,38.825],[117.035,38.79],[117.161,38.818],[117.518,38.677],[117.648,38.689],[117.642,38.65],[117.883,38.303],[117.794,38.166],[117.604,38.136],[117.582,37.991],[117.512,37.936],[117.23,37.957],[116.943,37.919],[116.547,37.657],[116.434,37.709],[116.298,37.477],[116.136,37.451],[115.778,36.925],[115.469,36.738],[115.431,36.521],[115.61,36.307],[115.583,36.211],[115.296,36.29],[115.112,36.202]]],[[[117.248,39.757],[117.028,39.776],[117.054,39.89],[116.837,40.038],[116.845,40.095],[117.021,40.15],[117.299,40.153],[117.248,39.757]]]]}},{"type":"Feature","properties":{"admin_code":"CN-SX","name":"Shanxi","name_local":"山西省"},"geometry":{"type":"Polygon","coordinates":[[[113.665,35.698],[113.015,35.363],[112.744,35.38],[112.636,35.305],[112.305,35.354],[112.197,35.288],[112.143,35.19],[111.92,35.18],[111.549,34.93],[111.282,34.916],[111.036,34.853],[110.845,34.728],[110.419,34.719],[110.37,34.816],[110.388,35.22],[110.689,35.638],[110.71,35.767],[110.547,36.174],[110.568,36.676],[110.46,36.768],[110.495,37.098],[110.734,37.396],[110.856,37.772],[110.547,38.101],[110.544,38.24],[110.915,38.536],[111.052,39.047],[111.237,39.186],[111.272,39.503],[111.303,39.474],[111.498,39.604],[111.601,39.754],[111.926,39.725],[112.045,39.85],[112.381,40.368],[112.541,40.388],[112.763,40.282],[112.898,40.306],[113.11,40.494],[113.273,40.509],[113.39,40.433],[113.55,40.422],[113.841,40.557],[114.067,40.596],[114.212,40.792],[114.34,40.681],[114.403,40.48],[114.528,40.414],[114.5,40.37],[114.171,40.261],[114.122,40.182],[114.16,40.062],[114.434,39.993],[114.476,39.911],[114.472,39.797],[114.601,39.658],[114.622,39.591],[114.542,39.446],[114.485,39.24],[114.285,39.173],[114.005,39.157],[113.85,39.033],[113.939,38.885],[113.668,38.676],[113.654,38.397],[113.924,38.272],[113.959,38.106],[114.201,37.78],[114.212,37.71],[113.974,37.421],[113.945,37.316],[113.876,37.228],[113.886,37.043],[113.72,36.887],[113.595,36.86],[113.609,36.735],[113.813,36.462],[113.665,35.698]]]}},{"type":"Feature","properties":{"admin_code":"CN-NM","name":"Inner Mongolia","name_local":"内蒙古自治区"},"geometry":{"type":"Polygon","coordinates":[[[107.51,38.081],[107.246,38.24],[106.934,38.229],[106.636,38.386],[107.066,39.116],[106.873,39.264],[106.873,39.405],[106.66,39.432],[106.52,39.343],[106.38,39.341],[106.321,39.242],[106.092,39.132],[106.096,38.966],[105.906,38.757],[105.906,38.294],[105.453,38.004],[105.096,37.674],[104.599,37.62],[104.51,37.546],[104.306,37.527],[103.979,37.623],[103.964,37.694],[103.635,37.799],[103.618,38.055],[103.726,38.224],[103.731,38.422],[104.022,38.466],[104.139,38.565],[104.155,38.773],[104.121,38.875],[104.248,39.008],[104.219,39.216],[103.834,39.455],[103.38,39.468],[102.832,39.084],[102.375,38.944],[101.608,38.923],[101.393,38.96],[101.279,39.036],[101.119,39.044],[100.918,39.154],[100.897,39.377],[100.925,39.457],[100.887,39.527],[100.44,39.537],[100.289,39.683],[99.98,39.796],[99.817,39.979],[100.002,40.173],[100.435,40.454],[100.419,40.759],[100.137,40.915],[99.059,40.861],[98.609,40.562],[98.403,40.537],[98.235,40.615],[97.997,40.845],[97.78,40.976],[97.428,41.461],[97.401,41.68],[97.574,41.958],[97.406,42.168],[97.367,42.546],[97.452,42.566],[99.303,42.448],[100.337,42.576],[101.848,42.411],[102.229,42.093],[103.096,41.967],[103.8,41.786],[104.573,41.804],[104.608,41.631],[105.003,41.569],[105.148,41.67],[105.911,42.026],[106.844,42.301],[107.243,42.36],[107.395,42.46],[107.902,42.388],[108.234,42.437],[109.423,42.468],[110.419,42.785],[111.067,43.364],[111.584,43.51],[112.0,43.728],[112.028,43.836],[111.442,44.371],[111.92,45.071],[112.551,45.042],[112.732,44.882],[113.647,44.811],[114.503,45.206],[114.653,45.444],[115.642,45.447],[116.271,45.787],[116.253,45.909],[116.42,46.177],[116.847,46.457],[117.326,46.436],[117.519,46.629],[117.768,46.58],[118.397,46.78],[119.522,46.668],[119.871,46.756],[119.926,46.881],[119.729,47.2],[119.169,47.563],[119.08,47.783],[118.824,47.788],[118.46,47.99],[117.77,48.006],[117.413,47.664],[117.045,47.86],[116.248,47.86],[115.967,47.671],[115.599,47.904],[115.508,48.156],[115.834,48.276],[115.914,48.619],[116.083,48.731],[116.125,48.803],[116.058,48.872],[116.564,49.647],[116.728,49.849],[117.068,49.708],[117.718,49.576],[117.876,49.575],[118.006,49.598],[118.581,49.944],[119.128,50.01],[119.3,50.121],[119.325,50.188],[119.191,50.423],[119.271,50.567],[119.522,50.805],[120.099,51.655],[120.632,51.912],[120.754,52.241],[120.632,52.353],[120.689,52.486],[120.576,52.57],[120.12,52.612],[120.148,52.831],[120.436,52.963],[120.808,53.243],[121.593,53.406],[121.917,53.08],[121.337,52.662],[121.629,52.504],[121.797,52.471],[121.933,52.345],[122.068,52.335],[122.193,52.385],[122.247,52.513],[122.355,52.53],[122.496,52.461],[122.599,52.328],[122.789,52.299],[122.84,52.254],[122.781,52.083],[122.874,51.968],[122.823,51.78],[123.035,51.475],[123.238,51.37],[123.399,51.333],[123.551,51.375],[123.661,51.296],[123.822,51.296],[123.923,51.38],[124.093,51.359],[124.186,51.407],[124.406,51.37],[124.618,51.422],[124.88,51.401],[125.151,51.675],[125.54,51.633],[125.947,51.19],[126.091,51.19],[126.108,51.062],[126.074,50.934],[125.879,50.859],[125.862,50.726],[125.913,50.683],[125.862,50.554],[125.608,50.435],[125.515,50.252],[125.363,50.17],[125.269,49.68],[125.379,49.471],[125.278,49.229],[125.185,49.184],[124.99,49.223],[124.848,49.091],[124.631,48.503],[124.593,48.236],[124.452,48.359],[124.425,48.542],[124.262,48.564],[123.488,48.037],[123.352,47.998],[123.293,47.845],[122.648,47.582],[122.569,47.416],[122.704,47.176],[122.877,47.131],[123.137,46.883],[123.522,46.79],[123.647,46.871],[123.598,46.736],[123.415,46.648],[123.144,46.679],[123.03,46.378],[123.168,46.299],[123.151,46.196],[122.905,46.167],[122.846,46.098],[122.905,46.011],[122.829,45.815],[122.721,45.808],[122.541,45.977],[122.472,45.975],[122.354,45.886],[122.146,46.047],[121.941,46.078],[121.861,45.902],[121.775,45.828],[121.844,45.767],[122.017,45.741],[122.112,45.556],[122.283,45.5],[122.316,45.406],[122.272,45.244],[122.145,45.208],[122.121,45.105],[122.142,44.757],[122.336,44.572],[122.371,44.483],[122.298,44.414],[122.419,44.292],[123.162,44.557],[123.231,44.532],[123.408,44.193],[123.386,44.1],[123.539,43.967],[123.595,43.713],[123.487,43.666],[123.467,43.565],[123.81,43.43],[123.688,43.152],[123.314,43.037],[123.206,42.862],[122.865,42.791],[122.724,42.898],[122.491,42.946],[122.464,42.858],[122.491,42.775],[122.393,42.735],[122.128,42.791],[122.003,42.755],[121.987,42.628],[121.786,42.56],[121.564,42.608],[121.18,42.376],[120.949,42.37],[120.61,42.193],[120.207,41.843],[120.093,42.047],[119.94,42.214],[119.978,42.327],[119.75,42.358],[119.621,42.465],[119.375,42.37],[119.386,42.278],[119.458,42.178],[119.379,41.724],[119.493,41.571],[119.455,41.454],[119.323,41.382],[119.101,41.41],[118.99,41.363],[118.47,41.431],[118.435,41.488],[118.432,41.615],[118.238,41.833],[118.276,42.07],[118.089,42.268],[118.006,42.436],[117.82,42.663],[117.649,42.681],[117.427,42.586],[117.239,42.583],[116.941,42.468],[116.924,42.368],[116.952,42.268],[116.899,42.051],[116.83,42.025],[116.577,42.051],[116.466,42.102],[116.168,41.941],[115.927,41.99],[115.512,41.825],[115.315,41.663],[115.008,41.684],[114.977,41.732],[115.026,42.043],[114.912,42.195],[114.604,42.223],[114.284,41.905],[114.248,41.698],[114.04,41.55],[113.998,41.394],[114.065,41.299],[113.949,41.169],[114.23,40.815],[114.067,40.596],[113.841,40.557],[113.55,40.422],[113.39,40.433],[113.273,40.509],[113.11,40.494],[112.898,40.306],[112.763,40.282],[112.541,40.388],[112.381,40.368],[112.045,39.85],[111.926,39.725],[111.601,39.754],[111.498,39.604],[111.303,39.474],[111.113,39.646],[110.75,39.382],[110.592,39.457],[110.356,39.447],[110.284,39.516],[110.207,39.415],[109.92,39.186],[109.85,38.944],[109.916,38.861],[109.909,38.796],[109.774,38.72],[109.562,38.704],[109.493,38.574],[109.386,38.511],[109.171,38.278],[109.004,38.182],[108.761,37.8],[108.689,37.75],[108.404,37.761],[108.307,37.912],[108.193,37.926],[108.099,37.86],[107.581,37.826],[107.51,38.081]]]}},{"type":"Feature","properties":{"admin_code":"CN-LN","name":"Liaoning","name_local":"辽宁省"},"geometry":{"type":"MultiPolygon","coordinates":[[[[122.54,39.286],[122.723,39.282],[122.726,39.231],[122.609,39.225],[122.54,39.286]]],[[[119.856,40.281],[119.712,40.391],[119.68,40.591],[119.373,40.647],[119.285,40.753],[119.101,40.787],[118.956,40.961],[119.081,41.056],[119.072,41.165],[119.271,41.254],[119.285,41.387],[119.455,41.454],[119.493,41.571],[119.379,41.724],[119.458,42.178],[119.386,42.278],[119.375,42.37],[119.621,42.465],[119.75,42.358],[119.978,42.327],[119.94,42.214],[120.093,42.047],[120.207,41.843],[120.61,42.193],[120.949,42.37],[121.18,42.376],[121.564,42.608],[121.786,42.56],[121.987,42.628],[122.003,42.755],[122.128,42.791],[122.393,42.735],[122.491,42.775],[122.464,42.858],[122.491,42.946],[122.724,42.898],[122.865,42.791],[123.206,42.862],[123.314,43.037],[123.688,43.152],[123.81,43.43],[123.784,43.44],[123.859,43.538],[124.363,43.321],[124.503,43.149],[124.474,42.989],[124.545,42.948],[124.683,43.006],[124.743,43.11],[124.916,43.174],[124.978,43.08],[124.963,42.915],[125.075,42.814],[125.059,42.724],[125.197,42.632],[125.402,42.259],[125.56,42.216],[125.396,41.904],[125.449,41.716],[125.538,41.689],[125.676,41.442],[125.842,41.275],[125.791,41.068],[125.73,40.996],[125.78,40.863],[125.311,40.639],[125.152,40.602],[125.051,40.48],[124.874,40.441],[124.5,40.174],[124.441,39.967],[124.112,39.847],[123.812,39.873],[123.663,39.8],[123.399,39.822],[123.324,39.716],[123.144,39.73],[122.3,39.34],[122.15,39.185],[121.954,39.08],[121.657,38.989],[121.215,38.761],[121.144,38.854],[121.233,39.021],[121.351,39.016],[121.484,39.109],[121.635,39.144],[121.653,39.209],[121.806,39.404],[121.625,39.407],[121.317,39.61],[121.487,39.677],[121.535,39.887],[121.951,40.097],[122.329,40.536],[121.993,40.906],[121.827,40.959],[121.563,40.912],[121.22,40.956],[121.039,40.891],[121.012,40.752],[120.616,40.488],[120.54,40.259],[119.971,40.074],[119.857,40.129],[119.856,40.281]]]]}},{"type":"Feature","properties":{"admin_code":"CN-JL","name":"Jilin","name_local":"吉林省"},"geometry":{"type":"Polygon","coordinates":[[[125.73,40.996],[125.791,41.068],[125.842,41.275],[125.676,41.442],[125.538,41.689],[125.449,41.716],[125.396,41.904],[125.56,42.216],[125.402,42.259],[125.197,42.632],[125.059,42.724],[125.075,42.814],[124.963,42.915],[124.978,43.08],[124.916,43.174],[124.743,43.11],[124.683,43.006],[124.545,42.948],[124.474,42.989],[124.503,43.149],[124.363,43.321],[123.859,43.538],[123.784,43.44],[123.467,43.565],[123.487,43.666],[123.595,43.713],[123.539,43.967],[123.386,44.1],[123.408,44.193],[123.231,44.532],[123.162,44.557],[122.419,44.292],[122.298,44.414],[122.371,44.483],[122.336,44.572],[122.142,44.757],[122.121,45.105],[122.145,45.208],[122.272,45.244],[122.316,45.406],[122.283,45.5],[122.112,45.556],[122.017,45.741],[121.844,45.767],[121.775,45.828],[121.861,45.902],[121.941,46.078],[122.146,46.047],[122.354,45.886],[122.472,45.975],[122.541,45.977],[122.721,45.808],[122.829,45.815],[122.905,46.011],[122.846,46.098],[122.905,46.167],[123.151,46.196],[123.167,46.292],[123.366,46.335],[123.879,46.349],[124.105,46.189],[124.115,46.085],[124.06,45.972],[124.191,45.796],[124.514,45.527],[124.701,45.493],[125.01,45.578],[125.148,45.469],[125.44,45.447],[125.54,45.559],[125.714,45.559],[125.783,45.525],[125.779,45.396],[125.909,45.291],[126.295,45.214],[126.548,45.33],[126.69,45.313],[126.794,45.224],[127.029,45.17],[127.114,44.985],[127.047,44.863],[127.138,44.716],[127.309,44.688],[127.433,44.715],[127.586,44.631],[127.562,44.491],[127.875,44.109],[128.068,44.138],[128.13,44.259],[128.101,44.511],[128.155,44.644],[128.428,44.582],[128.487,44.506],[128.447,44.232],[128.605,44.004],[128.796,43.921],[128.956,43.587],[129.158,43.579],[129.313,43.656],[129.34,43.815],[129.579,43.882],[129.813,43.866],[129.897,44.011],[130.032,44.001],[130.169,43.879],[130.392,43.96],[130.527,43.65],[130.732,43.597],[130.953,43.428],[131.322,43.452],[131.176,43.057],[130.91,42.831],[130.552,42.767],[130.504,42.667],[130.574,42.548],[130.363,42.588],[130.103,42.946],[129.913,42.946],[129.68,42.396],[129.285,42.356],[129.171,42.119],[128.683,41.974],[128.158,41.999],[128.087,41.914],[128.304,41.558],[128.196,41.38],[127.302,41.522],[127.009,41.761],[126.63,41.635],[126.495,41.306],[125.926,40.882],[125.78,40.863],[125.73,40.996]]]}},{"type":"Feature","properties":{"admin_code":"CN-HL","name":"Heilongjiang","name_local":"黑龙江省"},"geometry":{"type":"Polygon","coordinates":[[[130.953,43.428],[130.732,43.597],[130.527,43.65],[130.392,43.96],[130.169,43.879],[130.032,44.001],[129.897,44.011],[129.813,43.866],[129.579,43.882],[129.34,43.815],[129.313,43.656],[129.158,43.579],[128.956,43.587],[128.796,43.921],[128.605,44.004],[128.447,44.232],[128.487,44.506],[128.428,44.582],[128.155,44.644],[128.101,44.511],[128.13,44.259],[128.068,44.138],[127.875,44.109],[127.562,44.491],[127.586,44.631],[127.433,44.715],[127.309,44.688],[127.138,44.716],[127.047,44.863],[127.114,44.985],[127.029,45.17],[126.794,45.224],[126.69,45.313],[126.548,45.33],[126.295,45.214],[125.909,45.291],[125.779,45.396],[125.783,45.525],[125.714,45.559],[125.54,45.559],[125.44,45.447],[125.148,45.469],[125.01,45.578],[124.701,45.493],[124.514,45.527],[124.191,45.796],[124.06,45.972],[124.115,46.085],[124.105,46.189],[123.879,46.349],[123.366,46.335],[123.167,46.292],[123.03,46.378],[123.144,46.679],[123.415,46.648],[123.598,46.736],[123.647,46.871],[123.522,46.79],[123.137,46.883],[122.877,47.131],[122.704,47.176],[122.569,47.416],[122.648,47.582],[123.293,47.845],[123.352,47.998],[123.488,48.037],[124.262,48.564],[124.425,48.542],[124.452,48.359],[124.593,48.236],[124.631,48.503],[124.848,49.091],[124.99,49.223],[125.185,49.184],[125.278,49.229],[125.379,49.471],[125.269,49.68],[125.363,50.17],[125.515,50.252],[125.608,50.435],[125.862,50.554],[125.913,50.683],[125.862,50.726],[125.879,50.859],[126.074,50.934],[126.108,51.062],[126.091,51.19],[125.947,51.19],[125.54,51.633],[125.151,51.675],[124.88,51.401],[124.618,51.422],[124.406,51.37],[124.186,51.407],[124.093,51.359],[123.923,51.38],[123.822,51.296],[123.661,51.296],[123.551,51.375],[123.399,51.333],[123.238,51.37],[123.035,51.475],[122.823,51.78],[122.874,51.968],[122.781,52.083],[122.84,52.254],[122.789,52.299],[122.599,52.328],[122.496,52.461],[122.355,52.53],[122.247,52.513],[122.193,52.385],[122.068,52.335],[121.933,52.345],[121.797,52.471],[121.629,52.504],[121.337,52.662],[121.917,53.08],[121.593,53.406],[123.644,53.571],[124.711,53.177],[125.1,53.243],[125.667,53.086],[126.048,52.754],[126.091,52.631],[126.353,52.456],[126.556,52.119],[126.522,51.942],[126.993,51.31],[126.944,51.144],[127.416,50.649],[127.334,50.328],[127.584,50.19],[127.503,49.956],[127.745,49.654],[128.224,49.566],[128.654,49.645],[129.157,49.377],[129.431,49.399],[130.265,48.903],[130.612,48.882],[130.585,48.596],[130.818,48.287],[130.688,48.07],[130.878,47.9],[130.953,47.725],[131.051,47.707],[131.392,47.743],[131.799,47.674],[132.492,47.718],[132.649,47.903],[132.877,47.969],[133.186,48.117],[133.505,48.07],[133.695,48.207],[134.307,48.362],[134.692,48.247],[134.545,47.939],[134.74,47.648],[134.513,47.389],[134.215,47.308],[134.069,46.784],[133.939,46.493],[133.863,46.209],[133.689,46.044],[133.381,45.504],[133.148,45.401],[133.045,45.019],[132.942,44.966],[132.026,45.153],[131.901,45.264],[131.484,44.939],[131.078,44.858],[131.056,44.778],[131.365,44.05],[131.246,43.538],[131.333,43.479],[131.322,43.452],[130.953,43.428]]]}},{"type":"Feature","properties":{"admin_code":"CN-SH","name":"Shanghai","name_local":"上海市"},"geometry":{"type":"MultiPolygon","coordinates":[[[[121.158,30.883],[121.111,30.931],[121.112,31.021],[121.002,31.093],[121.202,31.274],[121.301,31.508],[121.375,31.55],[121.958,31.15],[121.896,30.945],[121.418,30.71],[121.339,30.821],[121.158,30.883]]],[[[121.595,31.438],[121.599,31.463],[122.044,31.318],[121.989,31.286],[121.696,31.375],[121.595,31.438]]],[[[121.409,31.613],[121.181,31.772],[121.216,31.837],[121.354,31.827],[121.482,31.774],[121.857,31.613],[121.984,31.512],[121.905,31.448],[121.76,31.473],[121.409,31.613]]]]}},{"type":"Feature","properties":{"admin_code":"CN-JS","name":"Jiangsu","name_local":"江苏省"},"geometry":{"type":"Polygon","coordinates":[[[120.877,31.047],[120.835,30.967],[120.602,30.879],[120.555,31.004],[120.421,31.014],[120.306,30.97],[120.03,31.22],[119.793,31.213],[119.505,31.277],[119.434,31.331],[119.324,31.358],[119.127,31.301],[118.941,31.341],[118.902,31.432],[118.961,31.496],[118.989,31.684],[118.843,31.731],[118.799,31.795],[118.614,31.899],[118.491,32.116],[118.712,32.267],[118.831,32.423],[118.744,32.586],[118.76,32.663],[118.985,32.663],[119.146,32.59],[119.229,32.663],[119.158,32.941],[119.02,33.037],[118.906,33.027],[118.835,32.829],[118.551,32.825],[118.417,32.912],[118.294,33.249],[118.113,33.305],[118.097,33.377],[118.211,33.617],[118.232,33.83],[117.884,33.813],[117.838,33.951],[117.741,34.063],[117.461,34.127],[117.22,34.129],[117.064,34.307],[117.059,34.478],[116.701,34.572],[116.456,34.732],[116.518,34.759],[116.58,34.998],[116.854,35.061],[117.021,35.052],[117.284,34.608],[117.485,34.66],[117.659,34.574],[117.891,34.634],[117.971,34.751],[118.085,34.768],[118.273,34.671],[118.293,34.514],[118.498,34.545],[118.605,34.728],[118.824,34.808],[118.966,35.089],[119.063,35.174],[119.442,35.186],[119.25,35.081],[119.236,34.833],[119.476,34.771],[119.59,34.608],[120.332,34.265],[120.967,32.878],[120.894,32.666],[121.421,32.408],[121.466,32.186],[121.733,32.086],[121.976,31.771],[121.983,31.632],[121.348,31.85],[121.216,31.865],[121.133,31.821],[121.015,31.824],[120.925,31.942],[120.606,32.1],[120.436,32.077],[120.297,32.006],[120.356,31.93],[120.509,32.003],[120.797,31.924],[120.87,31.806],[121.375,31.55],[121.301,31.508],[121.202,31.274],[121.002,31.093],[120.877,31.047]]]}},{"type":"Feature","properties":{"admin_code":"CN-ZJ","name":"Zhejiang","name_local":"浙江省"},"geometry":{"type":"Polygon","coordinates":[[[120.412,27.394],[120.239,27.437],[119.898,27.357],[119.694,27.686],[119.611,27.7],[119.507,27.559],[119.298,27.492],[119.048,27.552],[118.939,27.961],[118.846,28.102],[118.896,28.253],[118.821,28.355],[118.591,28.39],[118.563,28.734],[118.168,29.187],[118.168,29.289],[118.291,29.513],[118.314,29.487],[118.427,29.557],[118.551,29.573],[118.84,29.793],[118.847,29.948],[118.964,29.991],[119.007,30.428],[119.303,30.374],[119.463,30.497],[119.371,30.672],[119.636,30.862],[119.74,31.225],[120.03,31.22],[120.306,30.97],[120.421,31.014],[120.555,31.004],[120.602,30.879],[120.835,30.967],[120.877,31.047],[121.002,31.093],[121.112,31.021],[121.111,30.931],[121.158,30.883],[121.339,30.821],[121.418,30.71],[121.022,30.525],[120.981,30.399],[120.596,30.42],[120.388,30.39],[120.36,30.327],[120.87,30.171],[121.231,30.317],[121.42,30.31],[121.684,30.014],[121.775,29.97],[121.897,29.993],[122.01,30.12],[122.121,30.166],[122.411,29.974],[122.385,29.899],[121.983,29.764],[121.746,29.562],[121.881,29.54],[122.003,29.658],[121.976,29.265],[121.892,29.211],[121.886,29.065],[121.698,28.938],[121.677,28.756],[121.532,28.655],[121.615,28.308],[121.248,28.069],[121.296,28.335],[121.105,28.302],[121.026,28.048],[120.873,27.95],[120.689,27.656],[120.644,27.37],[120.541,27.287],[120.412,27.394]]]}},{"type":"Feature","properties":{"admin_code":"CN-AH","name":"Anhui","name_local":"安徽省"},"geometry":{"type":"Polygon","coordinates":[[[118.203,29.607],[118.089,29.642],[117.702,29.683],[117.62,29.731],[117.497,29.898],[117.355,29.974],[117.265,29.977],[117.209,29.933],[117.186,29.823],[116.969,29.635],[116.85,29.655],[116.815,29.755],[116.921,29.833],[116.977,30.001],[116.819,30.148],[116.728,30.138],[116.657,30.015],[116.247,29.881],[116.225,30.15],[116.136,30.366],[116.01,30.465],[116.034,30.604],[115.896,30.835],[116.124,31.054],[116.109,31.156],[115.935,31.271],[115.671,31.308],[115.486,31.518],[115.513,31.514],[115.586,31.796],[115.783,31.899],[115.975,31.924],[116.081,32.267],[115.99,32.486],[116.018,32.656],[115.869,32.603],[115.791,32.512],[115.647,32.533],[115.533,32.686],[115.341,32.701],[115.301,32.826],[115.344,32.937],[115.228,33.032],[115.048,33.059],[115.0,33.129],[115.038,33.205],[115.278,33.203],[115.412,33.292],[115.427,33.488],[115.488,33.631],[115.735,33.694],[115.758,33.784],[115.712,33.969],[115.745,34.094],[115.823,34.161],[116.053,34.126],[116.235,33.885],[116.318,33.83],[116.508,33.893],[116.732,34.05],[116.654,34.357],[116.376,34.48],[116.288,34.574],[116.27,34.707],[116.376,34.697],[116.456,34.732],[116.701,34.572],[117.059,34.478],[117.064,34.307],[117.22,34.129],[117.461,34.127],[117.741,34.063],[117.838,33.951],[117.884,33.813],[118.232,33.83],[118.211,33.617],[118.097,33.377],[118.113,33.305],[118.294,33.249],[118.417,32.912],[118.551,32.825],[118.835,32.829],[118.906,33.027],[119.02,33.037],[119.158,32.941],[119.194,32.862],[119.229,32.663],[119.146,32.59],[118.985,32.663],[118.76,32.663],[118.744,32.586],[118.831,32.423],[118.712,32.267],[118.491,32.116],[118.614,31.899],[118.799,31.795],[118.843,31.731],[118.989,31.684],[118.961,31.496],[118.902,31.432],[118.941,31.341],[119.127,31.301],[119.324,31.358],[119.434,31.331],[119.505,31.277],[119.74,31.225],[119.636,30.862],[119.371,30.672],[119.463,30.497],[119.303,30.374],[119.007,30.428],[118.964,29.991],[118.847,29.948],[118.84,29.793],[118.551,29.573],[118.427,29.557],[118.314,29.487],[118.203,29.607]]]}},{"type":"Feature","properties":{"admin_code":"CN-FJ","name":"Fujian","name_local":"福建省"},"geometry":{"type":"MultiPolygon","coordinates":[[[[118.33,24.453],[118.404,24.491],[118.482,24.455],[118.445,24.392],[118.313,24.398],[118.33,24.453]]],[[[119.744,25.624],[119.848,25.629],[119.902,25.527],[119.765,25.425],[119.715,25.525],[119.744,25.624]]],[[[120.405,27.185],[120.27,27.098],[120.259,26.973],[119.979,26.85],[119.904,26.651],[119.875,26.737],[119.697,26.753],[119.682,26.624],[119.837,26.401],[119.68,26.246],[119.635,26.127],[119.664,26.051],[119.624,25.907],[119.682,25.791],[119.551,25.664],[119.62,25.489],[119.595,25.415],[119.351,25.551],[119.256,25.493],[119.216,25.357],[119.268,25.247],[119.164,25.231],[118.942,25.09],[118.98,24.961],[118.931,24.905],[118.661,24.933],[118.692,24.813],[118.772,24.769],[118.65,24.602],[118.46,24.637],[118.262,24.571],[118.137,24.48],[117.958,24.49],[118.091,24.251],[117.86,24.057],[117.72,24.057],[117.68,23.893],[117.525,23.943],[117.534,23.748],[117.407,23.765],[117.341,23.616],[117.222,23.643],[117.109,23.755],[117.109,23.836],[116.985,24.073],[117.033,24.291],[116.813,24.571],[116.788,24.725],[116.724,24.742],[116.553,24.684],[116.451,24.856],[116.339,24.934],[116.203,24.922],[116.124,24.96],[115.968,24.973],[115.907,25.142],[115.915,25.257],[116.03,25.296],[116.124,25.716],[116.227,25.805],[116.251,25.965],[116.369,26.011],[116.508,26.183],[116.477,26.355],[116.682,26.54],[116.604,26.703],[116.659,27.0],[117.033,27.108],[117.237,27.337],[117.192,27.543],[117.263,27.725],[117.364,27.845],[117.396,27.939],[117.556,28.008],[117.659,28.006],[117.725,27.917],[117.853,27.901],[117.876,27.972],[118.452,28.154],[118.489,28.3],[118.591,28.39],[118.821,28.355],[118.896,28.253],[118.846,28.102],[118.939,27.961],[119.048,27.552],[119.298,27.492],[119.507,27.559],[119.611,27.7],[119.694,27.686],[119.898,27.357],[120.239,27.437],[120.412,27.394],[120.541,27.287],[120.468,27.229],[120.335,27.253],[120.405,27.185]]],[[[119.975,26.677],[120.065,26.789],[120.12,26.721],[120.114,26.656],[120.042,26.576],[119.96,26.604],[119.975,26.677]]]]}},{"type":"Feature","properties":{"admin_code":"CN-JX","name":"Jiangxi","name_local":"江西省"},"geometry":{"type":"Polygon","coordinates":[[[118.489,28.3],[118.452,28.154],[117.876,27.972],[117.853,27.901],[117.725,27.917],[117.659,28.006],[117.556,28.008],[117.396,27.939],[117.364,27.845],[117.263,27.725],[117.192,27.543],[117.237,27.337],[117.033,27.108],[116.659,27.0],[116.604,26.703],[116.682,26.54],[116.477,26.355],[116.508,26.183],[116.369,26.011],[116.251,25.965],[116.227,25.805],[116.124,25.716],[116.03,25.296],[115.915,25.257],[115.907,25.142],[115.971,24.967],[115.825,24.896],[115.856,24.731],[115.813,24.641],[115.702,24.645],[115.473,24.842],[115.142,24.724],[114.483,24.588],[114.27,24.76],[114.46,24.946],[114.495,25.092],[114.736,25.157],[114.755,25.296],[114.677,25.449],[114.365,25.374],[114.136,25.403],[114.034,25.559],[114.045,25.666],[113.978,25.78],[114.116,25.979],[114.116,26.138],[114.254,26.248],[114.254,26.308],[114.101,26.262],[114.03,26.29],[114.071,26.45],[114.149,26.534],[114.162,26.676],[113.99,26.766],[113.92,26.856],[113.917,26.939],[113.998,27.056],[113.872,27.198],[113.859,27.261],[113.943,27.364],[113.939,27.431],[113.864,27.497],[113.757,27.424],[113.714,27.469],[113.678,27.616],[113.722,27.857],[113.801,27.93],[113.844,28.07],[114.022,28.125],[114.097,28.181],[114.172,28.31],[114.318,28.459],[114.314,28.556],[114.235,28.684],[114.239,28.866],[114.04,29.164],[114.066,29.26],[114.286,29.342],[114.42,29.447],[114.624,29.438],[114.937,29.491],[115.086,29.643],[115.218,29.649],[115.218,29.735],[115.495,29.776],[115.538,29.835],[115.681,29.862],[115.942,29.722],[116.053,29.769],[116.109,29.836],[116.657,30.015],[116.728,30.138],[116.819,30.148],[116.977,30.001],[116.921,29.833],[116.815,29.755],[116.85,29.655],[116.969,29.635],[117.186,29.823],[117.209,29.933],[117.265,29.977],[117.355,29.974],[117.497,29.898],[117.62,29.731],[117.702,29.683],[118.203,29.607],[118.291,29.513],[118.168,29.289],[118.168,29.187],[118.563,28.734],[118.591,28.39],[118.489,28.3]]]}},{"type":"Feature","properties":{"admin_code":"CN-SD","name":"Shandong","name_local":"山东省"},"geometry":{"type":"Polygon","coordinates":[[[116.376,34.697],[115.83,34.718],[115.696,34.675],[115.548,34.768],[115.554,34.912],[115.446,34.941],[115.273,35.073],[114.977,35.16],[114.949,35.237],[115.095,35.333],[115.166,35.438],[115.375,35.546],[115.421,35.665],[116.162,36.106],[116.156,36.193],[115.81,36.075],[115.477,35.919],[115.448,36.075],[115.548,36.14],[115.549,36.22],[115.583,36.211],[115.61,36.307],[115.431,36.521],[115.469,36.738],[115.778,36.925],[116.136,37.451],[116.298,37.477],[116.434,37.709],[116.547,37.657],[116.943,37.919],[117.23,37.957],[117.512,37.936],[117.582,37.991],[117.604,38.136],[117.794,38.166],[117.883,38.303],[118.135,38.102],[118.471,38.183],[118.671,38.017],[118.893,37.97],[119.034,37.764],[119.013,37.322],[119.659,37.137],[119.926,37.272],[119.954,37.421],[120.242,37.572],[120.381,37.775],[120.88,37.885],[121.192,37.63],[121.355,37.654],[121.58,37.457],[122.121,37.561],[122.322,37.454],[122.461,37.523],[122.655,37.443],[122.537,36.976],[122.374,36.882],[122.211,37.015],[122.146,36.995],[121.944,37.029],[121.795,36.901],[120.984,36.587],[120.932,36.61],[120.814,36.512],[120.703,36.185],[120.512,36.098],[120.367,36.143],[120.252,36.233],[120.134,36.16],[120.273,36.014],[120.096,35.936],[119.944,35.671],[119.753,35.649],[119.496,35.364],[119.442,35.186],[119.063,35.174],[118.966,35.089],[118.824,34.808],[118.605,34.728],[118.498,34.545],[118.293,34.514],[118.273,34.671],[118.085,34.768],[117.971,34.751],[117.891,34.634],[117.659,34.574],[117.485,34.66],[117.284,34.608],[117.021,35.052],[116.854,35.061],[116.58,34.998],[116.518,34.759],[116.376,34.697]]]}},{"type":"Feature","properties":{"admin_code":"CN-HA","name":"Henan","name_local":"河南省"},"geometry":{"type":"Polygon","coordinates":[[[115.379,31.536],[115.296,31.682],[115.235,31.688],[115.157,31.592],[114.836,31.615],[114.682,31.714],[114.624,31.858],[114.485,31.83],[114.325,31.946],[114.25,31.899],[114.12,31.886],[113.888,32.173],[113.891,32.51],[113.801,32.53],[113.568,32.41],[113.339,32.543],[112.834,32.47],[112.704,32.5],[112.416,32.48],[111.935,32.626],[111.801,32.732],[111.615,32.742],[111.497,32.921],[111.382,32.978],[111.221,33.265],[111.088,33.382],[111.117,33.651],[110.932,33.779],[110.864,33.938],[110.722,34.02],[110.716,34.305],[110.549,34.356],[110.55,34.481],[110.438,34.585],[110.44,34.72],[110.845,34.728],[111.036,34.853],[111.282,34.916],[111.549,34.93],[111.92,35.18],[112.143,35.19],[112.197,35.288],[112.305,35.354],[112.636,35.305],[112.744,35.38],[113.015,35.363],[113.665,35.698],[113.813,36.462],[114.137,36.451],[114.245,36.373],[114.57,36.338],[114.651,36.268],[114.77,36.246],[114.89,36.311],[115.112,36.202],[115.296,36.29],[115.549,36.22],[115.548,36.14],[115.448,36.075],[115.477,35.919],[115.81,36.075],[116.156,36.193],[116.162,36.106],[115.421,35.665],[115.375,35.546],[115.166,35.438],[115.095,35.333],[114.949,35.237],[114.977,35.16],[115.273,35.073],[115.446,34.941],[115.554,34.912],[115.548,34.768],[115.696,34.675],[115.83,34.718],[116.27,34.707],[116.288,34.574],[116.376,34.48],[116.654,34.357],[116.732,34.05],[116.508,33.893],[116.318,33.83],[116.235,33.885],[116.053,34.126],[115.823,34.161],[115.745,34.094],[115.712,33.969],[115.758,33.784],[115.735,33.694],[115.488,33.631],[115.427,33.488],[115.412,33.292],[115.278,33.203],[115.038,33.205],[115.0,33.129],[115.048,33.059],[115.228,33.032],[115.344,32.937],[115.301,32.826],[115.341,32.701],[115.533,32.686],[115.647,32.533],[115.791,32.512],[115.869,32.603],[116.018,32.656],[115.99,32.486],[116.081,32.267],[115.975,31.924],[115.783,31.899],[115.586,31.796],[115.513,31.514],[115.379,31.536]]]}},{"type":"Feature","properties":{"admin_code":"CN-HB","name":"Hubei","name_local":"湖北省"},"geometry":{"type":"Polygon","coordinates":[[[115.942,29.722],[115.681,29.862],[115.538,29.835],[115.495,29.776],[115.218,29.735],[115.218,29.649],[115.086,29.643],[114.937,29.491],[114.624,29.438],[114.42,29.447],[114.286,29.342],[114.066,29.26],[114.049,29.197],[113.875,29.232],[113.846,29.201],[113.74,29.381],[113.728,29.473],[113.814,29.686],[113.724,29.813],[113.699,29.936],[113.644,29.935],[113.339,29.72],[113.316,29.65],[113.255,29.608],[113.13,29.588],[113.067,29.61],[113.063,29.81],[113.027,29.857],[112.904,29.866],[112.68,29.755],[112.539,29.747],[112.4,29.693],[111.949,30.009],[111.508,30.059],[111.34,30.169],[110.905,30.236],[110.768,30.176],[110.602,30.158],[110.606,30.083],[110.731,29.971],[110.742,29.866],[110.703,29.832],[110.557,29.774],[110.337,29.768],[110.079,29.89],[109.928,29.853],[109.534,29.673],[109.329,29.24],[109.149,29.319],[109.009,29.509],[108.999,29.748],[108.9,29.75],[108.7,29.959],[108.565,29.905],[108.643,30.382],[108.532,30.54],[108.698,30.671],[108.804,30.638],[109.102,30.721],[109.271,30.695],[109.549,30.721],[109.908,30.987],[110.135,30.959],[110.206,31.031],[110.201,31.247],[110.256,31.35],[110.241,31.514],[110.19,31.598],[110.026,31.712],[110.021,31.92],[109.731,31.972],[109.741,32.14],[109.773,32.197],[109.627,32.41],[109.686,32.659],[110.242,32.779],[110.25,32.908],[110.041,33.031],[109.867,33.05],[109.864,33.209],[109.639,33.229],[109.623,33.331],[109.725,33.394],[109.848,33.397],[110.499,33.288],[110.66,33.373],[110.882,33.234],[111.088,33.382],[111.221,33.265],[111.382,32.978],[111.497,32.921],[111.615,32.742],[111.801,32.732],[111.935,32.626],[112.416,32.48],[112.704,32.5],[112.834,32.47],[113.339,32.543],[113.568,32.41],[113.801,32.53],[113.891,32.51],[113.888,32.173],[114.12,31.886],[114.25,31.899],[114.325,31.946],[114.485,31.83],[114.624,31.858],[114.682,31.714],[114.836,31.615],[115.157,31.592],[115.235,31.688],[115.296,31.682],[115.379,31.536],[115.486,31.518],[115.671,31.308],[115.935,31.271],[116.109,31.156],[116.124,31.054],[115.896,30.835],[116.034,30.604],[116.01,30.465],[116.136,30.366],[116.225,30.15],[116.246,29.89],[115.942,29.722]]]}},{"type":"Feature","properties":{"admin_code":"CN-HN","name":"Hunan","name_local":"湖南省"},"geometry":{"type":"Polygon","coordinates":[[[111.698,24.886],[111.563,24.755],[111.524,24.765],[111.518,25.104],[111.454,25.212],[111.317,25.226],[111.105,25.055],[111.052,25.146],[111.067,25.24],[111.209,25.361],[111.256,25.468],[111.378,25.545],[111.406,25.748],[111.497,25.908],[111.513,26.004],[111.355,26.025],[111.3,26.106],[111.317,26.375],[111.29,26.397],[111.13,26.469],[111.031,26.46],[110.933,26.407],[110.72,26.439],[110.38,26.113],[110.207,26.124],[110.159,26.329],[110.033,26.336],[109.935,26.11],[109.856,26.043],[109.737,26.043],[109.67,26.117],[109.538,26.126],[109.529,26.199],[109.423,26.335],[109.357,26.497],[109.484,26.676],[109.405,26.816],[109.575,26.976],[109.592,27.199],[109.509,27.26],[109.424,27.272],[109.213,27.255],[109.036,27.166],[108.965,27.17],[108.913,27.249],[109.217,27.507],[109.351,27.536],[109.524,27.698],[109.544,27.783],[109.463,27.883],[109.41,28.093],[109.453,28.313],[109.438,28.413],[109.337,28.588],[109.329,29.24],[109.534,29.673],[109.928,29.853],[110.079,29.89],[110.337,29.768],[110.557,29.774],[110.703,29.832],[110.742,29.866],[110.731,29.971],[110.606,30.083],[110.602,30.158],[110.768,30.176],[110.905,30.236],[111.34,30.169],[111.508,30.059],[111.949,30.009],[112.4,29.693],[112.539,29.747],[112.68,29.755],[112.904,29.866],[113.027,29.857],[113.063,29.81],[113.067,29.61],[113.13,29.588],[113.255,29.608],[113.316,29.65],[113.339,29.72],[113.644,29.935],[113.699,29.936],[113.724,29.813],[113.814,29.686],[113.728,29.473],[113.74,29.381],[113.793,29.323],[113.822,29.205],[113.875,29.232],[114.049,29.197],[114.04,29.164],[114.239,28.866],[114.235,28.684],[114.314,28.556],[114.318,28.459],[114.172,28.31],[114.097,28.181],[114.022,28.125],[113.844,28.07],[113.801,27.93],[113.722,27.857],[113.69,27.759],[113.678,27.616],[113.714,27.469],[113.757,27.424],[113.864,27.497],[113.939,27.431],[113.943,27.364],[113.859,27.261],[113.872,27.198],[113.998,27.056],[113.917,26.939],[113.92,26.856],[113.99,26.766],[114.162,26.676],[114.149,26.534],[114.071,26.45],[114.03,26.29],[114.101,26.262],[114.254,26.308],[114.254,26.248],[114.116,26.138],[114.116,25.979],[113.978,25.78],[114.045,25.666],[114.044,25.544],[113.761,25.415],[113.551,25.46],[113.347,25.586],[113.278,25.567],[113.049,25.453],[113.011,25.399],[113.066,25.237],[112.996,25.029],[112.902,25.029],[112.728,25.166],[112.665,25.257],[112.289,25.264],[112.236,25.115],[112.233,24.978],[112.178,24.891],[112.001,24.857],[111.698,24.886]]]}},{"type":"Feature","properties":{"admin_code":"CN-GD","name":"Guangdong","name_local":"广东省"},"geometry":{"type":"MultiPolygon","coordinates":[[[[110.315,21.04],[110.537,21.085],[110.613,20.923],[110.291,20.962],[110.315,21.04]]],[[[111.83,21.577],[111.94,21.713],[111.985,21.626],[111.83,21.577]]],[[[112.616,21.621],[112.539,21.621],[112.619,21.718],[112.669,21.704],[112.616,21.621]]],[[[112.793,21.764],[112.834,21.745],[112.767,21.58],[112.736,21.694],[112.793,21.764]]],[[[113.349,22.037],[113.386,22.105],[113.433,22.082],[113.349,22.037]]],[[[109.921,21.733],[109.984,21.91],[110.067,21.961],[110.375,21.973],[110.396,21.994],[110.347,22.057],[110.377,22.249],[110.536,22.246],[110.766,22.344],[110.728,22.503],[110.791,22.629],[111.011,22.701],[111.41,22.964],[111.458,23.136],[111.424,23.329],[111.439,23.428],[111.558,23.706],[111.666,23.762],[111.679,23.91],[111.86,23.958],[111.94,24.07],[111.94,24.292],[112.057,24.404],[112.077,24.46],[112.059,24.669],[112.001,24.857],[112.178,24.891],[112.233,24.978],[112.236,25.115],[112.289,25.264],[112.665,25.257],[112.728,25.166],[112.902,25.029],[112.996,25.029],[113.066,25.237],[113.011,25.399],[113.049,25.453],[113.347,25.586],[113.551,25.46],[113.761,25.415],[114.044,25.544],[114.136,25.403],[114.365,25.374],[114.677,25.449],[114.755,25.296],[114.736,25.157],[114.495,25.092],[114.46,24.946],[114.27,24.76],[114.483,24.588],[115.142,24.724],[115.473,24.842],[115.702,24.645],[115.813,24.641],[115.856,24.731],[115.825,24.896],[115.968,24.973],[116.124,24.96],[116.203,24.922],[116.339,24.934],[116.451,24.856],[116.553,24.684],[116.724,24.742],[116.788,24.725],[116.813,24.571],[117.033,24.291],[116.985,24.073],[117.109,23.836],[117.109,23.755],[117.222,23.643],[117.177,23.653],[117.079,23.557],[117.149,23.459],[116.958,23.395],[116.698,23.44],[116.82,23.259],[116.598,23.201],[116.556,22.984],[116.317,22.981],[116.161,22.898],[116.05,22.908],[115.845,22.789],[115.665,22.914],[115.551,22.668],[115.419,22.678],[115.412,22.831],[115.193,22.847],[114.92,22.617],[114.802,22.642],[114.788,22.802],[114.607,22.729],[114.58,22.553],[114.469,22.626],[114.376,22.639],[114.015,22.526],[113.904,22.569],[113.786,22.783],[113.678,22.793],[113.571,22.908],[113.55,22.844],[113.571,22.58],[113.633,22.335],[113.524,22.255],[113.382,22.366],[113.411,22.274],[113.215,22.066],[113.071,22.264],[113.036,22.192],[113.011,21.922],[112.814,21.928],[112.616,21.815],[112.428,21.879],[112.383,21.778],[112.037,21.807],[111.766,21.743],[111.737,21.644],[111.587,21.549],[111.44,21.564],[111.342,21.504],[111.083,21.524],[110.99,21.421],[110.792,21.431],[110.632,21.212],[110.493,21.225],[110.213,21.049],[110.217,20.931],[110.366,20.842],[110.368,20.7],[110.528,20.507],[110.524,20.443],[110.306,20.262],[109.942,20.285],[109.924,20.414],[109.987,20.47],[109.8,20.547],[109.776,20.673],[109.798,20.842],[109.683,20.881],[109.754,21.231],[109.991,21.518],[109.742,21.547],[109.743,21.611],[109.824,21.709],[109.921,21.733]]]]}},{"type":"Feature","properties":{"admin_code":"CN-GX","name":"Guangxi","name_local":"广西壮族自治区"},"geometry":{"type":"Polygon","coordinates":[[[112.059,24.669],[112.077,24.46],[112.057,24.404],[111.94,24.292],[111.94,24.07],[111.91,24.018],[111.86,23.958],[111.679,23.91],[111.666,23.762],[111.558,23.706],[111.424,23.373],[111.458,23.136],[111.41,22.964],[111.011,22.701],[110.791,22.629],[110.728,22.503],[110.766,22.344],[110.536,22.246],[110.377,22.249],[110.347,22.057],[110.396,21.994],[110.375,21.973],[110.067,21.961],[109.984,21.91],[109.921,21.733],[109.792,21.679],[109.743,21.611],[109.742,21.547],[109.567,21.735],[109.498,21.72],[109.549,21.539],[109.323,21.516],[109.157,21.438],[109.126,21.634],[108.853,21.753],[108.795,21.696],[108.691,21.836],[108.654,21.956],[108.525,21.946],[108.491,21.743],[108.381,21.716],[108.319,21.606],[108.18,21.642],[108.043,21.581],[107.84,21.688],[107.534,21.623],[107.214,21.784],[107.061,21.963],[106.747,22.013],[106.736,22.299],[106.655,22.425],[106.649,22.57],[106.82,22.709],[106.83,22.831],[106.563,22.936],[106.379,22.882],[106.161,23.023],[105.97,22.946],[105.585,23.169],[105.537,23.283],[105.876,23.589],[106.14,23.601],[106.204,23.971],[106.121,24.107],[106.033,24.171],[105.858,24.112],[105.62,24.221],[105.464,24.154],[105.247,24.228],[105.211,24.437],[105.123,24.524],[105.073,24.559],[104.961,24.515],[104.911,24.545],[104.775,24.55],[104.696,24.462],[104.583,24.591],[104.542,24.71],[104.581,24.817],[104.75,24.779],[104.859,24.798],[104.944,24.874],[105.083,24.911],[105.151,25.009],[105.221,25.044],[105.481,25.0],[105.526,24.912],[105.578,24.889],[105.641,24.898],[106.035,24.781],[106.23,24.882],[106.256,25.056],[106.39,25.078],[106.741,25.268],[106.997,25.318],[107.127,25.472],[107.16,25.565],[107.308,25.621],[107.394,25.607],[107.425,25.499],[107.542,25.404],[107.686,25.405],[107.888,25.255],[108.0,25.313],[108.139,25.329],[108.323,25.621],[108.494,25.588],[108.643,25.508],[108.801,25.663],[109.068,25.703],[109.06,25.888],[109.128,25.921],[109.314,25.881],[109.524,26.079],[109.538,26.126],[109.67,26.117],[109.737,26.043],[109.856,26.043],[109.935,26.11],[110.033,26.336],[110.159,26.329],[110.207,26.124],[110.38,26.113],[110.72,26.439],[110.933,26.407],[111.031,26.46],[111.13,26.469],[111.317,26.375],[111.3,26.106],[111.323,26.06],[111.406,26.007],[111.513,26.004],[111.497,25.908],[111.406,25.748],[111.378,25.545],[111.256,25.468],[111.209,25.361],[111.067,25.24],[111.052,25.146],[111.105,25.055],[111.317,25.226],[111.454,25.212],[111.518,25.104],[111.524,24.765],[111.563,24.755],[111.698,24.886],[112.001,24.857],[112.059,24.669]]]}},{"type":"Feature","properties":{"admin_code":"CN-HI","name":"Hainan","name_local":"海南省"},"geometry":{"type":"Polygon","coordinates":[[[110.984,19.818],[110.984,19.648],[110.786,19.485],[110.558,19.19],[110.46,18.721],[110.346,18.626],[110.204,18.649],[110.024,18.462],[110.034,18.38],[109.705,18.35],[109.698,18.195],[109.476,18.172],[109.438,18.251],[109.105,18.277],[108.664,18.504],[108.668,18.646],[108.605,18.8],[108.598,19.089],[108.647,19.344],[109.056,19.589],[109.205,19.632],[109.25,19.723],[109.174,19.746],[109.174,19.841],[109.257,19.89],[109.393,19.877],[109.656,20.02],[110.013,19.955],[110.107,20.049],[110.596,20.079],[110.833,20.153],[110.922,20.16],[110.925,20.0],[110.984,19.818]]]}},{"type":"Feature","properties":{"admin_code":"CN-CQ","name":"Chongqing","name_local":"重庆市"},"geometry":{"type":"Polygon","coordinates":[[[109.251,28.576],[109.207,28.435],[109.132,28.356],[108.904,28.357],[108.874,28.381],[108.85,28.579],[108.778,28.604],[108.763,28.488],[108.71,28.457],[108.65,28.591],[108.675,28.74],[108.499,28.775],[108.441,28.836],[108.439,29.031],[108.363,29.188],[108.095,29.197],[107.981,29.12],[107.924,29.135],[107.85,29.256],[107.62,29.349],[107.525,29.305],[107.514,29.246],[107.562,29.113],[107.493,28.979],[107.407,28.949],[107.24,29.017],[107.09,28.998],[106.985,28.938],[106.88,28.719],[106.772,28.615],[106.651,28.69],[106.654,28.807],[106.547,28.897],[106.554,28.739],[106.513,28.672],[106.394,28.634],[106.355,28.903],[106.272,29.011],[105.873,29.099],[105.833,29.289],[105.764,29.399],[105.608,29.414],[105.509,29.48],[105.373,29.728],[105.469,29.825],[105.843,30.052],[105.86,30.113],[105.767,30.273],[105.764,30.386],[105.82,30.464],[105.959,30.523],[106.057,30.527],[106.492,30.364],[106.668,30.464],[106.777,30.329],[106.961,30.185],[107.156,30.17],[107.259,30.242],[107.603,30.611],[107.635,30.831],[107.69,30.899],[107.757,30.929],[107.978,30.906],[108.147,30.967],[108.337,31.358],[108.483,31.526],[108.735,31.705],[108.743,31.832],[108.589,31.949],[108.577,31.999],[108.684,32.14],[108.699,32.3],[108.956,32.12],[109.232,32.073],[109.284,31.906],[109.729,31.949],[109.731,31.972],[110.021,31.92],[110.026,31.712],[110.19,31.598],[110.259,31.419],[110.201,31.247],[110.206,31.031],[110.135,30.959],[109.908,30.987],[109.549,30.721],[109.271,30.695],[109.102,30.721],[108.804,30.638],[108.698,30.671],[108.532,30.54],[108.643,30.382],[108.565,29.905],[108.7,29.959],[108.9,29.75],[108.999,29.748],[109.009,29.509],[109.149,29.319],[109.347,29.236],[109.337,28.613],[109.251,28.576]]]}},{"type":"Feature","properties":{"admin_code":"CN-SC","name":"Sichuan","name_local":"四川省"},"geometry":{"type":"Polygon","coordinates":[[[105.342,28.077],[105.208,28.195],[105.129,28.209],[105.054,28.17],[105.027,28.052],[104.822,27.976],[104.585,27.989],[104.506,28.031],[104.459,28.115],[104.49,28.316],[104.356,28.421],[104.344,28.5],[104.407,28.597],[104.4,28.705],[104.301,28.75],[103.918,28.701],[103.867,28.639],[103.875,28.556],[103.938,28.466],[103.91,28.379],[103.618,28.323],[103.555,28.237],[103.583,28.097],[103.573,27.908],[103.199,27.566],[103.022,27.49],[102.95,26.983],[103.07,26.832],[103.06,26.518],[102.772,26.332],[102.719,26.332],[102.636,26.432],[102.558,26.445],[102.146,26.194],[102.055,26.172],[101.863,26.201],[101.793,26.278],[101.682,26.323],[101.651,26.531],[101.523,26.637],[101.53,26.798],[101.419,26.937],[101.273,27.05],[101.243,27.308],[101.157,27.406],[101.05,27.455],[100.979,27.672],[100.632,27.976],[100.51,27.962],[100.182,28.086],[100.124,28.386],[100.205,28.557],[100.142,28.617],[100.071,28.655],[99.937,28.637],[99.659,28.375],[99.505,28.36],[99.392,28.246],[99.268,28.413],[99.215,28.535],[99.21,28.75],[99.058,29.724],[99.109,30.085],[99.004,30.196],[98.988,30.764],[98.854,30.912],[98.808,31.078],[98.68,31.212],[98.675,31.308],[98.79,31.314],[98.876,31.463],[98.592,31.678],[98.517,31.785],[98.482,31.842],[98.486,31.969],[98.442,32.11],[98.296,32.22],[98.293,32.387],[98.06,32.51],[97.701,32.58],[97.515,32.693],[97.43,32.832],[97.526,32.854],[97.594,32.934],[97.574,33.044],[97.527,33.113],[97.661,33.275],[98.079,33.4],[98.659,33.381],[98.861,33.44],[99.176,33.285],[99.401,33.226],[99.508,33.232],[99.665,33.328],[99.918,33.334],[100.013,33.169],[100.502,32.766],[100.715,32.716],[100.991,32.746],[101.078,32.882],[101.078,33.093],[101.196,33.229],[101.37,33.311],[101.492,33.351],[101.595,33.331],[101.776,33.127],[102.001,33.298],[102.174,33.295],[102.269,33.209],[102.399,33.216],[102.427,33.407],[102.498,33.506],[102.494,33.644],[102.376,33.68],[102.275,33.952],[102.278,34.032],[102.427,34.134],[102.752,34.209],[102.949,34.314],[103.043,34.324],[103.199,34.247],[103.181,34.002],[103.272,33.837],[103.467,33.801],[103.545,33.614],[103.904,33.34],[104.075,33.328],[104.239,33.463],[104.302,33.46],[104.434,33.188],[104.489,33.136],[104.474,32.949],[104.671,32.771],[104.903,32.754],[105.199,32.654],[105.492,32.758],[105.482,32.924],[105.578,32.998],[106.128,32.971],[106.187,32.756],[106.329,32.713],[106.885,32.832],[107.118,32.822],[107.228,32.583],[107.421,32.576],[107.469,32.613],[107.599,32.51],[107.761,32.487],[108.076,32.273],[108.404,32.377],[108.593,32.373],[108.699,32.3],[108.684,32.14],[108.577,31.999],[108.589,31.949],[108.743,31.832],[108.735,31.705],[108.483,31.526],[108.337,31.358],[108.147,30.967],[107.978,30.906],[107.757,30.929],[107.69,30.899],[107.635,30.831],[107.603,30.611],[107.259,30.242],[107.156,30.17],[106.961,30.185],[106.777,30.329],[106.668,30.464],[106.492,30.364],[106.057,30.527],[105.959,30.523],[105.82,30.464],[105.754,30.336],[105.86,30.113],[105.843,30.052],[105.469,29.825],[105.373,29.728],[105.509,29.48],[105.608,29.414],[105.764,29.399],[105.833,29.289],[105.873,29.099],[106.204,29.04],[106.272,29.011],[106.355,28.903],[106.388,28.708],[106.368,28.666],[106.098,28.863],[106.024,28.858],[105.959,28.752],[105.762,28.659],[105.742,28.568],[105.767,28.475],[105.87,28.409],[106.113,28.304],[106.287,28.266],[106.325,28.068],[106.388,27.966],[106.33,27.903],[106.178,27.899],[105.772,27.809],[105.615,27.892],[105.369,27.866],[105.342,28.077]]]}},{"type":"Feature","properties":{"admin_code":"CN-GZ","name":"Guizhou","name_local":"贵州省"},"geometry":{"type":"Polygon","coordinates":[[[109.524,26.079],[109.314,25.881],[109.128,25.921],[109.06,25.888],[109.068,25.703],[108.801,25.663],[108.643,25.508],[108.494,25.588],[108.323,25.621],[108.121,25.318],[108.0,25.313],[107.888,25.255],[107.686,25.405],[107.542,25.404],[107.425,25.499],[107.394,25.607],[107.308,25.621],[107.16,25.565],[107.127,25.472],[106.997,25.318],[106.741,25.268],[106.39,25.078],[106.256,25.056],[106.23,24.882],[106.035,24.781],[105.641,24.898],[105.578,24.889],[105.526,24.912],[105.481,25.0],[105.221,25.044],[105.151,25.009],[105.083,24.911],[104.944,24.874],[104.859,24.798],[104.663,24.794],[104.581,24.817],[104.588,24.919],[104.628,24.999],[104.708,25.057],[104.76,25.331],[104.652,25.478],[104.497,25.519],[104.356,25.799],[104.564,26.149],[104.587,26.372],[104.709,26.536],[104.588,26.716],[104.492,26.802],[104.381,26.762],[104.207,26.768],[104.063,26.637],[103.851,26.669],[103.843,26.813],[103.797,26.905],[103.837,27.055],[103.692,27.199],[103.902,27.443],[103.994,27.487],[104.109,27.476],[104.236,27.398],[104.356,27.51],[104.451,27.512],[104.55,27.453],[104.917,27.426],[105.054,27.483],[105.217,27.502],[105.369,27.866],[105.615,27.892],[105.772,27.809],[106.178,27.899],[106.33,27.903],[106.388,27.966],[106.325,28.068],[106.287,28.266],[105.987,28.349],[105.767,28.475],[105.742,28.568],[105.762,28.659],[105.959,28.752],[106.024,28.858],[106.098,28.863],[106.394,28.634],[106.513,28.672],[106.554,28.739],[106.547,28.897],[106.654,28.807],[106.651,28.69],[106.772,28.615],[106.88,28.719],[106.985,28.938],[107.09,28.998],[107.24,29.017],[107.407,28.949],[107.493,28.979],[107.562,29.113],[107.514,29.246],[107.525,29.305],[107.62,29.349],[107.85,29.256],[107.924,29.135],[107.981,29.12],[108.095,29.197],[108.363,29.188],[108.439,29.031],[108.441,28.836],[108.499,28.775],[108.675,28.74],[108.65,28.591],[108.71,28.457],[108.763,28.488],[108.778,28.604],[108.85,28.579],[108.874,28.381],[108.904,28.357],[109.132,28.356],[109.207,28.435],[109.251,28.576],[109.337,28.613],[109.438,28.413],[109.453,28.313],[109.41,28.093],[109.463,27.883],[109.544,27.783],[109.524,27.698],[109.351,27.536],[109.217,27.507],[108.913,27.249],[108.965,27.17],[109.036,27.166],[109.213,27.255],[109.424,27.272],[109.509,27.26],[109.592,27.199],[109.575,26.976],[109.405,26.816],[109.484,26.676],[109.357,26.497],[109.423,26.335],[109.529,26.199],[109.524,26.079]]]}},{"type":"Feature","properties":{"admin_code":"CN-YN","name":"Yunnan","name_local":"云南省"},"geometry":{"type":"Polygon","coordinates":[[[104.545,24.742],[104.555,24.655],[104.696,24.462],[104.775,24.55],[104.911,24.545],[104.961,24.515],[105.073,24.559],[105.211,24.437],[105.247,24.228],[105.464,24.154],[105.62,24.221],[105.858,24.112],[105.986,24.165],[106.076,24.148],[106.204,23.971],[106.14,23.601],[105.876,23.589],[105.537,23.283],[105.362,23.362],[105.302,23.342],[104.909,23.111],[104.905,22.895],[104.37,22.729],[104.25,22.85],[104.108,22.745],[103.995,22.51],[103.675,22.788],[103.582,22.579],[103.405,22.792],[103.03,22.463],[102.615,22.77],[102.495,22.733],[102.448,22.616],[102.206,22.428],[101.712,22.457],[101.601,22.261],[101.594,22.194],[101.795,21.862],[101.813,21.531],[101.782,21.171],[101.662,21.214],[101.303,21.208],[101.103,21.71],[100.833,21.605],[100.629,21.436],[100.395,21.491],[100.24,21.396],[100.147,21.642],[99.992,21.764],[99.994,22.037],[99.219,22.153],[99.284,22.409],[99.42,22.556],[99.403,22.783],[99.542,22.965],[99.504,23.121],[99.139,23.102],[98.952,23.233],[98.883,23.615],[98.748,23.935],[98.862,24.151],[98.56,24.132],[98.332,24.185],[98.044,24.113],[97.766,23.885],[97.645,23.885],[97.655,24.011],[97.773,24.239],[97.645,24.426],[97.583,24.662],[97.631,24.823],[97.818,24.873],[97.759,25.002],[97.891,25.3],[98.148,25.366],[98.214,25.577],[98.401,25.584],[98.57,25.805],[98.655,25.79],[98.756,25.92],[98.612,26.064],[98.782,26.269],[98.826,26.961],[98.755,27.323],[98.761,27.568],[98.56,27.674],[98.436,27.539],[98.176,27.961],[98.154,28.213],[98.369,28.377],[98.506,28.307],[98.674,28.384],[98.655,28.638],[98.697,28.855],[98.674,28.971],[98.83,29.016],[98.936,29.132],[98.931,29.273],[98.981,29.318],[99.121,29.34],[99.215,28.535],[99.392,28.246],[99.505,28.36],[99.659,28.375],[99.937,28.637],[100.071,28.655],[100.142,28.617],[100.205,28.557],[100.124,28.386],[100.182,28.086],[100.51,27.962],[100.632,27.976],[100.979,27.672],[101.05,27.455],[101.157,27.406],[101.243,27.308],[101.273,27.05],[101.419,26.937],[101.53,26.798],[101.523,26.637],[101.651,26.531],[101.682,26.323],[101.793,26.278],[101.863,26.201],[102.055,26.172],[102.146,26.194],[102.558,26.445],[102.636,26.432],[102.719,26.332],[102.772,26.332],[103.06,26.518],[103.07,26.832],[102.95,26.983],[103.022,27.49],[103.199,27.566],[103.573,27.908],[103.583,28.097],[103.555,28.237],[103.618,28.323],[103.91,28.379],[103.938,28.466],[103.875,28.556],[103.867,28.639],[103.918,28.701],[104.301,28.75],[104.4,28.705],[104.407,28.597],[104.344,28.5],[104.356,28.421],[104.49,28.316],[104.459,28.115],[104.506,28.031],[104.585,27.989],[104.822,27.976],[105.027,28.052],[105.054,28.17],[105.129,28.209],[105.208,28.195],[105.342,28.077],[105.374,27.849],[105.217,27.502],[105.054,27.483],[104.917,27.426],[104.55,27.453],[104.451,27.512],[104.356,27.51],[104.236,27.398],[104.109,27.476],[103.994,27.487],[103.902,27.443],[103.692,27.199],[103.837,27.055],[103.797,26.905],[103.843,26.813],[103.851,26.669],[104.063,26.637],[104.207,26.768],[104.381,26.762],[104.492,26.802],[104.588,26.716],[104.709,26.536],[104.587,26.372],[104.564,26.149],[104.356,25.799],[104.497,25.519],[104.652,25.478],[104.76,25.331],[104.708,25.057],[104.628,24.999],[104.545,24.742]]]}},{"type":"Feature","properties":{"admin_code":"CN-XZ","name":"Tibet","name_local":"西藏自治区"},"geometry":{"type":"Polygon","coordinates":[[[98.981,29.318],[98.931,29.273],[98.936,29.132],[98.83,29.016],[98.674,28.971],[98.697,28.855],[98.655,28.638],[98.674,28.384],[98.506,28.307],[98.369,28.377],[98.154,28.213],[98.035,28.339],[97.894,28.334],[97.759,28.496],[97.656,28.496],[97.352,28.277],[97.417,28.062],[97.287,27.746],[96.93,27.87],[96.605,28.076],[96.345,28.176],[96.084,28.181],[95.868,28.286],[95.337,28.047],[95.136,27.87],[94.855,27.722],[94.573,27.669],[94.257,27.557],[93.848,27.179],[93.734,27.012],[93.089,26.904],[92.787,26.953],[92.132,26.888],[92.017,27.108],[92.125,27.28],[92.021,27.44],[92.06,27.703],[91.544,27.815],[91.341,27.98],[90.883,27.95],[90.68,27.98],[90.409,28.211],[89.978,28.271],[89.529,27.995],[88.936,27.357],[88.835,27.478],[88.911,27.935],[88.691,28.069],[87.76,27.755],[87.514,27.845],[87.32,27.748],[86.701,28.033],[86.5,27.87],[86.36,27.861],[86.17,28.004],[86.002,27.875],[85.921,28.052],[85.569,28.234],[85.265,28.21],[85.135,28.439],[85.173,28.563],[85.092,28.601],[84.913,28.525],[84.604,28.667],[84.192,28.729],[84.16,29.08],[84.079,29.227],[83.932,29.255],[83.808,29.033],[83.699,28.99],[83.434,29.184],[83.369,29.411],[82.99,29.661],[82.843,29.675],[82.616,29.924],[82.415,29.929],[82.172,30.112],[81.771,30.195],[81.692,30.336],[81.258,29.919],[81.088,30.162],[80.208,30.602],[80.114,30.787],[79.864,30.9],[79.59,30.888],[79.362,31.025],[79.081,31.001],[78.852,31.259],[78.789,31.425],[78.838,31.585],[78.765,31.744],[78.758,31.889],[78.519,32.039],[78.547,32.32],[78.467,32.514],[78.769,32.613],[78.828,32.429],[79.001,32.338],[79.306,32.511],[79.299,32.721],[79.164,33.056],[79.241,33.165],[79.067,33.255],[78.888,33.432],[78.872,33.716],[78.737,34.049],[78.975,34.13],[79.029,34.224],[78.984,34.356],[79.098,34.407],[79.477,34.463],[79.773,34.407],[79.943,34.669],[79.853,34.914],[80.017,34.977],[79.986,35.085],[80.205,35.34],[80.266,35.51],[80.445,35.418],[80.985,35.307],[81.148,35.369],[81.441,35.323],[81.599,35.167],[81.896,35.253],[82.007,35.528],[82.099,35.617],[82.296,35.722],[82.437,35.737],[82.611,35.675],[82.911,35.718],[83.063,35.669],[83.275,35.685],[83.709,35.476],[84.061,35.491],[84.204,35.435],[85.152,35.787],[85.579,35.749],[85.684,35.787],[86.284,36.186],[87.24,36.346],[87.452,36.504],[87.835,36.546],[88.245,36.528],[89.323,36.229],[89.82,36.299],[89.842,36.15],[89.572,36.02],[89.593,35.932],[89.764,35.92],[89.887,35.868],[89.916,35.629],[89.78,35.329],[89.727,35.044],[89.821,34.946],[89.768,34.782],[89.504,34.738],[89.467,34.616],[89.507,34.524],[89.582,34.481],[89.559,34.297],[89.59,34.222],[89.807,33.992],[89.954,33.902],[90.009,33.717],[90.289,33.433],[90.451,33.138],[90.986,33.14],[91.054,33.093],[91.441,33.047],[91.517,33.002],[91.807,32.994],[91.946,32.945],[92.327,32.714],[92.489,32.693],[92.67,32.729],[92.827,32.722],[92.976,32.633],[93.135,32.646],[93.529,32.55],[94.168,32.605],[94.726,32.593],[94.912,32.51],[94.994,32.397],[95.168,32.273],[95.46,32.19],[95.507,31.993],[95.606,31.855],[95.803,31.855],[96.06,31.728],[96.158,31.728],[96.316,31.815],[96.462,31.805],[96.651,31.711],[96.774,31.768],[97.137,32.256],[97.132,32.345],[97.238,32.546],[97.251,32.646],[97.19,32.72],[97.21,32.782],[97.43,32.832],[97.515,32.693],[97.701,32.58],[98.06,32.51],[98.293,32.387],[98.296,32.22],[98.442,32.11],[98.486,31.969],[98.482,31.842],[98.517,31.785],[98.592,31.678],[98.876,31.463],[98.79,31.314],[98.675,31.308],[98.68,31.212],[98.808,31.078],[98.854,30.912],[98.988,30.764],[99.004,30.196],[99.109,30.085],[99.058,29.724],[99.121,29.34],[98.981,29.318]]]}},{"type":"Feature","properties":{"admin_code":"CN-SN","name":"Shaanxi","name_local":"陕西省"},"geometry":{"type":"Polygon","coordinates":[[[109.729,31.949],[109.284,31.906],[109.232,32.073],[108.956,32.12],[108.593,32.373],[108.404,32.377],[108.076,32.273],[107.761,32.487],[107.599,32.51],[107.469,32.613],[107.421,32.576],[107.228,32.583],[107.118,32.822],[106.885,32.832],[106.329,32.713],[106.187,32.756],[106.128,32.971],[105.82,32.988],[106.072,33.285],[106.013,33.453],[105.887,33.522],[105.891,33.585],[106.139,33.703],[106.546,33.696],[106.554,33.962],[106.506,34.07],[106.743,34.406],[106.767,34.49],[106.621,34.578],[106.427,34.636],[106.439,34.724],[106.573,34.818],[106.605,34.976],[106.554,35.035],[106.577,35.138],[106.865,35.202],[107.078,35.173],[107.283,35.031],[107.879,35.122],[107.828,35.222],[107.824,35.389],[107.883,35.418],[108.041,35.341],[108.242,35.402],[108.538,35.38],[108.648,35.437],[108.688,35.636],[108.577,35.752],[108.613,35.992],[108.767,36.081],[108.783,36.428],[108.652,36.532],[108.55,36.561],[108.329,36.703],[108.207,36.662],[107.942,36.849],[107.425,37.0],[107.335,37.186],[107.382,37.314],[107.311,37.456],[107.386,37.671],[107.581,37.826],[108.099,37.86],[108.193,37.926],[108.307,37.912],[108.404,37.761],[108.689,37.75],[108.761,37.8],[109.004,38.182],[109.171,38.278],[109.386,38.511],[109.493,38.574],[109.562,38.704],[109.774,38.72],[109.909,38.796],[109.916,38.861],[109.85,38.944],[109.92,39.186],[110.207,39.415],[110.284,39.516],[110.356,39.447],[110.592,39.457],[110.75,39.382],[111.113,39.646],[111.272,39.503],[111.237,39.186],[111.052,39.047],[110.915,38.536],[110.544,38.24],[110.547,38.101],[110.856,37.772],[110.734,37.396],[110.495,37.098],[110.46,36.768],[110.568,36.676],[110.547,36.174],[110.71,35.767],[110.689,35.638],[110.388,35.22],[110.37,34.816],[110.44,34.72],[110.438,34.585],[110.55,34.481],[110.549,34.356],[110.716,34.305],[110.722,34.02],[110.864,33.938],[110.932,33.779],[111.117,33.651],[111.104,33.394],[110.882,33.234],[110.66,33.373],[110.499,33.288],[109.848,33.397],[109.725,33.394],[109.623,33.331],[109.639,33.229],[109.864,33.209],[109.867,33.05],[110.041,33.031],[110.25,32.908],[110.242,32.779],[109.686,32.659],[109.627,32.41],[109.773,32.197],[109.741,32.14],[109.729,31.949]]]}},{"type":"Feature","properties":{"admin_code":"CN-GS","name":"Gansu","name_local":"甘肃省"},"geometry":{"type":"Polygon","coordinates":[[[105.578,32.998],[105.482,32.924],[105.492,32.758],[105.199,32.654],[104.903,32.754],[104.671,32.771],[104.474,32.949],[104.489,33.136],[104.434,33.188],[104.302,33.46],[104.239,33.463],[104.075,33.328],[103.904,33.34],[103.545,33.614],[103.467,33.801],[103.272,33.837],[103.181,34.002],[103.199,34.247],[103.043,34.324],[102.949,34.314],[102.752,34.209],[102.427,34.134],[102.278,34.032],[102.333,33.786],[101.921,33.784],[101.819,33.98],[101.725,34.043],[101.485,34.118],[101.136,34.118],[101.014,34.193],[101.033,34.499],[101.197,34.504],[101.331,34.396],[101.696,34.254],[101.906,34.275],[102.008,34.5],[101.955,34.633],[101.948,34.962],[102.2,35.031],[102.318,35.096],[102.415,35.191],[102.427,35.269],[102.328,35.383],[102.412,35.498],[102.506,35.536],[102.608,35.693],[102.742,35.636],[102.777,35.654],[102.995,35.941],[103.016,36.141],[103.078,36.298],[102.947,36.409],[102.901,36.564],[102.732,36.627],[102.711,36.874],[102.545,36.991],[102.525,37.214],[102.409,37.345],[102.366,37.495],[102.124,37.627],[102.124,37.759],[102.048,37.769],[101.841,37.667],[101.593,37.763],[101.497,37.761],[101.172,37.906],[101.121,38.032],[100.795,38.236],[100.457,38.427],[100.255,38.498],[100.201,38.351],[100.035,38.351],[99.507,38.798],[99.4,38.797],[99.137,39.006],[98.796,39.085],[98.62,38.973],[98.481,39.07],[98.209,38.837],[97.834,39.083],[97.122,39.208],[96.986,39.109],[97.094,38.949],[97.088,38.726],[96.897,38.493],[96.886,38.257],[96.45,38.126],[96.202,38.237],[95.854,38.203],[95.255,38.34],[94.624,38.225],[94.363,38.59],[93.977,38.534],[93.827,38.713],[93.306,38.664],[93.101,38.891],[92.618,39.044],[92.889,39.221],[92.919,39.454],[92.885,40.05],[92.948,40.42],[93.405,40.456],[93.635,40.61],[93.708,40.781],[94.095,41.109],[94.473,41.327],[94.635,41.542],[94.892,41.672],[95.184,41.733],[95.507,41.922],[96.052,42.004],[96.367,42.223],[96.284,42.401],[96.404,42.66],[97.287,42.528],[97.367,42.546],[97.406,42.168],[97.574,41.958],[97.401,41.68],[97.428,41.461],[97.78,40.976],[97.997,40.845],[98.235,40.615],[98.403,40.537],[98.609,40.562],[99.059,40.861],[100.137,40.915],[100.419,40.759],[100.435,40.454],[100.002,40.173],[99.817,39.979],[99.98,39.796],[100.289,39.683],[100.44,39.537],[100.887,39.527],[100.925,39.457],[100.897,39.377],[100.918,39.154],[101.119,39.044],[101.279,39.036],[101.393,38.96],[101.608,38.923],[102.375,38.944],[102.832,39.084],[103.38,39.468],[103.834,39.455],[104.219,39.216],[104.248,39.008],[104.121,38.875],[104.155,38.773],[104.139,38.565],[104.022,38.466],[103.731,38.422],[103.726,38.224],[103.618,38.055],[103.635,37.799],[103.964,37.694],[103.979,37.623],[104.306,37.527],[104.51,37.546],[104.543,37.574],[104.759,37.452],[104.751,37.308],[104.897,37.318],[104.995,37.189],[105.295,36.975],[105.358,36.616],[105.504,36.418],[105.53,36.239],[105.4,36.105],[105.41,35.981],[105.536,35.837],[105.835,35.776],[105.957,35.533],[106.18,35.516],[106.365,35.42],[106.549,35.479],[106.562,35.775],[106.668,35.824],[106.795,35.797],[106.926,35.853],[107.019,36.18],[106.582,36.391],[106.532,36.55],[106.546,36.799],[106.73,36.87],[106.633,37.009],[106.749,37.282],[106.888,37.28],[107.038,37.194],[107.347,37.219],[107.335,37.186],[107.425,37.0],[107.942,36.849],[108.207,36.662],[108.329,36.703],[108.55,36.561],[108.652,36.532],[108.783,36.428],[108.767,36.081],[108.613,35.992],[108.577,35.752],[108.688,35.636],[108.648,35.437],[108.538,35.38],[108.242,35.402],[108.041,35.341],[107.883,35.418],[107.824,35.389],[107.828,35.222],[107.879,35.122],[107.283,35.031],[107.078,35.173],[106.865,35.202],[106.577,35.138],[106.554,35.035],[106.605,34.976],[106.573,34.818],[106.439,34.724],[106.427,34.636],[106.621,34.578],[106.767,34.49],[106.743,34.406],[106.506,34.07],[106.554,33.962],[106.546,33.696],[106.139,33.703],[105.891,33.585],[105.887,33.522],[106.013,33.453],[106.072,33.285],[105.826,32.994],[105.578,32.998]]]}},{"type":"Feature","properties":{"admin_code":"CN-QH","name":"Qinghai","name_local":"青海省"},"geometry":{"type":"Polygon","coordinates":[[[102.376,33.68],[102.494,33.644],[102.498,33.506],[102.427,33.407],[102.399,33.216],[102.269,33.209],[102.174,33.295],[102.001,33.298],[101.776,33.127],[101.595,33.331],[101.492,33.351],[101.196,33.229],[101.078,33.093],[101.078,32.882],[100.991,32.746],[100.715,32.716],[100.502,32.766],[100.013,33.169],[99.918,33.334],[99.665,33.328],[99.508,33.232],[99.401,33.226],[99.176,33.285],[98.861,33.44],[98.659,33.381],[98.079,33.4],[97.937,33.374],[97.661,33.275],[97.527,33.113],[97.574,33.044],[97.594,32.934],[97.526,32.854],[97.21,32.782],[97.19,32.72],[97.251,32.646],[97.238,32.546],[97.132,32.345],[97.137,32.256],[96.774,31.768],[96.651,31.711],[96.462,31.805],[96.316,31.815],[96.158,31.728],[96.06,31.728],[95.803,31.855],[95.606,31.855],[95.507,31.993],[95.46,32.19],[95.168,32.273],[94.994,32.397],[94.912,32.51],[94.726,32.593],[94.168,32.605],[93.529,32.55],[93.135,32.646],[92.976,32.633],[92.827,32.722],[92.67,32.729],[92.489,32.693],[92.327,32.714],[91.946,32.945],[91.807,32.994],[91.517,33.002],[91.441,33.047],[91.054,33.093],[90.986,33.14],[90.451,33.138],[90.289,33.433],[90.009,33.717],[89.954,33.902],[89.807,33.992],[89.562,34.265],[89.582,34.481],[89.481,34.562],[89.469,34.685],[89.504,34.738],[89.768,34.782],[89.797,34.837],[89.821,34.946],[89.727,35.044],[89.745,35.191],[89.916,35.629],[89.887,35.868],[89.764,35.92],[89.593,35.932],[89.572,36.02],[89.842,36.15],[89.82,36.299],[89.976,36.301],[90.319,36.186],[90.576,36.218],[90.894,36.368],[91.052,36.403],[91.08,36.442],[91.089,36.503],[91.013,36.538],[90.79,36.527],[90.672,36.822],[91.148,37.091],[91.113,37.266],[91.236,37.385],[91.179,37.456],[90.339,37.833],[90.233,38.408],[90.694,38.688],[91.866,38.858],[92.126,38.919],[92.434,39.078],[93.101,38.891],[93.306,38.664],[93.827,38.713],[93.977,38.534],[94.363,38.59],[94.624,38.225],[95.255,38.34],[95.854,38.203],[96.202,38.237],[96.45,38.126],[96.886,38.257],[96.897,38.493],[97.088,38.726],[97.094,38.949],[96.986,39.109],[97.122,39.208],[97.834,39.083],[98.209,38.837],[98.481,39.07],[98.62,38.973],[98.796,39.085],[99.137,39.006],[99.4,38.797],[99.507,38.798],[100.035,38.351],[100.201,38.351],[100.255,38.498],[100.457,38.427],[101.121,38.032],[101.172,37.906],[101.497,37.761],[101.593,37.763],[101.841,37.667],[102.048,37.769],[102.124,37.759],[102.124,37.627],[102.366,37.495],[102.409,37.345],[102.525,37.214],[102.545,36.991],[102.711,36.874],[102.732,36.627],[102.901,36.564],[102.947,36.409],[103.078,36.298],[103.016,36.141],[102.995,35.941],[102.777,35.654],[102.742,35.636],[102.608,35.693],[102.506,35.536],[102.412,35.498],[102.328,35.383],[102.427,35.269],[102.415,35.191],[102.318,35.096],[102.2,35.031],[101.948,34.962],[101.955,34.633],[102.008,34.5],[101.906,34.275],[101.696,34.254],[101.331,34.396],[101.197,34.504],[101.033,34.499],[101.014,34.193],[101.136,34.118],[101.485,34.118],[101.725,34.043],[101.819,33.98],[101.921,33.784],[102.321,33.786],[102.376,33.68]]]}},{"type":"Feature","properties":{"admin_code":"CN-NX","name":"Ningxia","name_local":"宁夏回族自治区"},"geometry":{"type":"Polygon","coordinates":[[[107.386,37.671],[107.311,37.456],[107.382,37.314],[107.347,37.219],[107.038,37.194],[106.888,37.28],[106.749,37.282],[106.633,37.009],[106.73,36.87],[106.546,36.799],[106.532,36.55],[106.582,36.391],[107.019,36.18],[106.926,35.853],[106.795,35.797],[106.668,35.824],[106.562,35.775],[106.549,35.479],[106.365,35.42],[106.18,35.516],[105.957,35.533],[105.835,35.776],[105.536,35.837],[105.41,35.981],[105.4,36.105],[105.53,36.239],[105.504,36.418],[105.358,36.616],[105.295,36.975],[104.995,37.189],[104.897,37.318],[104.751,37.308],[104.759,37.452],[104.543,37.574],[104.599,37.62],[105.096,37.674],[105.453,38.004],[105.906,38.294],[105.906,38.757],[106.096,38.966],[106.092,39.132],[106.321,39.242],[106.38,39.341],[106.52,39.343],[106.66,39.432],[106.873,39.405],[106.873,39.264],[107.066,39.116],[106.636,38.386],[106.934,38.229],[107.246,38.24],[107.51,38.081],[107.581,37.826],[107.386,37.671]]]}},{"type":"Feature","properties":{"admin_code":"CN-XJ","name":"Xinjiang","name_local":"新疆维吾尔自治区"},"geometry":{"type":"Polygon","coordinates":[[[89.323,36.229],[88.245,36.528],[87.835,36.546],[87.452,36.504],[87.24,36.346],[86.284,36.186],[85.684,35.787],[85.579,35.749],[85.152,35.787],[84.204,35.435],[84.061,35.491],[83.709,35.476],[83.275,35.685],[83.063,35.669],[82.911,35.718],[82.611,35.675],[82.437,35.737],[82.296,35.722],[82.099,35.617],[82.007,35.528],[81.896,35.253],[81.599,35.167],[81.441,35.323],[81.148,35.369],[80.985,35.307],[80.445,35.418],[80.266,35.51],[80.205,35.34],[79.986,35.085],[80.017,34.977],[79.853,34.914],[79.943,34.669],[79.773,34.407],[79.477,34.463],[79.206,34.432],[78.984,34.356],[78.807,34.388],[78.651,34.523],[78.436,34.557],[78.283,34.631],[77.985,35.245],[78.047,35.531],[77.909,35.451],[77.26,35.494],[76.685,35.677],[76.518,35.83],[76.212,35.83],[75.95,36.115],[75.977,36.303],[75.846,36.696],[75.662,36.79],[75.475,36.743],[75.351,36.946],[75.156,37.011],[74.933,36.985],[74.543,37.085],[74.446,37.249],[75.101,37.391],[75.101,37.533],[74.955,37.606],[74.885,38.076],[74.771,38.268],[74.825,38.485],[74.787,38.561],[74.31,38.743],[74.072,38.73],[73.893,38.591],[73.709,38.92],[73.779,39.097],[73.606,39.341],[73.628,39.533],[73.828,39.579],[73.899,39.792],[73.844,39.929],[73.893,40.053],[74.056,40.182],[74.359,40.186],[74.446,40.335],[74.798,40.409],[74.83,40.589],[75.215,40.536],[75.572,40.691],[75.714,40.388],[75.859,40.348],[76.019,40.475],[76.303,40.446],[76.525,40.633],[76.799,41.076],[77.045,41.105],[77.451,41.05],[77.895,41.113],[78.065,41.105],[78.467,41.493],[79.194,41.799],[79.509,41.856],[79.886,42.048],[80.135,42.027],[80.254,42.151],[80.216,42.424],[80.237,42.512],[80.167,42.656],[80.27,42.839],[80.505,42.912],[80.423,43.048],[80.785,43.181],[80.667,43.353],[80.707,43.53],[80.305,44.143],[80.367,44.252],[80.298,44.552],[80.433,44.752],[80.201,44.848],[79.972,44.835],[79.889,44.921],[80.079,45.086],[81.671,45.393],[81.945,45.206],[82.309,45.254],[82.493,45.176],[82.607,45.225],[82.638,45.371],[82.617,45.435],[82.34,45.568],[82.51,45.994],[82.531,46.165],[82.995,46.954],[83.051,47.251],[83.256,47.256],[83.949,47.025],[84.68,47.037],[84.929,46.858],[85.233,47.017],[85.579,47.091],[85.769,47.278],[85.59,47.498],[85.563,47.943],[85.774,48.434],[86.267,48.434],[86.706,48.578],[86.804,48.8],[86.823,49.051],[87.288,49.151],[87.538,49.053],[87.659,49.137],[87.936,49.148],[87.926,49.005],[87.805,48.841],[88.079,48.672],[88.103,48.516],[88.602,48.341],[88.928,47.903],[89.318,47.907],[89.442,48.008],[89.832,47.78],[90.103,47.798],[90.423,47.502],[90.596,47.109],[91.051,46.676],[91.068,46.471],[90.925,46.222],[91.041,45.95],[90.694,45.519],[90.71,45.23],[90.845,45.13],[92.102,44.904],[92.996,44.947],[93.516,44.877],[93.966,44.593],[94.549,44.401],[94.698,44.294],[94.954,44.21],[95.375,44.174],[95.331,43.992],[95.548,43.875],[95.944,43.124],[96.345,42.803],[96.404,42.66],[96.284,42.401],[96.367,42.223],[96.052,42.004],[95.507,41.922],[95.184,41.733],[94.892,41.672],[94.635,41.542],[94.473,41.327],[94.095,41.109],[93.708,40.781],[93.635,40.61],[93.405,40.456],[92.948,40.42],[92.885,40.05],[92.919,39.454],[92.889,39.221],[92.618,39.044],[92.634,39.025],[92.434,39.078],[92.126,38.919],[91.866,38.858],[90.694,38.688],[90.233,38.408],[90.339,37.833],[91.179,37.456],[91.236,37.385],[91.113,37.266],[91.148,37.091],[90.672,36.822],[90.79,36.527],[91.013,36.538],[91.089,36.503],[91.08,36.442],[91.052,36.403],[90.894,36.368],[90.576,36.218],[90.319,36.186],[89.976,36.301],[89.323,36.229]]]}}]}