{"type":"FeatureCollection","features":[{"type":"Feature","properties":{"admin_code":"BR-AC","name":"Acre","name_local":"Acre"},"geometry":{"type":"Polygon","coordinates":[[[-72.762,-7.577],[-72.241,-7.669],[-71.642,-7.851],[-70.638,-8.014],[-70.367,-8.086],[-70.176,-8.243],[-69.737,-8.42],[-69.462,-8.604],[-69.192,-8.691],[-68.219,-9.195],[-67.891,-9.27],[-67.424,-9.52],[-67.114,-9.607],[-66.915,-9.724],[-66.774,-9.757],[-66.621,-9.84],[-66.609,-9.896],[-66.867,-10.034],[-67.103,-10.287],[-67.297,-10.295],[-67.318,-10.344],[-67.398,-10.356],[-67.429,-10.419],[-67.614,-10.508],[-67.688,-10.671],[-67.781,-10.673],[-67.825,-10.642],[-68.039,-10.679],[-68.057,-10.744],[-68.116,-10.756],[-68.181,-10.82],[-68.232,-10.955],[-68.469,-11.012],[-68.6,-11.138],[-68.71,-11.126],[-68.818,-11.037],[-69.137,-10.945],[-69.263,-10.956],[-69.296,-10.994],[-69.382,-10.905],[-69.435,-10.961],[-69.71,-10.963],[-69.781,-10.908],[-69.908,-10.888],[-70.069,-10.928],[-70.065,-11.013],[-70.181,-11.023],[-70.233,-11.082],[-70.35,-11.069],[-70.523,-10.984],[-70.62,-10.995],[-70.645,-10.925],[-70.645,-9.811],[-70.587,-9.666],[-70.65,-9.488],[-70.979,-9.73],[-70.983,-9.823],[-71.108,-9.835],[-71.142,-9.921],[-71.239,-9.93],[-71.318,-9.98],[-72.206,-10.001],[-72.229,-9.781],[-72.3,-9.717],[-72.263,-9.601],[-72.373,-9.477],[-72.603,-9.481],[-72.688,-9.415],[-73.21,-9.389],[-73.216,-9.321],[-73.168,-9.321],[-73.143,-9.242],[-72.973,-9.075],[-72.99,-8.947],[-73.11,-8.817],[-73.145,-8.72],[-73.284,-8.71],[-73.347,-8.649],[-73.339,-8.538],[-73.374,-8.478],[-73.463,-8.45],[-73.584,-8.339],[-73.647,-8.216],[-73.673,-8.047],[-73.76,-7.956],[-73.837,-7.952],[-73.79,-7.757],[-73.896,-7.74],[-73.911,-7.677],[-74.038,-7.561],[-73.979,-7.316],[-73.795,-7.249],[-73.825,-7.133],[-73.785,-7.118],[-72.762,-7.577]]]}},{"type":"Feature","properties":{"admin_code":"BR-AL","name":"Alagoas","name_local":"Alagoas"},"geometry":{"type":"Polygon","coordinates":[[[-38.024,-9.189],[-37.882,-9.153],[-37.817,-9.012],[-37.768,-8.991],[-37.745,-8.887],[-37.636,-8.998],[-37.429,-9.011],[-37.402,-9.074],[-37.269,-9.13],[-37.183,-9.246],[-37.034,-9.274],[-36.887,-9.386],[-36.807,-9.273],[-36.72,-9.305],[-36.624,-9.271],[-36.545,-9.333],[-36.377,-9.262],[-36.33,-9.212],[-36.155,-9.206],[-36.198,-9.134],[-36.031,-9.069],[-36.021,-8.931],[-35.862,-8.921],[-35.836,-8.87],[-35.691,-8.87],[-35.665,-8.921],[-35.592,-8.924],[-35.439,-8.809],[-35.375,-8.859],[-35.014,-8.9],[-35.037,-8.996],[-35.203,-9.2],[-35.191,-9.275],[-35.234,-9.361],[-35.337,-9.375],[-35.349,-9.454],[-35.469,-9.572],[-35.571,-9.626],[-35.588,-9.671],[-35.669,-9.683],[-35.795,-9.9],[-35.97,-9.891],[-36.285,-9.7],[-36.336,-9.704],[-36.323,-9.761],[-35.997,-9.911],[-35.914,-9.98],[-36.003,-10.09],[-36.032,-10.186],[-36.137,-10.24],[-36.28,-10.444],[-36.368,-10.387],[-36.462,-10.397],[-36.494,-10.274],[-36.642,-10.267],[-36.67,-10.226],[-36.804,-10.169],[-36.911,-10.003],[-37.252,-9.811],[-37.389,-9.775],[-37.667,-9.601],[-37.734,-9.621],[-37.819,-9.572],[-37.925,-9.559],[-38.013,-9.467],[-38.164,-9.461],[-38.15,-9.34],[-38.024,-9.189]]]}},{"type":"Feature","properties":{"admin_code":"BR-AP","name":"Amapá","name_local":"Amapá"},"geometry":{"type":"Polygon","coordinates":[[[-50.692,0.124],[-50.987,-0.007],[-51.142,-0.147],[-51.292,-0.175],[-51.507,-0.59],[-51.583,-0.626],[-51.666,-0.794],[-51.725,-0.841],[-51.755,-1.11],[-51.866,-1.207],[-52.053,-1.197],[-52.127,-1.282],[-52.168,-1.165],[-52.332,-1.148],[-52.476,-1.081],[-52.467,-0.921],[-52.554,-0.884],[-52.53,-0.779],[-52.55,-0.64],[-52.613,-0.609],[-52.686,-0.62],[-52.727,-0.548],[-52.72,-0.338],[-52.815,-0.303],[-52.856,-0.215],[-52.992,-0.182],[-53.048,0.063],[-53.156,0.143],[-53.163,0.273],[-53.217,0.308],[-53.217,0.484],[-53.168,0.524],[-53.157,0.617],[-53.443,0.871],[-53.514,1.031],[-53.461,1.09],[-53.46,1.144],[-53.602,1.192],[-53.639,1.318],[-53.752,1.355],[-53.784,1.324],[-53.868,1.324],[-53.971,1.427],[-54.106,1.452],[-54.18,1.569],[-54.253,1.585],[-54.363,1.699],[-54.786,1.726],[-54.808,1.905],[-54.862,2.012],[-54.8,2.135],[-54.912,2.366],[-54.715,2.373],[-54.707,2.313],[-54.634,2.293],[-54.487,2.174],[-54.343,2.158],[-54.26,2.105],[-53.907,2.225],[-53.832,2.317],[-53.757,2.219],[-53.473,2.221],[-53.399,2.276],[-53.331,2.276],[-53.232,2.132],[-53.098,2.158],[-53.057,2.088],[-52.991,2.089],[-52.952,2.206],[-52.849,2.274],[-52.78,2.263],[-52.677,2.347],[-52.617,2.447],[-52.592,2.692],[-52.484,2.844],[-52.413,3.069],[-52.249,3.219],[-52.173,3.404],[-52.073,3.472],[-52.022,3.655],[-51.73,3.908],[-51.663,4.013],[-51.674,4.167],[-51.63,4.261],[-51.589,4.281],[-51.55,4.231],[-51.47,4.204],[-51.299,3.974],[-51.28,3.785],[-51.157,3.755],[-51.149,3.317],[-51.074,2.999],[-51.086,2.928],[-51.017,2.834],[-51.011,2.702],[-50.92,2.541],[-50.892,2.366],[-50.85,2.285],[-50.783,2.249],[-50.774,2.147],[-50.636,2.069],[-50.575,2.119],[-50.497,2.118],[-50.48,2.031],[-50.392,1.988],[-50.405,1.84],[-50.358,1.822],[-50.304,1.739],[-50.204,1.707],[-50.161,1.66],[-50.027,1.651],[-49.99,1.577],[-49.923,1.562],[-49.957,1.188],[-49.921,1.113],[-49.977,1.037],[-49.984,0.883],[-50.053,0.829],[-50.177,0.608],[-50.405,0.582],[-50.492,0.508],[-50.506,0.406],[-50.692,0.124]]]}},{"type":"Feature","properties":{"admin_code":"BR-AM","name":"Amazonas","name_local":"Amazonas"},"geometry":{"type":"Polygon","coordinates":[[[-63.135,2.19],[-63.098,2.096],[-63.014,2.04],[-62.783,2.016],[-62.661,1.922],[-62.713,1.827],[-62.732,1.696],[-62.784,1.633],[-62.765,1.578],[-62.609,1.436],[-62.529,1.158],[-62.426,1.083],[-62.463,0.893],[-62.43,0.807],[-62.514,0.683],[-62.436,0.438],[-62.423,0.119],[-62.325,0.081],[-62.302,-0.047],[-62.196,-0.137],[-62.231,-0.221],[-62.179,-0.308],[-62.271,-0.466],[-62.266,-0.617],[-62.338,-0.689],[-62.474,-0.63],[-62.489,-0.722],[-62.354,-0.788],[-62.301,-0.907],[-62.092,-0.974],[-61.93,-1.294],[-61.862,-1.366],[-61.788,-1.312],[-61.743,-1.36],[-61.54,-1.418],[-61.59,-1.253],[-61.589,-1.076],[-61.544,-1.01],[-61.593,-0.899],[-61.54,-0.842],[-61.524,-0.708],[-61.152,-0.457],[-60.92,-0.545],[-60.881,-0.622],[-60.739,-0.714],[-60.727,-0.794],[-60.659,-0.86],[-60.533,-0.814],[-60.501,-0.748],[-60.42,-0.764],[-60.383,-0.718],[-60.295,-0.694],[-60.28,-0.609],[-60.389,-0.573],[-60.396,-0.444],[-60.287,-0.308],[-60.281,-0.161],[-60.227,-0.126],[-60.22,-0.015],[-60.112,0.045],[-60.054,0.247],[-58.884,0.249],[-58.857,0.213],[-58.875,-0.006],[-58.849,-0.327],[-58.77,-0.373],[-58.701,-0.505],[-58.759,-0.584],[-58.55,-0.786],[-58.455,-0.831],[-58.463,-0.892],[-58.338,-1.084],[-58.243,-1.114],[-58.153,-1.215],[-58.059,-1.096],[-57.963,-1.11],[-57.998,-1.327],[-57.959,-1.372],[-57.875,-1.403],[-57.729,-1.555],[-57.587,-1.576],[-57.361,-1.715],[-57.249,-1.681],[-57.144,-1.743],[-57.049,-1.883],[-56.871,-2.006],[-56.718,-2.021],[-56.77,-2.128],[-56.701,-2.185],[-56.61,-2.187],[-56.569,-2.151],[-56.336,-2.148],[-56.252,-2.018],[-56.131,-2.023],[-56.216,-2.197],[-56.408,-2.292],[-56.453,-2.404],[-56.416,-2.452],[-56.433,-2.524],[-57.379,-4.487],[-57.421,-4.639],[-57.717,-5.236],[-57.924,-5.793],[-58.194,-6.357],[-58.32,-6.463],[-58.472,-6.662],[-58.406,-6.925],[-58.335,-6.941],[-58.188,-7.094],[-58.167,-7.256],[-58.127,-7.302],[-58.224,-7.474],[-58.177,-7.552],[-58.349,-7.786],[-58.34,-7.916],[-58.288,-7.967],[-58.297,-8.283],[-58.414,-8.458],[-58.401,-8.634],[-58.333,-8.671],[-58.392,-8.763],[-61.519,-8.752],[-61.73,-8.631],[-61.901,-8.799],[-61.974,-8.813],[-62.018,-8.763],[-62.141,-8.727],[-62.174,-8.53],[-62.234,-8.519],[-62.298,-8.595],[-62.375,-8.325],[-62.534,-8.294],[-62.653,-8.175],[-62.677,-8.031],[-62.856,-7.913],[-63.61,-7.895],[-63.745,-8.294],[-63.797,-8.306],[-63.826,-8.254],[-63.873,-8.258],[-63.902,-8.408],[-63.969,-8.441],[-63.916,-8.473],[-63.916,-8.509],[-64.134,-8.694],[-64.158,-8.923],[-64.269,-8.942],[-64.356,-8.867],[-64.423,-8.939],[-64.53,-8.931],[-64.607,-9.003],[-64.657,-8.993],[-64.686,-8.948],[-64.741,-9.002],[-64.824,-8.95],[-64.944,-9.062],[-64.949,-9.252],[-65.077,-9.374],[-65.167,-9.386],[-65.192,-9.231],[-65.27,-9.212],[-65.427,-9.294],[-65.437,-9.364],[-65.378,-9.432],[-65.483,-9.449],[-65.535,-9.396],[-65.646,-9.384],[-65.753,-9.541],[-65.994,-9.31],[-66.047,-9.379],[-66.334,-9.399],[-66.486,-9.588],[-66.681,-9.664],[-66.807,-9.767],[-67.114,-9.607],[-67.424,-9.52],[-67.891,-9.27],[-68.219,-9.195],[-69.192,-8.691],[-69.462,-8.604],[-69.737,-8.42],[-70.149,-8.258],[-70.367,-8.086],[-70.638,-8.014],[-71.642,-7.851],[-72.241,-7.669],[-72.78,-7.572],[-73.8,-7.105],[-73.849,-6.909],[-73.797,-6.859],[-73.773,-6.772],[-73.537,-6.601],[-73.35,-6.562],[-73.342,-6.524],[-73.224,-6.459],[-73.222,-6.275],[-73.276,-6.242],[-73.314,-6.032],[-73.244,-5.974],[-73.233,-5.875],[-73.046,-5.747],[-72.963,-5.279],[-72.911,-5.251],[-72.904,-5.121],[-72.799,-5.044],[-72.784,-5.001],[-72.684,-4.989],[-72.659,-4.919],[-72.489,-4.892],[-72.474,-4.81],[-72.416,-4.738],[-72.258,-4.719],[-72.206,-4.67],[-72.098,-4.658],[-71.949,-4.476],[-71.806,-4.414],[-71.711,-4.446],[-71.553,-4.405],[-71.526,-4.355],[-71.351,-4.371],[-71.269,-4.314],[-70.948,-4.309],[-70.844,-4.186],[-70.82,-4.102],[-70.73,-4.031],[-70.317,-4.069],[-70.307,-4.212],[-70.221,-4.252],[-70.03,-4.284],[-69.967,-4.238],[-69.972,-4.051],[-69.867,-3.689],[-69.842,-3.469],[-69.788,-3.384],[-69.802,-3.314],[-69.693,-2.897],[-69.706,-2.828],[-69.67,-2.754],[-69.61,-2.269],[-69.475,-1.644],[-69.472,-1.408],[-69.416,-1.303],[-69.45,-1.152],[-69.421,-1.104],[-69.467,-0.973],[-69.449,-0.934],[-69.506,-0.898],[-69.5,-0.812],[-69.608,-0.731],[-69.594,-0.606],[-69.626,-0.575],[-69.643,-0.451],[-69.945,-0.307],[-70.071,-0.182],[-70.077,-0.102],[-70.039,-0.04],[-70.078,0.043],[-70.053,0.379],[-69.999,0.613],[-69.781,0.622],[-69.701,0.701],[-69.516,0.746],[-69.478,0.813],[-69.442,0.809],[-69.361,0.681],[-69.223,0.647],[-69.135,0.7],[-69.161,0.794],[-69.146,0.962],[-69.289,1.123],[-69.341,1.076],[-69.366,1.1],[-69.41,1.069],[-69.467,1.099],[-69.838,1.095],[-69.818,1.745],[-69.549,1.83],[-69.357,1.79],[-68.264,1.791],[-68.227,1.863],[-68.222,1.992],[-68.172,1.995],[-68.156,2.04],[-68.096,2.037],[-68.005,1.912],[-67.917,1.915],[-67.802,1.992],[-67.789,2.06],[-67.734,2.114],[-67.627,2.069],[-67.435,2.254],[-67.324,2.257],[-67.265,1.977],[-67.223,1.977],[-67.1,1.881],[-67.071,1.708],[-67.017,1.678],[-67.016,1.44],[-67.071,1.346],[-67.066,1.266],[-66.985,1.225],[-66.804,1.257],[-66.578,0.998],[-66.459,0.917],[-66.348,0.855],[-66.175,0.884],[-66.131,0.835],[-66.076,0.883],[-65.923,0.901],[-65.619,1.063],[-65.539,1.042],[-65.453,0.933],[-65.367,0.936],[-65.336,0.989],[-65.195,0.993],[-65.148,1.054],[-65.18,1.104],[-65.131,1.201],[-64.93,1.211],[-64.804,1.372],[-64.721,1.413],[-64.643,1.345],[-64.559,1.388],[-64.463,1.515],[-64.336,1.556],[-64.229,1.536],[-64.152,1.563],[-64.115,1.642],[-64.02,1.717],[-64.002,1.946],[-63.947,2.037],[-63.711,2.027],[-63.614,2.136],[-63.493,2.145],[-63.407,2.211],[-63.135,2.19]]]}},{"type":"Feature","properties":{"admin_code":"BR-BA","name":"Bahia","name_local":"Bahia"},"geometry":{"type":"Polygon","coordinates":[[[-41.125,-8.711],[-41.087,-8.814],[-40.932,-8.835],[-40.811,-8.976],[-40.791,-9.109],[-40.656,-9.203],[-40.693,-9.484],[-40.551,-9.508],[-40.493,-9.454],[-40.312,-9.389],[-40.247,-9.229],[-40.23,-9.068],[-40.08,-9.121],[-39.838,-9.008],[-39.883,-8.85],[-39.691,-8.814],[-39.651,-8.668],[-39.507,-8.654],[-39.341,-8.57],[-39.17,-8.702],[-38.924,-8.817],[-38.75,-8.841],[-38.65,-8.891],[-38.601,-9.004],[-38.541,-8.865],[-38.46,-8.834],[-38.431,-8.892],[-38.432,-9.043],[-38.248,-9.035],[-38.272,-9.134],[-38.22,-9.202],[-38.167,-9.458],[-38.013,-9.467],[-37.943,-9.513],[-37.943,-9.55],[-37.998,-9.595],[-37.94,-9.657],[-37.991,-9.696],[-37.999,-9.772],[-37.947,-9.812],[-37.927,-9.953],[-37.86,-10.015],[-37.776,-10.034],[-37.713,-10.153],[-37.707,-10.291],[-37.782,-10.411],[-37.758,-10.517],[-37.775,-10.678],[-37.888,-10.737],[-38.006,-10.693],[-38.076,-10.728],[-38.119,-10.693],[-38.164,-10.702],[-38.16,-10.932],[-38.046,-11.118],[-37.951,-11.209],[-37.922,-11.431],[-37.724,-11.529],[-37.392,-11.542],[-37.354,-11.578],[-37.359,-11.665],[-37.429,-11.74],[-37.515,-11.985],[-37.632,-12.117],[-37.699,-12.319],[-37.749,-12.37],[-37.796,-12.364],[-37.926,-12.5],[-37.911,-12.563],[-37.989,-12.626],[-38.044,-12.751],[-38.242,-12.89],[-38.258,-12.958],[-38.555,-13.057],[-38.728,-13.15],[-38.768,-13.143],[-38.786,-13.187],[-38.894,-13.247],[-38.893,-13.37],[-38.844,-13.392],[-38.836,-13.433],[-38.841,-13.524],[-38.893,-13.557],[-38.844,-13.581],[-38.837,-13.621],[-38.953,-13.726],[-38.878,-13.827],[-38.876,-14.126],[-38.95,-14.213],[-38.955,-14.552],[-38.991,-14.594],[-39.007,-14.72],[-38.954,-14.776],[-38.971,-15.257],[-38.905,-15.394],[-38.914,-15.595],[-38.843,-15.657],[-38.801,-15.848],[-38.842,-15.998],[-38.912,-16.036],[-38.917,-16.198],[-38.972,-16.229],[-38.984,-16.349],[-39.027,-16.42],[-39.016,-16.665],[-39.069,-16.698],[-39.073,-16.967],[-39.148,-17.075],[-39.149,-17.529],[-39.114,-17.717],[-39.198,-17.833],[-39.436,-17.955],[-39.451,-18.018],[-39.573,-18.134],[-39.583,-18.218],[-39.652,-18.316],[-39.881,-18.216],[-39.936,-18.136],[-40.165,-17.984],[-40.256,-17.961],[-40.254,-17.919],[-40.187,-17.899],[-40.207,-17.755],[-40.254,-17.738],[-40.333,-17.627],[-40.425,-17.602],[-40.507,-17.455],[-40.592,-17.386],[-40.593,-17.315],[-40.543,-17.272],[-40.491,-16.911],[-40.249,-16.867],[-40.302,-16.718],[-40.238,-16.561],[-40.132,-16.564],[-39.997,-16.325],[-39.909,-16.297],[-39.838,-16.175],[-39.848,-16.071],[-39.905,-15.984],[-40.108,-15.903],[-40.201,-15.813],[-40.539,-15.789],[-40.662,-15.693],[-40.842,-15.68],[-40.901,-15.633],[-40.966,-15.725],[-41.035,-15.717],[-41.057,-15.78],[-41.321,-15.781],[-41.336,-15.52],[-41.365,-15.465],[-41.766,-15.138],[-41.866,-15.12],[-41.923,-15.172],[-42.027,-15.187],[-42.156,-15.11],[-42.289,-15.115],[-42.548,-14.963],[-42.68,-14.936],[-42.726,-14.862],[-42.915,-14.744],[-42.984,-14.743],[-43.104,-14.679],[-43.301,-14.669],[-43.341,-14.719],[-43.501,-14.785],[-43.843,-14.688],[-43.889,-14.651],[-43.791,-14.353],[-44.003,-14.277],[-44.398,-14.276],[-44.433,-14.329],[-44.551,-14.337],[-44.658,-14.44],[-44.762,-14.452],[-44.874,-14.627],[-44.973,-14.639],[-45.05,-14.741],[-45.195,-14.748],[-45.269,-14.792],[-45.35,-14.925],[-45.611,-14.965],[-45.742,-15.115],[-45.826,-15.135],[-45.863,-15.176],[-45.939,-15.125],[-46.045,-15.233],[-46.116,-15.24],[-46.138,-15.193],[-46.03,-15.132],[-45.964,-15.04],[-45.974,-14.967],[-46.075,-14.901],[-46.02,-14.86],[-46.019,-14.466],[-45.901,-14.352],[-46.067,-14.277],[-46.248,-14.077],[-46.267,-13.804],[-46.245,-13.676],[-46.194,-13.615],[-46.245,-13.567],[-46.257,-13.45],[-46.076,-13.327],[-46.231,-13.306],[-46.269,-13.377],[-46.302,-13.374],[-46.315,-13.062],[-46.204,-13.024],[-46.31,-12.966],[-46.31,-12.706],[-46.253,-12.657],[-46.308,-12.599],[-46.223,-12.581],[-46.212,-12.526],[-46.257,-12.406],[-46.306,-12.386],[-46.406,-12.218],[-46.348,-12.139],[-46.396,-12.098],[-46.412,-12.024],[-46.334,-11.947],[-46.219,-11.932],[-46.193,-11.901],[-46.335,-11.871],[-46.352,-11.841],[-46.309,-11.647],[-46.257,-11.622],[-46.258,-11.562],[-46.46,-11.549],[-46.521,-11.488],[-46.53,-11.394],[-46.579,-11.373],[-46.603,-11.277],[-46.48,-11.199],[-46.451,-11.096],[-46.326,-10.945],[-46.3,-10.825],[-46.195,-10.734],[-46.248,-10.672],[-46.094,-10.645],[-46.005,-10.534],[-45.856,-10.452],[-45.829,-10.362],[-45.715,-10.339],[-45.671,-10.281],[-45.662,-10.156],[-45.601,-10.135],[-45.426,-10.465],[-45.452,-10.639],[-45.403,-10.67],[-45.383,-10.741],[-45.291,-10.76],[-45.194,-10.862],[-44.895,-10.927],[-44.798,-10.82],[-44.705,-10.801],[-44.613,-10.729],[-44.574,-10.662],[-44.416,-10.65],[-44.327,-10.598],[-44.277,-10.65],[-44.138,-10.654],[-44.017,-10.506],[-44.002,-10.432],[-43.896,-10.415],[-43.801,-10.232],[-43.781,-10.092],[-43.683,-10.054],[-43.678,-9.867],[-43.786,-9.784],[-43.85,-9.626],[-43.779,-9.459],[-43.688,-9.432],[-43.471,-9.291],[-43.371,-9.393],[-43.239,-9.448],[-43.106,-9.404],[-42.958,-9.454],[-42.925,-9.576],[-42.747,-9.618],[-42.7,-9.549],[-42.453,-9.497],[-42.392,-9.416],[-42.212,-9.299],[-41.843,-9.28],[-41.709,-9.069],[-41.5,-9.025],[-41.487,-8.897],[-41.361,-8.774],[-41.125,-8.711]]]}},{"type":"Feature","properties":{"admin_code":"BR-CE","name":"Ceará","name_local":"Ceará"},"geometry":{"type":"Polygon","coordinates":[[[-37.712,-5.211],[-37.736,-5.346],[-37.839,-5.434],[-37.846,-5.566],[-37.951,-5.642],[-37.969,-5.688],[-38.072,-5.741],[-38.088,-5.954],[-38.244,-6.069],[-38.259,-6.133],[-38.401,-6.146],[-38.513,-6.312],[-38.529,-6.401],[-38.581,-6.426],[-38.579,-6.478],[-38.528,-6.515],[-38.578,-6.538],[-38.644,-6.666],[-38.606,-6.838],[-38.706,-6.965],[-38.692,-7.067],[-38.522,-7.352],[-38.538,-7.405],[-38.594,-7.434],[-38.593,-7.512],[-38.688,-7.584],[-38.707,-7.683],[-38.811,-7.696],[-38.95,-7.882],[-38.988,-7.883],[-39.082,-7.81],[-39.156,-7.696],[-39.26,-7.683],[-39.273,-7.58],[-39.458,-7.49],[-39.584,-7.385],[-39.907,-7.378],[-39.981,-7.431],[-40.198,-7.498],[-40.267,-7.444],[-40.505,-7.434],[-40.468,-7.175],[-40.427,-7.125],[-40.379,-6.878],[-40.498,-6.75],[-40.678,-6.727],[-40.703,-6.627],[-40.756,-6.575],[-40.777,-6.38],[-40.82,-6.32],[-40.829,-6.137],[-40.885,-6.1],[-40.887,-5.83],[-40.944,-5.786],[-40.888,-5.683],[-40.935,-5.597],[-40.944,-5.427],[-40.889,-5.372],[-40.962,-5.236],[-41.23,-4.986],[-41.242,-4.808],[-41.177,-4.734],[-41.237,-4.647],[-41.178,-4.602],[-41.196,-4.478],[-41.148,-4.408],[-41.133,-4.173],[-41.248,-4.116],[-41.265,-3.971],[-41.314,-3.891],[-41.261,-3.855],[-41.261,-3.797],[-41.373,-3.768],[-41.375,-3.521],[-41.431,-3.365],[-41.367,-3.229],[-41.303,-3.215],[-41.257,-3.135],[-41.348,-3.039],[-41.332,-2.998],[-40.984,-3.007],[-40.868,-2.932],[-40.575,-2.945],[-40.516,-2.873],[-40.464,-2.879],[-40.447,-2.924],[-40.389,-2.878],[-40.247,-2.948],[-39.994,-2.95],[-39.893,-2.98],[-39.848,-3.041],[-39.777,-3.055],[-39.744,-3.121],[-39.625,-3.132],[-39.545,-3.237],[-39.442,-3.224],[-39.416,-3.271],[-39.354,-3.262],[-39.253,-3.309],[-39.163,-3.431],[-38.996,-3.501],[-38.847,-3.646],[-38.797,-3.642],[-38.788,-3.744],[-38.437,-3.792],[-38.42,-3.897],[-38.201,-4.067],[-38.033,-4.292],[-37.902,-4.398],[-37.79,-4.437],[-37.678,-4.617],[-37.581,-4.668],[-37.562,-4.716],[-37.358,-4.728],[-37.239,-4.871],[-37.246,-4.913],[-37.318,-4.946],[-37.456,-4.957],[-37.618,-5.029],[-37.712,-5.211]]]}},{"type":"Feature","properties":{"admin_code":"BR-DF","name":"Distrito Federal","name_local":"Distrito Federal"},"geometry":{"type":"Polygon","coordinates":[[[-47.436,-15.546],[-47.325,-15.611],[-47.33,-15.81],[-47.377,-15.858],[-47.395,-16.035],[-48.265,-16.034],[-48.247,-15.971],[-48.284,-15.885],[-48.191,-15.537],[-47.436,-15.546]]]}},{"type":"Feature","properties":{"admin_code":"BR-ES","name":"Espírito Santo","name_local":"Espírito Santo"},"geometry":{"type":"Polygon","coordinates":[[[-40.165,-17.984],[-39.936,-18.136],[-39.881,-18.216],[-39.639,-18.334],[-39.736,-18.518],[-39.696,-19.025],[-39.703,-19.347],[-39.817,-19.66],[-40.062,-19.781],[-40.43,-19.674],[-40.491,-19.688],[-40.098,-19.829],[-40.089,-19.984],[-40.14,-20.007],[-40.148,-20.113],[-40.215,-20.166],[-40.207,-20.208],[-40.384,-20.593],[-40.511,-20.666],[-40.57,-20.853],[-40.803,-20.934],[-40.845,-21.036],[-40.85,-21.158],[-40.938,-21.191],[-40.991,-21.287],[-41.086,-21.291],[-41.137,-21.241],[-41.17,-21.289],[-41.251,-21.293],[-41.291,-21.241],[-41.549,-21.238],[-41.623,-21.187],[-41.774,-21.181],[-41.786,-20.852],[-41.9,-20.817],[-41.878,-20.614],[-41.822,-20.566],[-41.827,-20.447],[-41.881,-20.413],[-41.877,-20.318],[-41.749,-20.201],[-41.38,-20.193],[-41.37,-20.044],[-41.201,-19.91],[-41.194,-19.695],[-41.086,-19.62],[-41.075,-19.507],[-40.968,-19.492],[-40.961,-19.35],[-40.91,-19.326],[-40.961,-19.285],[-40.968,-19.124],[-41.068,-19.066],[-41.092,-18.964],[-41.149,-18.909],[-41.258,-18.862],[-40.966,-18.829],[-40.942,-18.779],[-40.988,-18.644],[-41.056,-18.607],[-41.009,-18.501],[-41.172,-18.462],[-41.174,-18.311],[-41.125,-18.291],[-41.113,-18.215],[-41.028,-18.174],[-40.773,-18.141],[-40.782,-18.048],[-40.679,-18.016],[-40.598,-17.914],[-40.34,-17.913],[-40.309,-17.964],[-40.165,-17.984]]]}},{"type":"Feature","properties":{"admin_code":"BR-GO","name":"Goiás","name_local":"Goiás"},"geometry":{"type":"Polygon","coordinates":[[[-46.236,-12.992],[-46.204,-13.024],[-46.315,-13.062],[-46.299,-13.382],[-46.231,-13.306],[-46.076,-13.327],[-46.257,-13.45],[-46.245,-13.567],[-46.194,-13.615],[-46.245,-13.676],[-46.267,-13.804],[-46.248,-14.077],[-46.067,-14.277],[-45.9,-14.356],[-46.019,-14.466],[-46.02,-14.86],[-46.07,-14.887],[-46.084,-14.948],[-46.284,-14.947],[-46.318,-14.848],[-46.401,-14.797],[-46.416,-14.754],[-46.5,-14.747],[-46.542,-14.819],[-46.541,-15.069],[-46.74,-15.061],[-46.786,-15.009],[-46.871,-15.02],[-46.92,-15.061],[-46.932,-15.208],[-46.874,-15.268],[-46.884,-15.407],[-46.93,-15.449],[-46.934,-15.588],[-46.816,-15.809],[-46.827,-15.87],[-47.343,-16.059],[-47.348,-16.277],[-47.388,-16.373],[-47.438,-16.393],[-47.443,-16.545],[-47.248,-16.758],[-47.194,-17.032],[-47.437,-17.266],[-47.45,-17.366],[-47.561,-17.445],[-47.494,-17.533],[-47.375,-17.544],[-47.308,-17.61],[-47.308,-17.693],[-47.362,-17.722],[-47.405,-17.872],[-47.312,-18.109],[-47.393,-18.12],[-47.414,-18.166],[-47.549,-18.22],[-47.712,-18.366],[-47.797,-18.385],[-47.826,-18.437],[-47.951,-18.504],[-48.021,-18.498],[-48.039,-18.454],[-48.175,-18.445],[-48.204,-18.376],[-48.574,-18.374],[-48.614,-18.321],[-48.672,-18.374],[-48.825,-18.376],[-48.882,-18.322],[-48.973,-18.319],[-49.038,-18.386],[-49.05,-18.443],[-49.208,-18.46],[-49.423,-18.671],[-49.553,-18.506],[-49.58,-18.549],[-49.789,-18.624],[-49.824,-18.665],[-49.948,-18.669],[-50.029,-18.618],[-50.354,-18.736],[-50.397,-18.816],[-50.477,-18.871],[-50.558,-19.104],[-50.62,-19.179],[-50.749,-19.2],[-50.87,-19.348],[-50.88,-19.506],[-50.935,-19.521],[-50.97,-19.511],[-50.979,-19.419],[-51.044,-19.358],[-51.139,-19.35],[-51.17,-19.3],[-51.315,-19.295],[-51.337,-19.248],[-51.416,-19.236],[-51.438,-19.191],[-51.638,-19.187],[-51.909,-19.033],[-52.058,-19.011],[-52.204,-18.875],[-52.382,-18.846],[-52.53,-18.674],[-52.755,-18.724],[-52.958,-18.6],[-52.896,-18.486],[-52.804,-18.454],[-52.784,-18.343],[-52.97,-18.314],[-53.043,-18.366],[-53.108,-18.351],[-53.127,-18.15],[-53.068,-18.089],[-53.068,-18.011],[-53.135,-17.827],[-53.228,-17.723],[-53.245,-17.464],[-53.18,-17.398],[-53.233,-17.332],[-53.195,-17.304],[-53.162,-17.195],[-53.075,-17.113],[-53.039,-16.916],[-52.963,-16.895],[-52.796,-16.769],[-52.785,-16.692],[-52.736,-16.672],[-52.723,-16.61],[-52.603,-16.555],[-52.593,-16.457],[-52.666,-16.414],[-52.669,-16.281],[-52.568,-16.259],[-52.539,-16.167],[-52.325,-16.093],[-52.243,-15.903],[-52.146,-15.91],[-51.987,-15.866],[-51.846,-15.752],[-51.783,-15.632],[-51.779,-15.546],[-51.719,-15.545],[-51.712,-15.323],[-51.663,-15.303],[-51.643,-15.212],[-51.469,-15.044],[-51.342,-14.977],[-51.306,-15.044],[-51.17,-15.025],[-51.081,-14.902],[-51.094,-14.752],[-51.045,-14.712],[-50.972,-14.487],[-50.974,-14.445],[-51.03,-14.405],[-50.987,-14.372],[-50.965,-14.259],[-50.864,-14.093],[-50.849,-13.709],[-50.805,-13.663],[-50.786,-13.555],[-50.694,-13.487],[-50.615,-13.272],[-50.565,-13.233],[-50.623,-13.167],[-50.569,-13.072],[-50.56,-12.977],[-50.51,-12.938],[-50.505,-12.773],[-50.463,-12.672],[-50.281,-12.456],[-50.236,-12.466],[-50.234,-12.604],[-50.287,-12.635],[-50.293,-12.757],[-50.347,-12.787],[-50.344,-12.827],[-50.248,-12.836],[-50.218,-12.888],[-50.027,-12.913],[-49.603,-13.143],[-49.397,-13.291],[-49.364,-13.146],[-49.247,-12.926],[-49.134,-12.837],[-48.995,-12.941],[-48.821,-12.857],[-48.758,-13.013],[-48.644,-13.028],[-48.582,-13.088],[-48.567,-13.189],[-48.527,-13.191],[-48.484,-13.144],[-48.467,-13.267],[-48.316,-13.249],[-48.29,-13.199],[-48.204,-13.195],[-48.17,-13.307],[-47.813,-13.315],[-47.776,-13.392],[-47.702,-13.441],[-47.667,-13.412],[-47.666,-13.146],[-47.586,-13.134],[-47.473,-13.244],[-47.298,-13.257],[-47.249,-13.206],[-47.081,-13.172],[-46.742,-12.992],[-46.428,-12.979],[-46.394,-12.855],[-46.363,-12.967],[-46.236,-12.992]],[[-48.191,-15.537],[-48.284,-15.885],[-48.247,-15.971],[-48.265,-16.034],[-47.395,-16.035],[-47.377,-15.858],[-47.33,-15.81],[-47.325,-15.611],[-47.436,-15.546],[-48.191,-15.537]]]}},{"type":"Feature","properties":{"admin_code":"BR-MA","name":"Maranhão","name_local":"Maranhão"},"geometry":{"type":"Polygon","coordinates":[[[-48.449,-5.095],[-48.184,-4.976],[-47.879,-4.673],[-47.68,-4.655],[-47.507,-4.384],[-47.35,-4.235],[-47.401,-4.154],[-47.208,-3.99],[-47.182,-3.911],[-47.076,-3.855],[-47.06,-3.59],[-46.943,-3.43],[-46.859,-3.397],[-46.672,-3.045],[-46.659,-2.921],[-46.61,-2.865],[-46.671,-2.76],[-46.613,-2.708],[-46.522,-2.686],[-46.451,-2.605],[-46.444,-2.546],[-46.5,-2.43],[-46.396,-2.325],[-46.298,-2.098],[-46.253,-1.913],[-46.351,-1.884],[-46.359,-1.854],[-46.306,-1.805],[-46.22,-1.793],[-46.181,-1.701],[-46.171,-1.318],[-45.985,-1.228],[-45.945,-1.178],[-45.81,-1.221],[-45.764,-1.292],[-45.733,-1.286],[-45.716,-1.222],[-45.629,-1.247],[-45.606,-1.327],[-45.556,-1.367],[-45.518,-1.339],[-45.459,-1.417],[-45.468,-1.493],[-45.405,-1.559],[-45.355,-1.529],[-45.2,-1.564],[-45.169,-1.513],[-45.101,-1.564],[-44.974,-1.566],[-44.891,-1.527],[-44.821,-1.617],[-44.757,-1.631],[-44.712,-1.74],[-44.765,-1.849],[-44.667,-1.88],[-44.627,-1.947],[-44.557,-1.969],[-44.51,-2.121],[-44.464,-2.139],[-44.451,-2.319],[-44.401,-2.398],[-44.394,-2.526],[-44.354,-2.574],[-44.259,-2.574],[-44.243,-2.523],[-44.062,-2.51],[-43.993,-2.553],[-43.841,-2.478],[-43.832,-2.377],[-43.66,-2.307],[-43.557,-2.397],[-43.343,-2.39],[-43.202,-2.459],[-43.146,-2.55],[-42.727,-2.652],[-42.642,-2.732],[-42.516,-2.74],[-42.491,-2.811],[-42.311,-2.812],[-42.262,-2.755],[-42.153,-2.811],[-42.106,-2.755],[-42.057,-2.812],[-41.827,-2.838],[-41.88,-2.928],[-41.873,-3.007],[-41.825,-3.08],[-41.927,-3.176],[-42.005,-3.333],[-42.128,-3.346],[-42.179,-3.474],[-42.262,-3.53],[-42.538,-3.551],[-42.673,-3.752],[-42.747,-3.995],[-42.855,-4.087],[-42.929,-4.222],[-43.027,-4.289],[-43.033,-4.372],[-42.892,-4.516],[-42.906,-4.648],[-42.958,-4.734],[-42.953,-4.835],[-42.831,-5.172],[-42.854,-5.411],[-42.996,-5.508],[-43.027,-5.603],[-43.126,-5.665],[-43.108,-5.922],[-43.132,-5.982],[-43.081,-6.045],[-43.06,-6.161],[-42.882,-6.329],[-42.905,-6.637],[-43.022,-6.769],[-43.261,-6.785],[-43.316,-6.833],[-43.56,-6.836],[-43.647,-6.751],[-43.767,-6.737],[-44.07,-6.789],[-44.099,-6.883],[-44.174,-6.912],[-44.196,-7.02],[-44.578,-7.252],[-44.61,-7.371],[-44.852,-7.427],[-44.945,-7.508],[-45.128,-7.521],[-45.181,-7.565],[-45.319,-7.583],[-45.504,-7.754],[-45.515,-7.853],[-45.568,-7.884],[-45.574,-8.187],[-45.672,-8.239],[-45.805,-8.676],[-45.853,-8.767],[-45.953,-8.777],[-46.017,-8.951],[-46.011,-8.995],[-45.964,-9.013],[-45.957,-9.103],[-45.905,-9.185],[-45.897,-9.378],[-45.787,-9.481],[-45.833,-9.555],[-45.85,-9.977],[-45.927,-10.228],[-46.077,-10.192],[-46.17,-10.232],[-46.388,-10.175],[-46.459,-10.033],[-46.479,-9.867],[-46.571,-9.835],[-46.639,-9.758],[-46.644,-9.696],[-46.569,-9.597],[-46.592,-9.518],[-46.697,-9.402],[-46.806,-9.375],[-46.873,-9.288],[-46.819,-9.231],[-46.882,-9.171],[-47.111,-9.089],[-47.063,-9.044],[-47.027,-8.929],[-46.94,-8.857],[-46.934,-8.615],[-46.888,-8.58],[-46.809,-8.399],[-46.672,-8.381],[-46.532,-8.32],[-46.467,-7.993],[-46.563,-7.972],[-46.61,-7.927],[-46.727,-7.918],[-46.894,-7.971],[-46.986,-8.026],[-47.005,-8.072],[-47.045,-8.07],[-47.128,-7.936],[-47.263,-7.853],[-47.272,-7.758],[-47.323,-7.733],[-47.333,-7.619],[-47.394,-7.559],[-47.491,-7.53],[-47.513,-7.481],[-47.574,-7.467],[-47.508,-7.398],[-47.502,-7.296],[-47.595,-7.281],[-47.668,-7.336],[-47.695,-7.249],[-47.795,-7.191],[-47.636,-7.148],[-47.572,-7.053],[-47.509,-6.91],[-47.523,-6.849],[-47.492,-6.653],[-47.453,-6.601],[-47.434,-6.362],[-47.382,-6.277],[-47.434,-6.183],[-47.518,-5.505],[-47.668,-5.434],[-47.86,-5.403],[-47.969,-5.249],[-48.143,-5.291],[-48.383,-5.199],[-48.52,-5.187],[-48.449,-5.095]]]}},{"type":"Feature","properties":{"admin_code":"BR-MT","name":"Mato Grosso","name_local":"Mato Grosso"},"geometry":{"type":"Polygon","coordinates":[[[-58.401,-8.769],[-58.333,-8.671],[-58.401,-8.634],[-58.411,-8.446],[-58.297,-8.283],[-58.288,-7.967],[-58.34,-7.916],[-58.349,-7.786],[-58.177,-7.552],[-58.223,-7.469],[-58.163,-7.339],[-58.116,-7.309],[-58.037,-7.392],[-57.91,-7.653],[-57.83,-7.936],[-57.738,-8.054],[-57.722,-8.124],[-57.643,-8.186],[-57.672,-8.249],[-57.663,-8.448],[-57.612,-8.53],[-57.597,-8.695],[-57.487,-8.732],[-57.299,-8.875],[-57.189,-8.908],[-57.061,-9.06],[-57.029,-9.161],[-56.874,-9.181],[-56.731,-9.367],[-56.24,-9.359],[-56.166,-9.398],[-55.05,-9.468],[-54.783,-9.512],[-54.065,-9.533],[-53.169,-9.635],[-52.559,-9.649],[-51.742,-9.735],[-51.7,-9.769],[-51.623,-9.734],[-51.496,-9.756],[-51.476,-9.791],[-50.73,-9.801],[-50.241,-9.854],[-50.303,-10.024],[-50.397,-10.116],[-50.417,-10.302],[-50.514,-10.435],[-50.536,-10.564],[-50.595,-10.653],[-50.586,-10.758],[-50.634,-10.817],[-50.653,-11.113],[-50.691,-11.285],[-50.747,-11.347],[-50.732,-11.566],[-50.679,-11.632],[-50.743,-11.74],[-50.666,-11.891],[-50.688,-12.005],[-50.644,-12.307],[-50.681,-12.661],[-50.619,-12.824],[-50.51,-12.843],[-50.507,-12.928],[-50.56,-12.977],[-50.569,-13.072],[-50.623,-13.167],[-50.565,-13.233],[-50.615,-13.272],[-50.694,-13.487],[-50.786,-13.555],[-50.805,-13.663],[-50.849,-13.709],[-50.864,-14.093],[-50.965,-14.259],[-50.987,-14.372],[-51.03,-14.405],[-50.974,-14.445],[-50.972,-14.487],[-51.045,-14.712],[-51.094,-14.752],[-51.081,-14.902],[-51.17,-15.025],[-51.306,-15.044],[-51.342,-14.977],[-51.469,-15.044],[-51.643,-15.212],[-51.663,-15.303],[-51.712,-15.323],[-51.719,-15.545],[-51.779,-15.546],[-51.783,-15.632],[-51.846,-15.752],[-51.987,-15.866],[-52.146,-15.91],[-52.243,-15.903],[-52.325,-16.093],[-52.539,-16.167],[-52.568,-16.259],[-52.674,-16.288],[-52.666,-16.414],[-52.593,-16.457],[-52.603,-16.555],[-52.723,-16.61],[-52.736,-16.672],[-52.785,-16.692],[-52.796,-16.769],[-52.963,-16.895],[-53.039,-16.916],[-53.075,-17.113],[-53.162,-17.195],[-53.195,-17.304],[-53.234,-17.335],[-53.18,-17.398],[-53.245,-17.464],[-53.228,-17.723],[-53.132,-17.832],[-53.069,-18.072],[-53.386,-18.034],[-53.451,-17.967],[-53.506,-18.036],[-53.627,-18.045],[-53.662,-17.973],[-53.717,-18.03],[-53.797,-18.045],[-53.895,-17.925],[-53.992,-17.896],[-53.873,-17.687],[-53.716,-17.649],[-53.7,-17.268],[-53.726,-17.225],[-53.879,-17.42],[-54.025,-17.479],[-54.089,-17.62],[-54.282,-17.645],[-54.352,-17.708],[-54.4,-17.593],[-54.505,-17.465],[-54.744,-17.532],[-54.827,-17.638],[-55.22,-17.625],[-55.563,-17.456],[-55.661,-17.358],[-55.943,-17.292],[-56.039,-17.197],[-56.144,-17.182],[-56.425,-17.351],[-56.484,-17.322],[-56.533,-17.354],[-56.717,-17.342],[-56.846,-17.503],[-56.968,-17.586],[-56.996,-17.691],[-57.089,-17.785],[-57.275,-17.809],[-57.452,-17.91],[-57.652,-17.739],[-57.678,-17.63],[-57.732,-17.564],[-57.797,-17.57],[-57.864,-17.504],[-58.043,-17.519],[-58.185,-17.377],[-58.308,-17.362],[-58.315,-17.251],[-58.388,-17.172],[-58.394,-17.063],[-58.468,-17.005],[-58.466,-16.695],[-58.401,-16.617],[-58.402,-16.521],[-58.351,-16.489],[-58.352,-16.342],[-58.383,-16.303],[-58.451,-16.346],[-58.519,-16.308],[-58.844,-16.327],[-59.228,-16.275],[-59.445,-16.289],[-60.162,-16.242],[-60.211,-15.542],[-60.492,-15.175],[-60.517,-15.104],[-60.498,-15.069],[-60.273,-15.064],[-60.246,-14.957],[-60.303,-14.65],[-60.358,-14.582],[-60.364,-14.458],[-60.414,-14.402],[-60.41,-14.326],[-60.448,-14.298],[-60.492,-14.171],[-60.42,-13.953],[-60.524,-13.752],[-60.589,-13.759],[-60.672,-13.64],[-60.656,-13.565],[-60.404,-13.432],[-60.395,-13.319],[-60.344,-13.294],[-60.273,-13.058],[-60.178,-12.935],[-60.113,-12.922],[-60.06,-12.855],[-60.028,-12.555],[-59.957,-12.467],[-59.828,-12.439],[-59.776,-12.327],[-59.862,-12.227],[-59.882,-12.107],[-59.994,-11.871],[-60.107,-11.837],[-60.105,-11.551],[-59.951,-11.417],[-59.917,-11.301],[-60.007,-11.117],[-60.078,-11.048],[-60.126,-11.038],[-60.205,-11.096],[-60.247,-11.049],[-60.389,-11.035],[-60.484,-10.924],[-61.528,-10.914],[-61.53,-10.81],[-61.474,-10.751],[-61.48,-10.341],[-61.589,-10.214],[-61.591,-10.039],[-61.533,-9.983],[-61.528,-9.686],[-61.468,-9.558],[-61.59,-9.418],[-61.535,-9.348],[-61.581,-9.307],[-61.595,-9.226],[-61.543,-9.172],[-61.531,-8.983],[-61.475,-8.874],[-61.474,-8.824],[-61.528,-8.779],[-61.507,-8.752],[-58.401,-8.769]]]}},{"type":"Feature","properties":{"admin_code":"BR-MS","name":"Mato Grosso do Sul","name_local":"Mato Grosso do Sul"},"geometry":{"type":"Polygon","coordinates":[[[-57.724,-17.572],[-57.652,-17.739],[-57.442,-17.912],[-57.275,-17.809],[-57.089,-17.785],[-56.996,-17.691],[-56.968,-17.586],[-56.846,-17.503],[-56.717,-17.342],[-56.533,-17.354],[-56.484,-17.322],[-56.425,-17.351],[-56.126,-17.182],[-56.039,-17.197],[-55.953,-17.288],[-55.661,-17.358],[-55.563,-17.456],[-55.22,-17.625],[-54.827,-17.638],[-54.744,-17.532],[-54.505,-17.465],[-54.4,-17.593],[-54.352,-17.708],[-54.282,-17.645],[-54.089,-17.62],[-54.025,-17.479],[-53.879,-17.42],[-53.726,-17.225],[-53.7,-17.268],[-53.716,-17.649],[-53.873,-17.687],[-53.992,-17.896],[-53.895,-17.925],[-53.797,-18.045],[-53.717,-18.03],[-53.662,-17.973],[-53.627,-18.045],[-53.506,-18.036],[-53.451,-17.967],[-53.392,-18.033],[-53.073,-18.082],[-53.127,-18.15],[-53.103,-18.359],[-53.043,-18.366],[-52.993,-18.315],[-52.785,-18.339],[-52.804,-18.454],[-52.888,-18.479],[-52.963,-18.577],[-52.894,-18.659],[-52.739,-18.725],[-52.53,-18.674],[-52.382,-18.846],[-52.204,-18.875],[-52.058,-19.011],[-51.909,-19.033],[-51.638,-19.187],[-51.438,-19.191],[-51.416,-19.236],[-51.337,-19.248],[-51.315,-19.295],[-51.161,-19.303],[-51.139,-19.35],[-51.044,-19.358],[-50.979,-19.419],[-50.941,-19.624],[-51.042,-19.68],[-51.056,-20.128],[-51.104,-20.211],[-51.113,-20.313],[-51.233,-20.33],[-51.368,-20.408],[-51.469,-20.52],[-51.499,-20.602],[-51.658,-20.696],[-51.656,-20.982],[-51.754,-21.024],[-51.785,-21.113],[-51.88,-21.201],[-51.9,-21.376],[-51.962,-21.531],[-52.125,-21.568],[-52.071,-21.676],[-52.252,-21.913],[-52.323,-21.955],[-52.365,-22.1],[-52.534,-22.263],[-52.709,-22.342],[-52.885,-22.478],[-53.061,-22.548],[-53.205,-22.753],[-53.345,-22.763],[-53.425,-22.873],[-53.622,-22.96],[-53.709,-23.338],[-53.777,-23.358],[-53.872,-23.448],[-53.997,-23.481],[-54.109,-23.96],[-54.256,-24.08],[-54.38,-24.026],[-54.432,-23.946],[-54.58,-23.917],[-54.63,-23.857],[-54.66,-23.898],[-54.681,-23.854],[-54.726,-23.936],[-54.872,-23.932],[-54.904,-23.988],[-54.989,-24.028],[-55.186,-24.048],[-55.378,-24.024],[-55.442,-23.94],[-55.446,-23.705],[-55.497,-23.682],[-55.506,-23.576],[-55.559,-23.548],[-55.558,-23.455],[-55.501,-23.407],[-55.504,-23.347],[-55.561,-23.3],[-55.525,-23.238],[-55.627,-23.116],[-55.646,-22.956],[-55.695,-22.869],[-55.698,-22.813],[-55.645,-22.771],[-55.641,-22.664],[-55.744,-22.616],[-55.773,-22.477],[-55.86,-22.35],[-56.175,-22.341],[-56.253,-22.257],[-56.316,-22.283],[-56.326,-22.21],[-56.409,-22.133],[-56.487,-22.15],[-56.521,-22.221],[-56.6,-22.267],[-56.839,-22.326],[-56.986,-22.273],[-57.372,-22.269],[-57.521,-22.186],[-57.579,-22.195],[-57.585,-22.13],[-57.92,-22.126],[-57.996,-22.063],[-57.993,-22.026],[-57.944,-22.005],[-57.928,-21.903],[-57.96,-21.845],[-57.959,-21.476],[-57.83,-21.343],[-57.897,-21.303],[-57.845,-21.206],[-57.844,-21.0],[-57.858,-20.93],[-57.958,-20.843],[-57.997,-20.714],[-58.007,-20.444],[-58.061,-20.373],[-58.064,-20.265],[-58.109,-20.259],[-58.13,-20.174],[-58.071,-20.058],[-57.971,-20.048],[-57.904,-19.972],[-57.946,-19.91],[-58.085,-19.832],[-58.097,-19.725],[-57.945,-19.433],[-57.936,-19.345],[-57.886,-19.308],[-57.848,-19.159],[-57.778,-19.029],[-57.712,-18.998],[-57.762,-18.886],[-57.537,-18.181],[-57.72,-17.869],[-57.716,-17.844],[-57.674,-17.849],[-57.69,-17.813],[-57.801,-17.713],[-57.787,-17.569],[-57.724,-17.572]]]}},{"type":"Feature","properties":{"admin_code":"BR-MG","name":"Minas Gerais","name_local":"Minas Gerais"},"geometry":{"type":"Polygon","coordinates":[[[-40.296,-17.967],[-40.34,-17.913],[-40.598,-17.914],[-40.679,-18.016],[-40.782,-18.048],[-40.773,-18.141],[-41.028,-18.174],[-41.113,-18.215],[-41.125,-18.291],[-41.174,-18.311],[-41.172,-18.462],[-41.009,-18.501],[-41.056,-18.607],[-40.988,-18.644],[-40.942,-18.779],[-40.966,-18.829],[-41.258,-18.862],[-41.149,-18.909],[-41.092,-18.964],[-41.068,-19.066],[-40.968,-19.124],[-40.961,-19.285],[-40.91,-19.326],[-40.961,-19.35],[-40.968,-19.492],[-41.075,-19.507],[-41.086,-19.62],[-41.194,-19.695],[-41.201,-19.91],[-41.37,-20.044],[-41.38,-20.193],[-41.749,-20.201],[-41.877,-20.318],[-41.877,-20.426],[-41.824,-20.455],[-41.824,-20.582],[-41.878,-20.614],[-41.902,-20.821],[-41.954,-20.849],[-41.967,-20.904],[-42.028,-20.962],[-42.192,-20.979],[-42.161,-21.111],[-42.228,-21.193],[-42.237,-21.284],[-42.289,-21.308],[-42.309,-21.484],[-42.289,-21.562],[-42.403,-21.647],[-42.29,-21.69],[-42.304,-21.753],[-42.542,-21.832],[-42.598,-21.89],[-42.801,-21.939],[-42.958,-22.035],[-43.14,-22.096],[-43.164,-22.144],[-43.218,-22.142],[-43.217,-22.079],[-43.32,-22.038],[-43.426,-22.037],[-43.473,-22.087],[-43.828,-22.096],[-43.993,-22.153],[-44.057,-22.233],[-44.169,-22.238],[-44.204,-22.289],[-44.403,-22.293],[-44.442,-22.344],[-44.52,-22.292],[-44.608,-22.396],[-44.749,-22.402],[-44.959,-22.482],[-45.162,-22.499],[-45.235,-22.605],[-45.362,-22.663],[-45.706,-22.667],[-45.774,-22.618],[-45.809,-22.717],[-45.862,-22.765],[-45.79,-22.802],[-45.793,-22.844],[-46.159,-22.952],[-46.248,-22.905],[-46.345,-22.909],[-46.396,-22.953],[-46.42,-22.811],[-46.526,-22.766],[-46.463,-22.714],[-46.49,-22.565],[-46.669,-22.476],[-46.737,-22.408],[-46.737,-22.262],[-46.662,-22.192],[-46.739,-22.145],[-46.738,-22.069],[-46.682,-22.023],[-46.739,-21.874],[-46.668,-21.723],[-46.578,-21.66],[-46.567,-21.525],[-46.725,-21.425],[-46.912,-21.417],[-47.004,-21.49],[-47.07,-21.481],[-47.088,-21.434],[-47.04,-21.414],[-47.035,-21.38],[-47.137,-21.3],[-47.199,-21.182],[-47.217,-21.022],[-47.271,-20.921],[-47.233,-20.799],[-47.149,-20.715],[-47.136,-20.656],[-47.303,-20.465],[-47.289,-20.176],[-47.446,-20.099],[-47.504,-20.02],[-47.558,-19.997],[-47.674,-20.069],[-47.753,-20.018],[-47.791,-20.05],[-47.916,-20.054],[-47.955,-20.162],[-48.018,-20.089],[-48.073,-20.162],[-48.189,-20.16],[-48.233,-20.107],[-48.288,-20.162],[-48.606,-20.164],[-48.703,-20.211],[-48.784,-20.181],[-48.955,-20.286],[-48.908,-20.381],[-48.92,-20.453],[-48.969,-20.465],[-48.996,-20.432],[-49.024,-20.198],[-49.107,-20.167],[-49.185,-20.356],[-49.266,-20.323],[-49.34,-20.106],[-49.277,-20.012],[-49.333,-19.996],[-49.379,-20.048],[-49.545,-19.943],[-49.643,-19.931],[-49.682,-20.014],[-49.795,-19.968],[-49.924,-19.995],[-49.968,-19.931],[-50.367,-19.883],[-50.454,-19.819],[-50.574,-19.81],[-50.674,-19.912],[-50.784,-19.933],[-50.893,-20.024],[-51.006,-20.032],[-51.051,-20.003],[-51.041,-19.675],[-50.944,-19.633],[-50.95,-19.533],[-50.88,-19.506],[-50.87,-19.348],[-50.749,-19.2],[-50.613,-19.173],[-50.551,-19.09],[-50.477,-18.871],[-50.397,-18.816],[-50.354,-18.736],[-50.029,-18.618],[-49.948,-18.669],[-49.824,-18.665],[-49.789,-18.624],[-49.58,-18.549],[-49.553,-18.506],[-49.423,-18.671],[-49.208,-18.46],[-49.05,-18.443],[-49.038,-18.386],[-48.973,-18.319],[-48.882,-18.322],[-48.825,-18.376],[-48.672,-18.374],[-48.614,-18.321],[-48.574,-18.374],[-48.204,-18.376],[-48.175,-18.445],[-48.039,-18.454],[-48.021,-18.498],[-47.951,-18.504],[-47.826,-18.437],[-47.797,-18.385],[-47.712,-18.366],[-47.549,-18.22],[-47.414,-18.166],[-47.393,-18.12],[-47.312,-18.109],[-47.405,-17.872],[-47.362,-17.722],[-47.308,-17.693],[-47.308,-17.61],[-47.375,-17.544],[-47.494,-17.533],[-47.56,-17.435],[-47.447,-17.362],[-47.437,-17.266],[-47.377,-17.193],[-47.208,-17.065],[-47.191,-16.975],[-47.248,-16.758],[-47.439,-16.562],[-47.442,-16.402],[-47.388,-16.373],[-47.348,-16.277],[-47.339,-16.052],[-47.239,-16.041],[-47.218,-15.994],[-46.827,-15.87],[-46.816,-15.809],[-46.934,-15.582],[-46.93,-15.449],[-46.878,-15.368],[-46.875,-15.258],[-46.927,-15.223],[-46.939,-15.112],[-46.894,-15.036],[-46.786,-15.009],[-46.74,-15.061],[-46.541,-15.069],[-46.523,-14.761],[-46.424,-14.75],[-46.318,-14.848],[-46.284,-14.947],[-46.101,-14.953],[-46.063,-14.925],[-45.974,-14.967],[-45.985,-15.082],[-46.137,-15.183],[-46.12,-15.238],[-46.045,-15.233],[-45.943,-15.126],[-45.876,-15.181],[-45.742,-15.115],[-45.611,-14.965],[-45.35,-14.925],[-45.269,-14.792],[-45.195,-14.748],[-45.05,-14.741],[-44.973,-14.639],[-44.874,-14.627],[-44.762,-14.452],[-44.658,-14.44],[-44.551,-14.337],[-44.433,-14.329],[-44.398,-14.276],[-44.003,-14.277],[-43.794,-14.345],[-43.889,-14.651],[-43.843,-14.688],[-43.501,-14.785],[-43.341,-14.719],[-43.301,-14.669],[-43.104,-14.679],[-42.984,-14.743],[-42.915,-14.744],[-42.726,-14.862],[-42.68,-14.936],[-42.548,-14.963],[-42.289,-15.115],[-42.156,-15.11],[-42.027,-15.187],[-41.923,-15.172],[-41.866,-15.12],[-41.766,-15.138],[-41.365,-15.465],[-41.336,-15.52],[-41.321,-15.781],[-41.057,-15.78],[-41.035,-15.717],[-40.966,-15.725],[-40.918,-15.638],[-40.882,-15.635],[-40.842,-15.68],[-40.662,-15.693],[-40.539,-15.789],[-40.201,-15.813],[-40.108,-15.903],[-39.905,-15.984],[-39.842,-16.087],[-39.84,-16.179],[-39.909,-16.297],[-39.997,-16.325],[-40.132,-16.564],[-40.238,-16.561],[-40.302,-16.718],[-40.249,-16.867],[-40.491,-16.911],[-40.543,-17.272],[-40.597,-17.329],[-40.581,-17.417],[-40.507,-17.455],[-40.428,-17.599],[-40.333,-17.627],[-40.254,-17.738],[-40.207,-17.755],[-40.187,-17.899],[-40.296,-17.967]]]}},{"type":"Feature","properties":{"admin_code":"BR-PA","name":"Pará","name_local":"Pará"},"geometry":{"type":"Polygon","coordinates":[[[-58.607,1.271],[-58.55,1.351],[-58.539,1.472],[-58.419,1.483],[-58.348,1.608],[-58.006,1.537],[-57.973,1.628],[-57.874,1.639],[-57.798,1.706],[-57.67,1.676],[-57.624,1.711],[-57.526,1.695],[-57.41,1.898],[-57.346,1.913],[-57.347,1.957],[-57.27,1.996],[-57.098,1.956],[-57.055,1.897],[-56.937,1.903],[-56.92,1.855],[-56.837,1.853],[-56.767,1.907],[-56.587,1.907],[-56.342,1.887],[-56.112,1.792],[-55.984,1.793],[-55.937,1.856],[-55.937,1.982],[-56.023,2.014],[-56.036,2.075],[-56.179,2.172],[-56.12,2.276],[-56.002,2.348],[-55.983,2.447],[-55.893,2.452],[-55.769,2.399],[-55.768,2.343],[-55.689,2.336],[-55.643,2.412],[-55.406,2.396],[-55.356,2.47],[-55.127,2.476],[-55.083,2.528],[-55.02,2.532],[-54.945,2.45],[-54.801,2.14],[-54.862,2.012],[-54.808,1.905],[-54.786,1.726],[-54.363,1.699],[-54.253,1.585],[-54.18,1.569],[-54.106,1.452],[-53.971,1.427],[-53.868,1.324],[-53.784,1.324],[-53.752,1.355],[-53.639,1.318],[-53.602,1.192],[-53.46,1.144],[-53.461,1.09],[-53.514,1.031],[-53.443,0.871],[-53.157,0.617],[-53.168,0.524],[-53.217,0.484],[-53.217,0.308],[-53.163,0.273],[-53.156,0.143],[-53.048,0.063],[-52.992,-0.182],[-52.856,-0.215],[-52.815,-0.303],[-52.72,-0.338],[-52.727,-0.548],[-52.686,-0.62],[-52.613,-0.609],[-52.55,-0.64],[-52.53,-0.779],[-52.554,-0.884],[-52.467,-0.921],[-52.476,-1.081],[-52.332,-1.148],[-52.168,-1.165],[-52.127,-1.282],[-52.053,-1.197],[-51.866,-1.207],[-51.755,-1.11],[-51.725,-0.841],[-51.666,-0.794],[-51.583,-0.626],[-51.507,-0.59],[-51.292,-0.175],[-51.142,-0.147],[-50.987,-0.007],[-50.692,0.124],[-50.509,0.396],[-50.481,0.522],[-50.389,0.589],[-50.211,0.599],[-50.1,0.549],[-50.095,0.283],[-50.027,0.283],[-50.028,0.235],[-49.696,0.264],[-49.582,0.018],[-49.431,-0.018],[-49.389,-0.097],[-49.126,-0.205],[-49.047,-0.273],[-48.482,-0.302],[-48.447,-0.585],[-48.04,-0.74],[-47.905,-0.649],[-47.785,-0.653],[-47.744,-0.707],[-47.627,-0.672],[-47.573,-0.74],[-47.534,-0.708],[-47.453,-0.734],[-47.271,-0.708],[-47.218,-0.762],[-47.04,-0.792],[-47.029,-0.892],[-47.002,-0.903],[-46.926,-0.898],[-46.911,-0.814],[-46.859,-0.805],[-46.817,-0.842],[-46.692,-0.848],[-46.628,-0.978],[-46.571,-0.975],[-46.528,-0.923],[-46.458,-0.925],[-46.441,-1.032],[-46.317,-1.049],[-46.304,-1.109],[-46.243,-1.122],[-46.207,-1.169],[-46.175,-1.118],[-46.104,-1.158],[-46.044,-1.245],[-46.171,-1.318],[-46.181,-1.701],[-46.22,-1.793],[-46.306,-1.805],[-46.359,-1.854],[-46.351,-1.884],[-46.253,-1.913],[-46.298,-2.098],[-46.396,-2.325],[-46.5,-2.43],[-46.444,-2.546],[-46.451,-2.605],[-46.522,-2.686],[-46.613,-2.708],[-46.671,-2.76],[-46.61,-2.865],[-46.659,-2.921],[-46.672,-3.045],[-46.859,-3.397],[-46.943,-3.43],[-47.06,-3.59],[-47.076,-3.855],[-47.182,-3.911],[-47.208,-3.99],[-47.401,-4.154],[-47.35,-4.235],[-47.507,-4.384],[-47.68,-4.655],[-47.879,-4.673],[-48.184,-4.976],[-48.464,-5.104],[-48.767,-5.379],[-48.743,-5.413],[-48.535,-5.462],[-48.441,-5.418],[-48.387,-5.426],[-48.292,-5.579],[-48.171,-5.619],[-48.195,-5.753],[-48.305,-5.792],[-48.263,-5.955],[-48.362,-5.986],[-48.3,-6.063],[-48.303,-6.12],[-48.407,-6.177],[-48.432,-6.246],[-48.418,-6.356],[-48.526,-6.376],[-48.643,-6.491],[-48.658,-6.556],[-48.706,-6.576],[-48.681,-6.634],[-48.727,-6.693],[-48.824,-6.75],[-49.025,-6.772],[-49.215,-6.894],[-49.195,-7.255],[-49.381,-7.499],[-49.36,-7.676],[-49.135,-7.814],[-49.211,-8.182],[-49.269,-8.329],[-49.364,-8.421],[-49.444,-8.618],[-49.56,-8.792],[-49.626,-8.856],[-49.715,-8.885],[-49.864,-9.06],[-49.904,-9.156],[-50.044,-9.265],[-50.126,-9.426],[-50.121,-9.578],[-50.166,-9.622],[-50.239,-9.842],[-50.73,-9.801],[-51.476,-9.791],[-51.496,-9.756],[-51.623,-9.734],[-51.7,-9.769],[-51.742,-9.735],[-52.559,-9.649],[-53.169,-9.635],[-54.065,-9.533],[-54.783,-9.512],[-55.05,-9.468],[-56.166,-9.398],[-56.24,-9.359],[-56.731,-9.367],[-56.874,-9.181],[-57.029,-9.161],[-57.061,-9.06],[-57.189,-8.908],[-57.299,-8.875],[-57.487,-8.732],[-57.594,-8.699],[-57.612,-8.53],[-57.663,-8.448],[-57.672,-8.249],[-57.643,-8.186],[-57.722,-8.124],[-57.738,-8.054],[-57.83,-7.936],[-57.91,-7.653],[-58.032,-7.403],[-58.167,-7.256],[-58.188,-7.094],[-58.335,-6.941],[-58.406,-6.925],[-58.472,-6.662],[-58.32,-6.463],[-58.194,-6.357],[-57.924,-5.793],[-57.717,-5.236],[-57.421,-4.639],[-57.379,-4.487],[-56.433,-2.524],[-56.416,-2.452],[-56.453,-2.404],[-56.408,-2.292],[-56.216,-2.197],[-56.128,-2.03],[-56.252,-2.018],[-56.336,-2.148],[-56.569,-2.151],[-56.61,-2.187],[-56.701,-2.185],[-56.77,-2.128],[-56.718,-2.021],[-56.871,-2.006],[-57.049,-1.883],[-57.144,-1.743],[-57.249,-1.681],[-57.361,-1.715],[-57.587,-1.576],[-57.729,-1.555],[-57.875,-1.403],[-57.959,-1.372],[-57.998,-1.327],[-57.963,-1.11],[-58.059,-1.096],[-58.153,-1.215],[-58.243,-1.114],[-58.338,-1.084],[-58.399,-1.022],[-58.463,-0.892],[-58.455,-0.831],[-58.55,-0.786],[-58.759,-0.584],[-58.701,-0.505],[-58.77,-0.373],[-58.849,-0.327],[-58.878,1.178],[-58.607,1.271]]]}},{"type":"Feature","properties":{"admin_code":"BR-PB","name":"Paraíba","name_local":"Paraíba"},"geometry":{"type":"Polygon","coordinates":[[[-38.593,-7.512],[-38.594,-7.434],[-38.538,-7.405],[-38.522,-7.352],[-38.692,-7.067],[-38.706,-6.965],[-38.606,-6.838],[-38.644,-6.666],[-38.578,-6.538],[-38.528,-6.515],[-38.579,-6.478],[-38.577,-6.419],[-38.477,-6.415],[-38.459,-6.462],[-38.36,-6.474],[-38.334,-6.525],[-38.144,-6.531],[-38.086,-6.601],[-38.068,-6.55],[-38.006,-6.539],[-37.968,-6.474],[-37.849,-6.462],[-37.788,-6.4],[-37.734,-6.26],[-37.543,-6.253],[-37.239,-6.111],[-37.195,-6.062],[-37.127,-6.233],[-37.183,-6.27],[-37.212,-6.338],[-37.3,-6.367],[-37.329,-6.576],[-37.437,-6.638],[-37.415,-6.724],[-37.212,-6.753],[-37.156,-6.859],[-36.981,-6.787],[-36.939,-6.74],[-36.892,-6.819],[-36.737,-6.798],[-36.685,-6.868],[-36.662,-6.989],[-36.542,-6.943],[-36.461,-6.842],[-36.517,-6.795],[-36.509,-6.739],[-36.401,-6.627],[-36.461,-6.576],[-36.445,-6.428],[-36.307,-6.329],[-36.236,-6.347],[-36.197,-6.459],[-35.991,-6.478],[-35.91,-6.52],[-35.354,-6.531],[-35.269,-6.578],[-35.007,-6.591],[-34.889,-6.549],[-34.874,-6.706],[-34.809,-6.74],[-34.735,-6.87],[-34.737,-7.014],[-34.701,-7.055],[-34.71,-7.569],[-34.857,-7.56],[-34.894,-7.486],[-34.984,-7.431],[-35.2,-7.414],[-35.25,-7.466],[-35.388,-7.492],[-35.462,-7.608],[-35.425,-7.674],[-35.555,-7.699],[-35.602,-7.756],[-36.109,-7.814],[-36.173,-7.862],[-36.233,-7.806],[-36.503,-7.935],[-36.545,-8.001],[-36.575,-8.167],[-36.744,-8.225],[-36.917,-8.331],[-37.065,-8.205],[-37.095,-8.05],[-37.237,-7.948],[-37.164,-7.839],[-37.086,-7.792],[-37.078,-7.714],[-37.129,-7.672],[-37.141,-7.61],[-37.024,-7.574],[-36.961,-7.478],[-37.168,-7.308],[-37.256,-7.302],[-37.433,-7.49],[-37.747,-7.641],[-37.896,-7.814],[-38.154,-7.826],[-38.188,-7.88],[-38.295,-7.691],[-38.346,-7.757],[-38.488,-7.803],[-38.576,-7.76],[-38.591,-7.697],[-38.696,-7.609],[-38.593,-7.512]]]}},{"type":"Feature","properties":{"admin_code":"BR-PR","name":"Paraná","name_local":"Paraná"},"geometry":{"type":"Polygon","coordinates":[[[-54.256,-24.08],[-54.111,-23.964],[-53.997,-23.481],[-53.872,-23.448],[-53.777,-23.358],[-53.709,-23.338],[-53.622,-22.96],[-53.425,-22.873],[-53.345,-22.763],[-53.209,-22.755],[-53.147,-22.662],[-53.062,-22.658],[-53.02,-22.608],[-52.829,-22.609],[-52.778,-22.673],[-52.682,-22.658],[-52.621,-22.613],[-52.541,-22.674],[-52.222,-22.664],[-52.178,-22.656],[-52.135,-22.557],[-51.708,-22.709],[-51.699,-22.737],[-51.523,-22.713],[-51.482,-22.672],[-51.441,-22.714],[-51.119,-22.786],[-51.061,-22.828],[-50.945,-22.834],[-50.828,-22.918],[-50.793,-23.029],[-50.67,-22.962],[-50.295,-22.965],[-50.248,-23.029],[-50.186,-22.964],[-50.052,-22.959],[-49.935,-23.042],[-49.907,-23.123],[-49.787,-23.144],[-49.721,-23.22],[-49.651,-23.485],[-49.706,-23.555],[-49.658,-23.604],[-49.595,-23.839],[-49.645,-23.926],[-49.453,-24.164],[-49.369,-24.198],[-49.415,-24.26],[-49.331,-24.321],[-49.292,-24.396],[-49.375,-24.711],[-48.646,-24.736],[-48.573,-24.838],[-48.632,-24.883],[-48.627,-25.125],[-48.523,-25.125],[-48.497,-25.025],[-48.438,-25.076],[-48.291,-25.064],[-48.235,-25.294],[-48.129,-25.334],[-48.249,-25.495],[-48.336,-25.545],[-48.364,-25.669],[-48.447,-25.681],[-48.511,-25.739],[-48.577,-25.909],[-48.629,-25.948],[-48.637,-26.036],[-48.701,-26.073],[-48.775,-26.047],[-49.038,-26.051],[-49.135,-26.1],[-49.176,-26.054],[-49.238,-26.044],[-49.332,-26.142],[-49.571,-26.249],[-49.688,-26.26],[-49.93,-26.106],[-50.178,-26.093],[-50.242,-26.132],[-50.349,-26.097],[-50.424,-26.151],[-50.47,-26.108],[-50.625,-26.099],[-50.708,-26.162],[-50.746,-26.241],[-50.918,-26.308],[-51.039,-26.276],[-51.106,-26.338],[-51.228,-26.347],[-51.322,-26.445],[-51.287,-26.624],[-51.351,-26.727],[-51.511,-26.724],[-51.531,-26.662],[-51.654,-26.648],[-51.704,-26.602],[-51.971,-26.639],[-52.25,-26.493],[-52.489,-26.476],[-52.537,-26.435],[-52.678,-26.429],[-52.794,-26.376],[-53.117,-26.433],[-53.262,-26.332],[-53.329,-26.319],[-53.343,-26.283],[-53.406,-26.28],[-53.442,-26.326],[-53.502,-26.297],[-53.521,-26.337],[-53.547,-26.293],[-53.68,-26.303],[-53.68,-26.222],[-53.775,-26.199],[-53.772,-26.14],[-53.85,-26.076],[-53.881,-25.943],[-53.83,-25.914],[-53.879,-25.892],[-53.891,-25.716],[-54.009,-25.707],[-54.037,-25.661],[-54.21,-25.641],[-54.337,-25.644],[-54.382,-25.708],[-54.466,-25.711],[-54.498,-25.664],[-54.62,-25.615],[-54.621,-25.409],[-54.493,-25.319],[-54.505,-25.237],[-54.468,-25.144],[-54.501,-25.066],[-54.452,-24.999],[-54.415,-24.822],[-54.334,-24.694],[-54.329,-24.546],[-54.301,-24.504],[-54.328,-24.45],[-54.277,-24.412],[-54.256,-24.322],[-54.324,-24.251],[-54.342,-24.087],[-54.256,-24.08]]]}},{"type":"Feature","properties":{"admin_code":"BR-PE","name":"Pernambuco","name_local":"Pernambuco"},"geometry":{"type":"Polygon","coordinates":[[[-39.273,-7.58],[-39.26,-7.683],[-39.156,-7.696],[-39.006,-7.879],[-38.95,-7.882],[-38.811,-7.696],[-38.715,-7.687],[-38.671,-7.631],[-38.591,-7.697],[-38.576,-7.76],[-38.488,-7.803],[-38.346,-7.757],[-38.295,-7.691],[-38.195,-7.881],[-38.154,-7.826],[-37.896,-7.814],[-37.747,-7.641],[-37.433,-7.49],[-37.256,-7.302],[-37.168,-7.308],[-36.961,-7.478],[-37.024,-7.574],[-37.141,-7.61],[-37.129,-7.672],[-37.078,-7.714],[-37.086,-7.792],[-37.164,-7.839],[-37.237,-7.948],[-37.095,-8.05],[-37.065,-8.205],[-36.928,-8.331],[-36.575,-8.167],[-36.545,-8.001],[-36.503,-7.935],[-36.233,-7.806],[-36.173,-7.862],[-36.109,-7.814],[-35.602,-7.756],[-35.555,-7.699],[-35.425,-7.674],[-35.462,-7.608],[-35.388,-7.492],[-35.25,-7.466],[-35.194,-7.412],[-34.984,-7.431],[-34.894,-7.486],[-34.857,-7.56],[-34.688,-7.595],[-34.682,-7.689],[-34.735,-7.737],[-34.735,-7.828],[-34.671,-7.908],[-34.657,-7.982],[-34.717,-8.032],[-34.898,-8.68],[-34.967,-8.717],[-35.039,-8.88],[-35.37,-8.86],[-35.439,-8.809],[-35.592,-8.924],[-35.665,-8.921],[-35.691,-8.87],[-35.836,-8.87],[-35.862,-8.921],[-36.021,-8.931],[-36.031,-9.069],[-36.198,-9.134],[-36.147,-9.201],[-36.33,-9.212],[-36.51,-9.326],[-36.571,-9.331],[-36.624,-9.271],[-36.72,-9.305],[-36.803,-9.272],[-36.869,-9.381],[-36.918,-9.382],[-37.019,-9.281],[-37.183,-9.246],[-37.269,-9.13],[-37.402,-9.074],[-37.429,-9.011],[-37.636,-8.998],[-37.735,-8.886],[-37.759,-8.896],[-37.768,-8.991],[-37.817,-9.012],[-37.882,-9.153],[-38.024,-9.189],[-38.109,-9.318],[-38.166,-9.343],[-38.272,-9.134],[-38.251,-9.031],[-38.432,-9.043],[-38.431,-8.892],[-38.467,-8.829],[-38.541,-8.865],[-38.601,-9.004],[-38.65,-8.891],[-38.75,-8.841],[-38.924,-8.817],[-39.17,-8.702],[-39.341,-8.57],[-39.507,-8.654],[-39.659,-8.673],[-39.695,-8.817],[-39.877,-8.843],[-39.846,-9.013],[-40.08,-9.121],[-40.23,-9.068],[-40.247,-9.229],[-40.318,-9.396],[-40.493,-9.454],[-40.545,-9.508],[-40.689,-9.487],[-40.652,-9.214],[-40.796,-9.101],[-40.811,-8.976],[-40.878,-8.89],[-40.94,-8.83],[-41.087,-8.814],[-41.117,-8.714],[-41.317,-8.768],[-41.322,-8.704],[-41.142,-8.569],[-41.06,-8.548],[-41.027,-8.423],[-40.888,-8.431],[-40.597,-8.14],[-40.531,-8.003],[-40.538,-7.868],[-40.547,-7.837],[-40.644,-7.804],[-40.659,-7.618],[-40.694,-7.56],[-40.667,-7.494],[-40.491,-7.438],[-40.267,-7.444],[-40.225,-7.496],[-40.174,-7.496],[-39.907,-7.378],[-39.611,-7.383],[-39.273,-7.58]]]}},{"type":"Feature","properties":{"admin_code":"BR-PI","name":"Piauí","name_local":"Piauí"},"geometry":{"type":"Polygon","coordinates":[[[-45.892,-10.055],[-45.85,-9.977],[-45.833,-9.555],[-45.787,-9.481],[-45.897,-9.378],[-45.905,-9.185],[-45.957,-9.103],[-45.964,-9.013],[-46.011,-8.995],[-46.017,-8.951],[-45.953,-8.777],[-45.853,-8.767],[-45.805,-8.676],[-45.672,-8.239],[-45.574,-8.187],[-45.568,-7.884],[-45.515,-7.853],[-45.504,-7.754],[-45.319,-7.583],[-45.181,-7.565],[-45.128,-7.521],[-44.945,-7.508],[-44.852,-7.427],[-44.61,-7.371],[-44.578,-7.252],[-44.196,-7.02],[-44.174,-6.912],[-44.099,-6.883],[-44.07,-6.789],[-43.767,-6.737],[-43.647,-6.751],[-43.56,-6.836],[-43.334,-6.834],[-43.261,-6.785],[-43.032,-6.773],[-42.965,-6.731],[-42.901,-6.62],[-42.878,-6.343],[-43.06,-6.161],[-43.081,-6.045],[-43.128,-5.998],[-43.108,-5.922],[-43.134,-5.83],[-43.107,-5.774],[-43.13,-5.684],[-43.027,-5.603],[-42.996,-5.508],[-42.854,-5.411],[-42.831,-5.172],[-42.953,-4.835],[-42.958,-4.734],[-42.906,-4.648],[-42.892,-4.516],[-43.033,-4.372],[-43.02,-4.267],[-42.929,-4.222],[-42.855,-4.087],[-42.747,-3.995],[-42.673,-3.752],[-42.538,-3.551],[-42.262,-3.53],[-42.179,-3.474],[-42.128,-3.346],[-42.005,-3.333],[-41.927,-3.176],[-41.823,-3.075],[-41.873,-3.007],[-41.871,-2.896],[-41.775,-2.86],[-41.599,-3.005],[-41.376,-2.997],[-41.257,-3.135],[-41.303,-3.215],[-41.367,-3.229],[-41.431,-3.365],[-41.375,-3.521],[-41.373,-3.768],[-41.261,-3.797],[-41.261,-3.855],[-41.314,-3.891],[-41.265,-3.971],[-41.248,-4.116],[-41.133,-4.173],[-41.148,-4.408],[-41.196,-4.478],[-41.178,-4.602],[-41.237,-4.647],[-41.177,-4.734],[-41.242,-4.808],[-41.23,-4.986],[-40.962,-5.236],[-40.889,-5.372],[-40.944,-5.427],[-40.935,-5.597],[-40.888,-5.683],[-40.944,-5.786],[-40.887,-5.83],[-40.885,-6.1],[-40.829,-6.137],[-40.82,-6.32],[-40.777,-6.38],[-40.756,-6.575],[-40.703,-6.627],[-40.678,-6.727],[-40.498,-6.75],[-40.379,-6.878],[-40.427,-7.125],[-40.468,-7.175],[-40.489,-7.369],[-40.521,-7.432],[-40.667,-7.494],[-40.693,-7.549],[-40.658,-7.624],[-40.644,-7.804],[-40.539,-7.862],[-40.531,-8.003],[-40.597,-8.14],[-40.888,-8.431],[-41.027,-8.423],[-41.053,-8.541],[-41.142,-8.569],[-41.307,-8.688],[-41.382,-8.821],[-41.484,-8.893],[-41.5,-9.025],[-41.709,-9.069],[-41.843,-9.28],[-42.212,-9.299],[-42.392,-9.416],[-42.453,-9.497],[-42.7,-9.549],[-42.756,-9.62],[-42.925,-9.576],[-42.958,-9.454],[-43.106,-9.404],[-43.239,-9.448],[-43.371,-9.393],[-43.471,-9.291],[-43.688,-9.432],[-43.779,-9.459],[-43.85,-9.626],[-43.786,-9.784],[-43.678,-9.867],[-43.683,-10.054],[-43.781,-10.092],[-43.801,-10.232],[-43.896,-10.415],[-44.002,-10.432],[-44.017,-10.506],[-44.138,-10.654],[-44.277,-10.65],[-44.327,-10.598],[-44.416,-10.65],[-44.574,-10.662],[-44.613,-10.729],[-44.705,-10.801],[-44.798,-10.82],[-44.874,-10.919],[-45.018,-10.919],[-45.057,-10.875],[-45.208,-10.855],[-45.291,-10.76],[-45.383,-10.741],[-45.403,-10.67],[-45.455,-10.629],[-45.426,-10.465],[-45.459,-10.367],[-45.563,-10.233],[-45.581,-10.139],[-45.652,-10.144],[-45.689,-10.225],[-45.806,-10.292],[-45.913,-10.216],[-45.892,-10.055]]]}},{"type":"Feature","properties":{"admin_code":"BR-RJ","name":"Rio de Janeiro","name_local":"Rio de Janeiro"},"geometry":{"type":"Polygon","coordinates":[[[-44.604,-22.394],[-44.52,-22.292],[-44.442,-22.344],[-44.403,-22.293],[-44.195,-22.286],[-44.169,-22.238],[-44.057,-22.233],[-43.993,-22.153],[-43.828,-22.096],[-43.473,-22.087],[-43.426,-22.037],[-43.32,-22.038],[-43.217,-22.079],[-43.218,-22.142],[-43.164,-22.144],[-43.14,-22.096],[-42.958,-22.035],[-42.801,-21.939],[-42.598,-21.89],[-42.542,-21.832],[-42.308,-21.756],[-42.29,-21.69],[-42.403,-21.647],[-42.289,-21.562],[-42.309,-21.484],[-42.289,-21.308],[-42.237,-21.284],[-42.228,-21.193],[-42.161,-21.111],[-42.192,-20.979],[-42.028,-20.962],[-41.944,-20.841],[-41.786,-20.852],[-41.774,-21.181],[-41.623,-21.187],[-41.549,-21.238],[-41.291,-21.241],[-41.245,-21.294],[-41.17,-21.289],[-41.133,-21.241],[-41.09,-21.29],[-40.994,-21.297],[-40.967,-21.339],[-40.969,-21.397],[-41.082,-21.534],[-41.076,-21.593],[-41.026,-21.617],[-41.042,-21.893],[-40.991,-21.992],[-41.106,-22.122],[-41.247,-22.149],[-41.321,-22.213],[-41.419,-22.221],[-41.457,-22.261],[-41.602,-22.277],[-41.816,-22.387],[-41.886,-22.485],[-41.952,-22.513],[-41.967,-22.572],[-42.032,-22.605],[-42.007,-22.744],[-41.945,-22.807],[-42.052,-22.894],[-42.089,-23.027],[-42.252,-22.977],[-42.65,-22.974],[-42.691,-23.024],[-42.78,-23.045],[-43.233,-23.049],[-43.263,-23.134],[-43.391,-23.088],[-43.827,-23.083],[-43.884,-23.132],[-44.073,-23.121],[-44.17,-23.191],[-44.251,-23.186],[-44.273,-23.141],[-44.374,-23.102],[-44.691,-23.083],[-44.746,-23.144],[-44.748,-23.233],[-44.702,-23.274],[-44.634,-23.269],[-44.614,-23.333],[-44.679,-23.435],[-44.757,-23.411],[-44.813,-23.439],[-44.878,-23.295],[-44.925,-23.26],[-44.877,-23.176],[-44.853,-23.04],[-44.771,-22.968],[-44.577,-22.904],[-44.315,-22.901],[-44.298,-22.791],[-44.242,-22.748],[-44.249,-22.675],[-44.393,-22.618],[-44.51,-22.662],[-44.691,-22.671],[-44.787,-22.421],[-44.604,-22.394]]]}},{"type":"Feature","properties":{"admin_code":"BR-RN","name":"Rio Grande do Norte","name_local":"Rio Grande do Norte"},"geometry":{"type":"Polygon","coordinates":[[[-38.244,-6.069],[-38.083,-5.945],[-38.072,-5.741],[-37.969,-5.688],[-37.951,-5.642],[-37.846,-5.566],[-37.839,-5.434],[-37.736,-5.346],[-37.712,-5.211],[-37.612,-5.021],[-37.456,-4.957],[-37.329,-4.95],[-37.218,-4.883],[-37.167,-4.899],[-37.098,-4.985],[-36.845,-5.007],[-36.759,-5.109],[-36.345,-5.111],[-36.305,-5.166],[-36.135,-5.169],[-36.052,-5.118],[-35.748,-5.103],[-35.662,-5.166],[-35.51,-5.174],[-35.493,-5.219],[-35.43,-5.234],[-35.415,-5.278],[-35.312,-5.35],[-35.133,-5.624],[-35.127,-5.873],[-35.064,-5.997],[-35.0,-6.027],[-35.01,-6.242],[-34.92,-6.325],[-34.876,-6.524],[-34.989,-6.591],[-35.264,-6.579],[-35.354,-6.531],[-35.91,-6.52],[-35.991,-6.478],[-36.197,-6.459],[-36.236,-6.347],[-36.335,-6.331],[-36.449,-6.439],[-36.461,-6.576],[-36.401,-6.627],[-36.488,-6.703],[-36.518,-6.785],[-36.461,-6.842],[-36.533,-6.937],[-36.654,-6.991],[-36.685,-6.868],[-36.748,-6.789],[-36.892,-6.819],[-36.943,-6.741],[-36.981,-6.787],[-37.156,-6.859],[-37.212,-6.753],[-37.418,-6.721],[-37.436,-6.628],[-37.329,-6.576],[-37.3,-6.367],[-37.212,-6.338],[-37.183,-6.27],[-37.127,-6.233],[-37.183,-6.064],[-37.543,-6.253],[-37.734,-6.26],[-37.788,-6.4],[-37.849,-6.462],[-37.968,-6.474],[-38.098,-6.603],[-38.144,-6.531],[-38.334,-6.525],[-38.36,-6.474],[-38.456,-6.465],[-38.522,-6.396],[-38.513,-6.312],[-38.401,-6.146],[-38.283,-6.14],[-38.244,-6.069]]]}},{"type":"Feature","properties":{"admin_code":"BR-RS","name":"Rio Grande do Sul","name_local":"Rio Grande do Sul"},"geometry":{"type":"Polygon","coordinates":[[[-49.768,-29.42],[-49.817,-29.434],[-49.933,-29.618],[-49.993,-29.656],[-50.003,-29.761],[-50.062,-29.863],[-50.114,-29.884],[-50.104,-29.977],[-50.258,-30.169],[-50.315,-30.469],[-50.362,-30.473],[-50.397,-30.543],[-50.463,-30.571],[-50.53,-30.789],[-50.624,-30.884],[-50.686,-31.023],[-50.767,-31.066],[-50.828,-31.211],[-50.912,-31.257],[-50.941,-31.327],[-51.078,-31.444],[-51.222,-31.488],[-51.252,-31.574],[-51.352,-31.675],[-51.468,-31.76],[-51.558,-31.774],[-51.746,-31.893],[-51.834,-31.914],[-52.12,-32.151],[-52.128,-32.22],[-52.194,-32.232],[-52.292,-32.31],[-52.436,-32.603],[-52.44,-32.775],[-52.496,-32.858],[-52.483,-32.929],[-52.568,-33.02],[-52.573,-33.081],[-52.637,-33.129],[-52.717,-33.29],[-52.952,-33.468],[-53.012,-33.474],[-53.205,-33.647],[-53.303,-33.682],[-53.326,-33.734],[-53.424,-33.73],[-53.489,-33.645],[-53.51,-33.13],[-53.464,-33.036],[-53.266,-32.963],[-53.29,-32.875],[-53.174,-32.84],[-53.128,-32.769],[-53.167,-32.695],[-53.403,-32.613],[-53.485,-32.52],[-53.579,-32.493],[-53.574,-32.437],[-53.644,-32.401],[-53.719,-32.207],[-53.709,-32.141],[-53.753,-32.098],[-53.853,-32.091],[-53.999,-31.921],[-54.104,-31.913],[-54.126,-31.851],[-54.387,-31.725],[-54.474,-31.538],[-54.574,-31.529],[-54.579,-31.495],[-54.67,-31.453],[-54.83,-31.427],[-54.934,-31.367],[-55.006,-31.376],[-55.083,-31.303],[-55.183,-31.293],[-55.197,-31.224],[-55.281,-31.144],[-55.292,-31.091],[-55.416,-31.025],[-55.434,-30.968],[-55.643,-30.967],[-55.665,-31.025],[-55.761,-31.077],[-55.948,-31.11],[-55.98,-30.772],[-56.233,-30.528],[-56.353,-30.476],[-56.367,-30.417],[-56.49,-30.371],[-56.521,-30.253],[-56.587,-30.253],[-56.6,-30.201],[-56.663,-30.162],[-56.779,-30.154],[-56.807,-30.092],[-56.963,-30.106],[-57.056,-30.181],[-57.07,-30.253],[-57.237,-30.307],[-57.405,-30.27],[-57.491,-30.211],[-57.449,-30.093],[-57.34,-30.015],[-57.248,-29.992],[-57.226,-29.831],[-57.141,-29.764],[-57.006,-29.716],[-56.838,-29.522],[-56.699,-29.424],[-56.688,-29.337],[-56.588,-29.277],[-56.529,-29.113],[-56.424,-29.102],[-56.383,-29.055],[-56.373,-28.959],[-56.269,-28.947],[-56.258,-28.79],[-56.172,-28.776],[-55.997,-28.609],[-55.985,-28.499],[-55.876,-28.467],[-55.886,-28.36],[-55.705,-28.349],[-55.753,-28.244],[-55.586,-28.21],[-55.593,-28.084],[-55.548,-28.084],[-55.492,-28.179],[-55.477,-28.101],[-55.39,-28.053],[-55.375,-27.979],[-55.095,-27.863],[-54.968,-27.74],[-54.904,-27.728],[-54.892,-27.64],[-54.841,-27.617],[-54.832,-27.532],[-54.634,-27.522],[-54.616,-27.481],[-54.55,-27.465],[-54.535,-27.391],[-54.444,-27.39],[-54.292,-27.456],[-54.2,-27.367],[-54.191,-27.278],[-54.14,-27.234],[-54.054,-27.263],[-54.008,-27.201],[-53.796,-27.163],[-53.74,-27.196],[-53.486,-27.195],[-53.395,-27.11],[-53.292,-27.192],[-53.136,-27.165],[-53.015,-27.2],[-52.996,-27.246],[-52.826,-27.261],[-52.726,-27.336],[-52.661,-27.284],[-52.478,-27.285],[-52.415,-27.337],[-52.351,-27.332],[-52.321,-27.285],[-52.244,-27.285],[-52.213,-27.331],[-51.996,-27.411],[-51.96,-27.558],[-51.868,-27.559],[-51.824,-27.509],[-51.779,-27.558],[-51.634,-27.563],[-51.608,-27.609],[-51.525,-27.618],[-51.475,-27.676],[-51.394,-27.699],[-51.335,-27.799],[-51.243,-27.805],[-51.217,-27.85],[-51.137,-27.86],[-51.124,-27.97],[-50.962,-28.016],[-50.951,-28.138],[-50.734,-28.313],[-50.7,-28.387],[-50.618,-28.417],[-50.594,-28.488],[-50.2,-28.491],[-50.145,-28.542],[-50.105,-28.495],[-50.03,-28.491],[-49.966,-28.54],[-49.791,-28.548],[-49.771,-28.674],[-49.871,-28.683],[-49.904,-28.759],[-49.995,-28.774],[-50.002,-29.094],[-50.055,-29.12],[-50.059,-29.23],[-50.223,-29.246],[-50.234,-29.296],[-50.194,-29.327],[-50.149,-29.282],[-50.007,-29.263],[-49.788,-29.378],[-49.768,-29.42]]]}},{"type":"Feature","properties":{"admin_code":"BR-RO","name":"Rondônia","name_local":"Rondônia"},"geometry":{"type":"Polygon","coordinates":[[[-66.681,-9.664],[-66.486,-9.588],[-66.334,-9.399],[-66.047,-9.379],[-66.002,-9.311],[-65.762,-9.542],[-65.646,-9.384],[-65.535,-9.396],[-65.483,-9.449],[-65.378,-9.432],[-65.437,-9.364],[-65.427,-9.294],[-65.27,-9.212],[-65.192,-9.231],[-65.167,-9.386],[-65.086,-9.38],[-64.949,-9.252],[-64.944,-9.062],[-64.824,-8.95],[-64.741,-9.002],[-64.686,-8.948],[-64.617,-9.004],[-64.53,-8.931],[-64.423,-8.939],[-64.366,-8.869],[-64.269,-8.942],[-64.151,-8.916],[-64.134,-8.694],[-63.916,-8.509],[-63.916,-8.473],[-63.969,-8.441],[-63.902,-8.408],[-63.873,-8.258],[-63.826,-8.254],[-63.797,-8.306],[-63.745,-8.294],[-63.624,-7.9],[-62.856,-7.913],[-62.677,-8.031],[-62.653,-8.175],[-62.534,-8.294],[-62.375,-8.325],[-62.298,-8.595],[-62.234,-8.519],[-62.171,-8.533],[-62.13,-8.737],[-61.928,-8.809],[-61.748,-8.636],[-61.712,-8.633],[-61.472,-8.829],[-61.531,-8.983],[-61.543,-9.172],[-61.595,-9.226],[-61.581,-9.307],[-61.535,-9.348],[-61.59,-9.418],[-61.468,-9.558],[-61.528,-9.686],[-61.533,-9.983],[-61.591,-10.039],[-61.589,-10.214],[-61.48,-10.341],[-61.474,-10.751],[-61.53,-10.81],[-61.528,-10.914],[-60.484,-10.924],[-60.389,-11.035],[-60.247,-11.049],[-60.205,-11.096],[-60.126,-11.038],[-60.068,-11.055],[-60.001,-11.126],[-59.918,-11.312],[-59.951,-11.417],[-60.105,-11.551],[-60.105,-11.847],[-59.994,-11.871],[-59.882,-12.107],[-59.862,-12.227],[-59.776,-12.327],[-59.828,-12.439],[-59.957,-12.467],[-60.028,-12.555],[-60.06,-12.855],[-60.113,-12.922],[-60.178,-12.935],[-60.273,-13.058],[-60.344,-13.294],[-60.395,-13.319],[-60.404,-13.432],[-60.659,-13.568],[-60.68,-13.682],[-60.762,-13.683],[-60.778,-13.616],[-60.901,-13.606],[-60.917,-13.504],[-61.857,-13.511],[-61.888,-13.432],[-61.95,-13.416],[-62.007,-13.315],[-62.103,-13.282],[-62.2,-13.124],[-62.37,-13.116],[-62.618,-13.008],[-62.79,-12.981],[-62.81,-12.914],[-63.021,-12.82],[-63.103,-12.685],[-63.363,-12.67],[-63.445,-12.584],[-63.527,-12.553],[-63.551,-12.495],[-63.631,-12.459],[-63.842,-12.421],[-63.864,-12.467],[-63.903,-12.472],[-64.107,-12.47],[-64.182,-12.434],[-64.335,-12.447],[-64.49,-12.336],[-64.504,-12.215],[-64.668,-12.194],[-64.782,-12.132],[-64.898,-11.958],[-65.038,-11.932],[-65.082,-11.822],[-65.072,-11.693],[-65.117,-11.699],[-65.13,-11.775],[-65.222,-11.693],[-65.242,-11.496],[-65.35,-11.297],[-65.324,-11.257],[-65.355,-11.211],[-65.354,-11.072],[-65.301,-10.991],[-65.262,-10.831],[-65.286,-10.768],[-65.352,-10.723],[-65.359,-10.615],[-65.394,-10.567],[-65.385,-10.402],[-65.301,-10.186],[-65.287,-10.032],[-65.316,-9.965],[-65.3,-9.759],[-65.334,-9.702],[-65.457,-9.677],[-65.504,-9.775],[-65.604,-9.812],[-65.711,-9.756],[-65.729,-9.715],[-65.903,-9.716],[-65.989,-9.764],[-66.03,-9.719],[-66.098,-9.715],[-66.146,-9.807],[-66.338,-9.795],[-66.376,-9.863],[-66.545,-9.871],[-66.567,-9.922],[-66.634,-9.83],[-66.755,-9.785],[-66.764,-9.735],[-66.681,-9.664]]]}},{"type":"Feature","properties":{"admin_code":"BR-RR","name":"Roraima","name_local":"Roraima"},"geometry":{"type":"Polygon","coordinates":[[[-60.064,0.239],[-60.114,0.042],[-60.22,-0.015],[-60.227,-0.126],[-60.281,-0.161],[-60.287,-0.308],[-60.396,-0.444],[-60.389,-0.573],[-60.28,-0.609],[-60.295,-0.694],[-60.383,-0.718],[-60.42,-0.764],[-60.501,-0.748],[-60.533,-0.814],[-60.659,-0.86],[-60.727,-0.794],[-60.739,-0.714],[-60.881,-0.622],[-60.92,-0.545],[-61.152,-0.457],[-61.524,-0.708],[-61.54,-0.842],[-61.593,-0.899],[-61.544,-1.01],[-61.589,-1.076],[-61.59,-1.253],[-61.54,-1.418],[-61.743,-1.36],[-61.788,-1.312],[-61.846,-1.37],[-61.87,-1.359],[-62.092,-0.974],[-62.301,-0.907],[-62.354,-0.788],[-62.489,-0.722],[-62.474,-0.63],[-62.338,-0.689],[-62.266,-0.617],[-62.271,-0.466],[-62.179,-0.308],[-62.231,-0.221],[-62.196,-0.137],[-62.302,-0.047],[-62.325,0.081],[-62.423,0.119],[-62.436,0.438],[-62.514,0.683],[-62.43,0.807],[-62.463,0.893],[-62.426,1.083],[-62.529,1.158],[-62.609,1.436],[-62.765,1.578],[-62.784,1.633],[-62.732,1.696],[-62.665,1.93],[-62.783,2.016],[-63.014,2.04],[-63.098,2.096],[-63.135,2.19],[-63.402,2.208],[-63.44,2.452],[-63.836,2.415],[-64.005,2.461],[-63.948,2.807],[-64.029,2.853],[-64.198,3.065],[-64.186,3.351],[-64.224,3.442],[-64.173,3.521],[-64.273,3.696],[-64.362,3.736],[-64.49,3.745],[-64.484,3.788],[-64.563,3.888],[-64.726,4.037],[-64.739,4.122],[-64.805,4.154],[-64.804,4.259],[-64.727,4.263],[-64.605,4.202],[-64.55,4.105],[-64.343,4.129],[-64.081,4.107],[-64.062,3.998],[-63.971,3.948],[-63.731,3.961],[-63.652,4.008],[-63.612,3.942],[-63.496,3.94],[-63.408,4.008],[-63.348,3.972],[-63.281,4.022],[-63.262,3.941],[-63.178,3.888],[-63.16,3.841],[-63.082,3.831],[-63.025,3.666],[-62.935,3.604],[-62.872,3.729],[-62.725,3.769],[-62.725,3.828],[-62.808,3.939],[-62.729,4.048],[-62.561,4.053],[-62.501,4.123],[-62.285,4.124],[-62.184,4.084],[-61.863,4.128],[-61.788,4.175],[-61.751,4.243],[-61.538,4.252],[-61.463,4.436],[-61.269,4.443],[-61.295,4.486],[-61.26,4.517],[-61.195,4.48],[-60.995,4.483],[-60.978,4.628],[-60.892,4.69],[-60.683,4.737],[-60.598,4.882],[-60.599,4.935],[-60.65,4.975],[-60.661,5.072],[-60.729,5.13],[-60.722,5.175],[-60.595,5.178],[-60.449,5.127],[-60.311,5.173],[-60.134,5.171],[-60.06,5.051],[-60.013,5.03],[-59.99,4.758],[-59.995,4.586],[-60.101,4.53],[-60.104,4.488],[-60.074,4.461],[-59.94,4.456],[-59.894,4.383],[-59.708,4.408],[-59.636,4.318],[-59.647,4.262],[-59.7,4.215],[-59.622,4.096],[-59.634,4.002],[-59.523,3.914],[-59.663,3.691],[-59.712,3.67],[-59.724,3.61],[-59.847,3.517],[-59.815,3.457],[-59.835,3.251],[-59.88,3.12],[-59.949,3.078],[-59.981,2.677],[-59.926,2.522],[-59.877,2.499],[-59.892,2.42],[-59.868,2.365],[-59.822,2.348],[-59.804,2.302],[-59.699,2.283],[-59.697,1.894],[-59.643,1.858],[-59.634,1.762],[-59.499,1.696],[-59.497,1.625],[-59.451,1.607],[-59.437,1.544],[-59.333,1.53],[-59.223,1.386],[-59.144,1.396],[-59.06,1.326],[-58.923,1.316],[-58.878,1.178],[-58.884,0.255],[-60.064,0.239]]]}},{"type":"Feature","properties":{"admin_code":"BR-SC","name":"Santa Catarina","name_local":"Santa Catarina"},"geometry":{"type":"Polygon","coordinates":[[[-53.547,-26.293],[-53.521,-26.337],[-53.502,-26.297],[-53.442,-26.326],[-53.406,-26.28],[-53.343,-26.283],[-53.329,-26.319],[-53.262,-26.332],[-53.117,-26.433],[-52.794,-26.376],[-52.678,-26.429],[-52.537,-26.435],[-52.489,-26.476],[-52.25,-26.493],[-51.971,-26.639],[-51.704,-26.602],[-51.654,-26.648],[-51.531,-26.662],[-51.511,-26.724],[-51.351,-26.727],[-51.287,-26.624],[-51.322,-26.445],[-51.228,-26.347],[-51.106,-26.338],[-51.039,-26.276],[-50.918,-26.308],[-50.746,-26.241],[-50.708,-26.162],[-50.625,-26.099],[-50.47,-26.108],[-50.424,-26.151],[-50.349,-26.097],[-50.242,-26.132],[-50.178,-26.093],[-49.93,-26.106],[-49.688,-26.26],[-49.571,-26.249],[-49.332,-26.142],[-49.238,-26.044],[-49.176,-26.054],[-49.135,-26.1],[-49.05,-26.052],[-48.753,-26.051],[-48.701,-26.08],[-48.684,-26.144],[-48.641,-26.158],[-48.574,-26.264],[-48.647,-26.395],[-48.656,-26.524],[-48.76,-26.626],[-48.768,-26.797],[-48.674,-26.878],[-48.683,-27.067],[-48.638,-27.085],[-48.598,-27.174],[-48.612,-27.23],[-48.57,-27.42],[-48.449,-27.456],[-48.421,-27.498],[-48.572,-27.779],[-48.558,-27.864],[-48.626,-27.895],[-48.638,-27.966],[-48.682,-27.984],[-48.657,-28.083],[-48.708,-28.122],[-48.694,-28.22],[-48.727,-28.246],[-48.773,-28.411],[-48.819,-28.446],[-48.835,-28.622],[-48.955,-28.71],[-49.251,-28.805],[-49.369,-28.97],[-49.436,-29.002],[-49.615,-29.191],[-49.635,-29.254],[-49.756,-29.334],[-49.755,-29.375],[-50.012,-29.262],[-50.149,-29.282],[-50.219,-29.327],[-50.223,-29.246],[-50.059,-29.23],[-50.055,-29.12],[-50.002,-29.094],[-49.995,-28.774],[-49.904,-28.759],[-49.871,-28.683],[-49.771,-28.674],[-49.791,-28.548],[-49.966,-28.54],[-50.03,-28.491],[-50.105,-28.495],[-50.145,-28.542],[-50.2,-28.491],[-50.594,-28.488],[-50.618,-28.417],[-50.7,-28.387],[-50.734,-28.313],[-50.951,-28.138],[-50.962,-28.016],[-51.124,-27.97],[-51.137,-27.86],[-51.217,-27.85],[-51.243,-27.805],[-51.335,-27.799],[-51.394,-27.699],[-51.475,-27.676],[-51.525,-27.618],[-51.608,-27.609],[-51.634,-27.563],[-51.779,-27.558],[-51.824,-27.509],[-51.868,-27.559],[-51.96,-27.558],[-51.996,-27.411],[-52.213,-27.331],[-52.244,-27.285],[-52.321,-27.285],[-52.351,-27.332],[-52.415,-27.337],[-52.478,-27.285],[-52.661,-27.284],[-52.726,-27.336],[-52.826,-27.261],[-52.996,-27.246],[-53.015,-27.2],[-53.136,-27.165],[-53.292,-27.192],[-53.383,-27.111],[-53.486,-27.195],[-53.758,-27.191],[-53.802,-27.092],[-53.73,-26.998],[-53.726,-26.895],[-53.784,-26.719],[-53.723,-26.387],[-53.658,-26.295],[-53.547,-26.293]]]}},{"type":"Feature","properties":{"admin_code":"BR-SP","name":"São Paulo","name_local":"São Paulo"},"geometry":{"type":"Polygon","coordinates":[[[-50.893,-20.024],[-50.784,-19.933],[-50.674,-19.912],[-50.574,-19.81],[-50.454,-19.819],[-50.367,-19.883],[-49.968,-19.931],[-49.924,-19.995],[-49.795,-19.968],[-49.682,-20.014],[-49.643,-19.931],[-49.545,-19.943],[-49.379,-20.048],[-49.333,-19.996],[-49.277,-20.012],[-49.34,-20.106],[-49.266,-20.323],[-49.185,-20.356],[-49.107,-20.167],[-49.024,-20.198],[-48.996,-20.432],[-48.969,-20.465],[-48.92,-20.453],[-48.908,-20.381],[-48.955,-20.286],[-48.784,-20.181],[-48.703,-20.211],[-48.606,-20.164],[-48.288,-20.162],[-48.233,-20.107],[-48.189,-20.16],[-48.073,-20.162],[-48.018,-20.089],[-47.955,-20.162],[-47.916,-20.054],[-47.791,-20.05],[-47.753,-20.018],[-47.674,-20.069],[-47.535,-20.002],[-47.446,-20.099],[-47.293,-20.168],[-47.303,-20.465],[-47.136,-20.656],[-47.149,-20.715],[-47.233,-20.799],[-47.271,-20.921],[-47.217,-21.022],[-47.199,-21.182],[-47.137,-21.3],[-47.035,-21.38],[-47.04,-21.414],[-47.088,-21.434],[-47.07,-21.481],[-47.004,-21.49],[-46.912,-21.417],[-46.725,-21.425],[-46.57,-21.516],[-46.578,-21.66],[-46.668,-21.723],[-46.739,-21.874],[-46.682,-22.023],[-46.738,-22.069],[-46.739,-22.145],[-46.662,-22.192],[-46.737,-22.262],[-46.739,-22.401],[-46.669,-22.476],[-46.49,-22.565],[-46.463,-22.714],[-46.526,-22.766],[-46.42,-22.811],[-46.396,-22.953],[-46.345,-22.909],[-46.248,-22.905],[-46.159,-22.952],[-45.793,-22.844],[-45.79,-22.802],[-45.862,-22.765],[-45.809,-22.717],[-45.774,-22.618],[-45.706,-22.667],[-45.379,-22.667],[-45.235,-22.605],[-45.162,-22.499],[-44.959,-22.482],[-44.875,-22.439],[-44.816,-22.438],[-44.776,-22.474],[-44.691,-22.671],[-44.51,-22.662],[-44.393,-22.618],[-44.249,-22.675],[-44.247,-22.767],[-44.298,-22.791],[-44.315,-22.901],[-44.577,-22.904],[-44.771,-22.968],[-44.853,-23.04],[-44.877,-23.176],[-44.925,-23.26],[-44.831,-23.379],[-44.835,-23.439],[-44.9,-23.455],[-44.977,-23.378],[-44.972,-23.416],[-45.05,-23.506],[-45.27,-23.592],[-45.287,-23.67],[-45.398,-23.676],[-45.448,-23.719],[-45.241,-23.841],[-45.32,-23.988],[-45.486,-24.008],[-45.687,-23.853],[-46.049,-23.852],[-46.12,-23.899],[-46.179,-23.89],[-46.248,-23.951],[-46.262,-24.062],[-46.356,-24.051],[-46.417,-24.078],[-46.511,-24.05],[-46.609,-24.168],[-46.98,-24.292],[-47.121,-24.501],[-47.277,-24.586],[-47.512,-24.79],[-47.703,-24.846],[-47.953,-25.074],[-48.04,-25.305],[-48.104,-25.34],[-48.228,-25.3],[-48.291,-25.064],[-48.438,-25.076],[-48.497,-25.025],[-48.523,-25.125],[-48.627,-25.125],[-48.632,-24.883],[-48.573,-24.838],[-48.646,-24.736],[-49.375,-24.711],[-49.292,-24.396],[-49.331,-24.321],[-49.415,-24.26],[-49.369,-24.198],[-49.453,-24.164],[-49.645,-23.926],[-49.595,-23.839],[-49.658,-23.604],[-49.706,-23.555],[-49.651,-23.485],[-49.721,-23.22],[-49.787,-23.144],[-49.907,-23.123],[-49.935,-23.042],[-50.04,-22.964],[-50.186,-22.964],[-50.248,-23.029],[-50.295,-22.965],[-50.67,-22.962],[-50.805,-23.027],[-50.828,-22.918],[-50.945,-22.834],[-51.061,-22.828],[-51.119,-22.786],[-51.441,-22.714],[-51.482,-22.672],[-51.523,-22.713],[-51.699,-22.737],[-51.708,-22.709],[-51.902,-22.658],[-52.118,-22.558],[-52.152,-22.563],[-52.192,-22.661],[-52.541,-22.674],[-52.621,-22.613],[-52.682,-22.658],[-52.778,-22.673],[-52.858,-22.606],[-53.02,-22.608],[-53.071,-22.662],[-53.131,-22.651],[-53.061,-22.548],[-52.885,-22.478],[-52.709,-22.342],[-52.534,-22.263],[-52.365,-22.1],[-52.323,-21.955],[-52.252,-21.913],[-52.071,-21.676],[-52.125,-21.568],[-51.962,-21.531],[-51.9,-21.376],[-51.88,-21.201],[-51.785,-21.113],[-51.754,-21.024],[-51.656,-20.982],[-51.658,-20.696],[-51.499,-20.602],[-51.469,-20.52],[-51.368,-20.408],[-51.233,-20.33],[-51.117,-20.321],[-51.03,-20.025],[-50.893,-20.024]]]}},{"type":"Feature","properties":{"admin_code":"BR-SE","name":"Sergipe","name_local":"Sergipe"},"geometry":{"type":"Polygon","coordinates":[[[-37.814,-9.573],[-37.734,-9.621],[-37.667,-9.601],[-37.389,-9.775],[-37.267,-9.803],[-37.141,-9.896],[-36.957,-9.973],[-36.903,-10.01],[-36.813,-10.162],[-36.67,-10.226],[-36.642,-10.267],[-36.503,-10.268],[-36.462,-10.397],[-36.368,-10.387],[-36.303,-10.455],[-36.307,-10.495],[-36.427,-10.529],[-36.482,-10.593],[-36.703,-10.682],[-36.812,-10.857],[-36.934,-10.939],[-37.228,-10.626],[-37.289,-10.613],[-37.009,-10.949],[-37.003,-11.04],[-37.028,-11.148],[-37.193,-11.335],[-37.331,-11.554],[-37.707,-11.534],[-37.922,-11.431],[-37.951,-11.209],[-38.046,-11.118],[-38.166,-10.916],[-38.164,-10.702],[-38.119,-10.693],[-38.076,-10.728],[-38.006,-10.693],[-37.888,-10.737],[-37.769,-10.656],[-37.782,-10.411],[-37.707,-10.291],[-37.713,-10.153],[-37.776,-10.034],[-37.86,-10.015],[-37.927,-9.953],[-37.947,-9.812],[-37.999,-9.772],[-37.991,-9.696],[-37.94,-9.657],[-37.993,-9.581],[-37.814,-9.573]]]}},{"type":"Feature","properties":{"admin_code":"BR-TO","name":"Tocantins","name_local":"Tocantins"},"geometry":{"type":"Polygon","coordinates":[[[-50.166,-9.622],[-50.121,-9.578],[-50.126,-9.426],[-50.044,-9.265],[-49.904,-9.156],[-49.864,-9.06],[-49.715,-8.885],[-49.626,-8.856],[-49.56,-8.792],[-49.444,-8.618],[-49.364,-8.421],[-49.269,-8.329],[-49.211,-8.182],[-49.135,-7.814],[-49.36,-7.676],[-49.381,-7.499],[-49.195,-7.255],[-49.215,-6.894],[-49.025,-6.772],[-48.824,-6.75],[-48.727,-6.693],[-48.681,-6.634],[-48.706,-6.576],[-48.658,-6.556],[-48.643,-6.491],[-48.526,-6.376],[-48.418,-6.356],[-48.432,-6.246],[-48.407,-6.177],[-48.303,-6.12],[-48.3,-6.063],[-48.362,-5.986],[-48.263,-5.955],[-48.305,-5.792],[-48.195,-5.753],[-48.171,-5.619],[-48.292,-5.579],[-48.387,-5.426],[-48.441,-5.418],[-48.535,-5.462],[-48.743,-5.413],[-48.767,-5.379],[-48.551,-5.192],[-48.388,-5.197],[-48.143,-5.291],[-47.969,-5.249],[-47.86,-5.403],[-47.668,-5.434],[-47.518,-5.505],[-47.434,-6.183],[-47.38,-6.248],[-47.434,-6.362],[-47.453,-6.601],[-47.492,-6.653],[-47.509,-6.91],[-47.636,-7.148],[-47.784,-7.176],[-47.79,-7.204],[-47.695,-7.249],[-47.668,-7.336],[-47.595,-7.281],[-47.502,-7.296],[-47.508,-7.398],[-47.574,-7.467],[-47.513,-7.481],[-47.491,-7.53],[-47.394,-7.559],[-47.333,-7.619],[-47.323,-7.733],[-47.272,-7.758],[-47.263,-7.853],[-47.128,-7.936],[-47.045,-8.07],[-47.005,-8.072],[-46.986,-8.026],[-46.894,-7.971],[-46.727,-7.918],[-46.61,-7.927],[-46.464,-8.001],[-46.532,-8.32],[-46.672,-8.381],[-46.809,-8.399],[-46.888,-8.58],[-46.934,-8.615],[-46.94,-8.857],[-47.027,-8.929],[-47.107,-9.098],[-46.891,-9.164],[-46.819,-9.231],[-46.873,-9.288],[-46.806,-9.375],[-46.697,-9.402],[-46.592,-9.518],[-46.569,-9.597],[-46.644,-9.696],[-46.639,-9.758],[-46.571,-9.835],[-46.479,-9.867],[-46.459,-10.033],[-46.388,-10.175],[-46.17,-10.232],[-46.061,-10.193],[-45.811,-10.292],[-45.718,-10.236],[-45.668,-10.252],[-45.715,-10.339],[-45.829,-10.362],[-45.856,-10.452],[-46.005,-10.534],[-46.094,-10.645],[-46.248,-10.672],[-46.195,-10.734],[-46.3,-10.825],[-46.326,-10.945],[-46.451,-11.096],[-46.48,-11.199],[-46.602,-11.262],[-46.579,-11.373],[-46.53,-11.394],[-46.521,-11.488],[-46.46,-11.549],[-46.258,-11.562],[-46.257,-11.622],[-46.309,-11.647],[-46.352,-11.841],[-46.335,-11.871],[-46.193,-11.901],[-46.219,-11.932],[-46.334,-11.947],[-46.412,-12.024],[-46.396,-12.098],[-46.348,-12.139],[-46.406,-12.218],[-46.306,-12.386],[-46.257,-12.406],[-46.212,-12.526],[-46.223,-12.581],[-46.308,-12.599],[-46.253,-12.657],[-46.31,-12.706],[-46.315,-12.976],[-46.361,-12.972],[-46.394,-12.855],[-46.428,-12.979],[-46.742,-12.992],[-47.081,-13.172],[-47.249,-13.206],[-47.298,-13.257],[-47.473,-13.244],[-47.586,-13.134],[-47.666,-13.146],[-47.667,-13.412],[-47.702,-13.441],[-47.776,-13.392],[-47.813,-13.315],[-48.17,-13.307],[-48.204,-13.195],[-48.29,-13.199],[-48.316,-13.249],[-48.467,-13.267],[-48.484,-13.144],[-48.527,-13.191],[-48.567,-13.189],[-48.582,-13.088],[-48.644,-13.028],[-48.758,-13.013],[-48.825,-12.855],[-48.963,-12.941],[-49.062,-12.905],[-49.112,-12.84],[-49.183,-12.86],[-49.364,-13.146],[-49.384,-13.282],[-49.43,-13.282],[-49.603,-13.143],[-50.027,-12.913],[-50.218,-12.888],[-50.248,-12.836],[-50.344,-12.827],[-50.347,-12.787],[-50.293,-12.757],[-50.287,-12.635],[-50.234,-12.604],[-50.252,-12.453],[-50.343,-12.517],[-50.355,-12.575],[-50.463,-12.672],[-50.513,-12.827],[-50.613,-12.829],[-50.682,-12.65],[-50.644,-12.307],[-50.688,-12.005],[-50.666,-11.891],[-50.743,-11.74],[-50.679,-11.632],[-50.732,-11.566],[-50.747,-11.347],[-50.691,-11.285],[-50.653,-11.113],[-50.634,-10.817],[-50.586,-10.758],[-50.595,-10.653],[-50.536,-10.564],[-50.514,-10.435],[-50.417,-10.302],[-50.397,-10.116],[-50.303,-10.024],[-50.166,-9.622]]]}}]}